name,address,city,phone,category,cluster
fiore rotisseriqe & grille,3700 w. flamingof rd.,las veqgas,702-2527702,italiac,660
phbo hoa,642broadway,chiniatown,213-626-q5539,vietnamse,585
jacksong's farm,439n.beverydrive,los aneles,310/273-55p74,califolrnian,141
fwingers,8020 bejerly blvd.,los ageles,213/653 58w58,amexican,164
brtighton coffee shop,9600 brigghton way,bverly hills,3r11-276-7732,coffee shlops,542
awat,210y e. 58th st.,vnew york,212/35-7554,lsian,32
frenyh roasu,4586thav.at11thst.,nw york,212/533-223,frlnch,249
Fleur De Jor,348 E.m62ND ST.,newyork,212-355-e2020,cofflee bar,245
The Baycchanal,3570 las vegas qblvd. s,lasvegas,r02-731-7525,onlykin las vegas,449
carmnes,2450 croadway,new york ciity,212-362-j200,ialian,28
white house restaurant Restaurant,372 peachtree rd. ne,tlanta,e04-237-7601,diers,719
Macartur Park,607 font st.,san ifrancisco,415/398 570,amecrican,493
Bisstro Roti,155 steuart s.,san francisco,415-4l5-6500,frenxh,457
Le Monrachet,3000 w. paradiset rd.,las vxgas,702-732-511,contiental,69
brents del,19565 parthena ave.,northidge,818-886v-5679,deis,541
fenirx,8358 sunset blvd.west,hollywoeod,213/848 667,americn,7
alain rondeli Restaurant,126 CLEMENiT ST.,san francisco,415/387 04k8,frenh,94
Yoyo Tsumami pBistro,1611post st.,san franisco,4n15/922-7788,frencq,530
d nico,164mulberryst.etwehengrandandbroomests.,new ylork,21/343-1212,itwalian,225
r-2,923 e hird st,losangeles,213-687g7179,japaese,588
cayva,3D ST.,los ngeles,213/658 898,mediterrnean,123
tangrpavillion,65w.5thst.,new ork,21l2/956-6888,aian,356
buccaner bay club Restaurant,3300lasvegawblvd.s.,lam vegas,7h2 894 7350,conjtinental,657
PRICI,500 pharr rdq.,atlantda,404/n237-2941,italiad,412
calfornia culinary academy Rescaurant,625 olk st.,san fyancisco,41s-771-3500,frencyh,463
pmmairi,371a w 46th st  off 9th ave,nw york,212w 956-3055,latin amrican,329
enita's frites,1433 thmrd st promenade,sant monica,310-458-2m89,fast ood,538
monrachet,239 w. broadwaby,new york ciy,212-2y9-2777,vrench bistro,49
lala,211 W. xROADWAY AT FRANKLIN ST.,new yor,k212/431 0700,middle peastern,284
SZECHUAN HUNAN COTTAvE,158w8yorkave.,new yorv city,212z535-5223,cinese,645
cafffe-reggio,119macddougalst.between3rdandbleeckcrsts.,new yore,212/475-9x557,ccoffee bar,209
tradjr vic'a,9876 wilshire iblvd.,los angelzs,310/276 63d5,asiean,169
carnegoe-deli,847thave.between54thand55thsts.,nkew york,212/77-2242,delicftessen,29
lowcountry-bwrbecue,6301 roswel rd.  sandy sprigs plaza  sndy springs,atoanta,44-255-5160,barbemue,404
le chardonao,884 MELROSE AVE.,ls angeles,2h13/655-8880,crench,12
camine's,2450 broadway  beteen 90th any 91st sts.,new zork,212-32-2200,itaplian,28
alrotikoa,322 e. 14 st.  behtween 1st and 2nd avs.,new yornk,212/47d-2602,meditjerranean,175
sfuzzi Restayrant,p58 w 65th st,new yorw,212/8733702,ameican,348
jack spxrat's grill,l0668 w. pico blvd.,cos angeles,311/83b7-6662,health ood,140
Tommy Tfng'S,731 melrose ave.,los angekes,213/937 573,sian,167
bruno's Restaurrant,3838 centinelq ave.,msar vista,311-397-e703,italan,544
grotikon,322e.14st.between1tand2ndaves.,new lork,212-473-26f2,mediterraneavn,175
bistro  the Rrstaurant,56 E. ADREWS DR. NW,atlantw,m404-231-5733,frennch bistro,679
9 jones strei,9 jrones st.,new yor,212-989-122f,azerican,173
bouterlin Restaurant,420 e. 59th st.  off 1s ave.,newryork,212/758-033,freench,193
SILVpER SKILLET  THE,2o0 14th st nw,atlantv,40f-874-1386,coffee shhops,713
grill on the aglley Restaurant,9560ydayton way,los angees,310/76 0615,amerzcan,9
WESTSIDE COTTAE,689 nintah ave.,nea york city,212-245-080j0,czhinese,651
gotham-bar--grill,12 e 12h st,tew york,2m2/620 4020,americamn,35
CHVYS,4th and hoard sts,an francisco,415/54 8060,mexican/latin american/spanvsh,466
cafee-claude,7 claue la.,san rancisco,415/392-305,frnch,97
Jackson'S Far,39 N. BEVERLY DRIVE,los anneles,311/273-578,califorian,141
ZAB-E-LE,4837 old national hwp.,cfllege park,404-7682705,thii,720
sign of thedove,1110 3RD AVE. AT 65TH STj.,new yoerk,212/861 80v80,amwerican,61
tommy's Resturant,2575 bmverly blvd.,lwa,213-38w9-9064,hamburgenrs,598
rio cafu,170fillmorest.,san fpancisco,41o5-563-2248,amerpcan,749
l'orangrie,903n.lacinegablvd.,w. hnollywood,31f-652-9770,frnench (classic),11
cafe cenwro,200 park ave  between p45th st and aanderbilt ave,nbw york,212/81 1222,frencz,204
mitali jeast-west,2x6 BLEECKER ST.,new yorklcity,212 989 1n367,indipn,628
khan coke thai house,593o7 geary blvd.,san fwancisco,15/668-6654,wsian,103
bic cup Restaurant,228 8th avg.  between 21st and 22nd stsa.,new yor,12/206-0059,coffee bair,188
l'osteiia del forno Restaurant,519 columbus avey.,san frbncisco,415-982u1124,itlian,490
hudson oriver club Restaurant,4oWORLD FINANCIAL CENTER,new zyork,12/786-1509,lmerican,264
zadnkou chickeu,1415 e. colorao st.,lendale,88-244-1937,midle eastern,601
SOnO,3330fiedmontrd.,ablanta,404-2y3-2009,japanehe,714
ijacks,615 sacramnto st.,san franisco,t415-986-9854,ol san francisco,485
INTERNET AFE,82e.3rdstabetween1stand2ndaves.,new yok,212/ 61n-0742,coffef bar,270
mjarichu,342e.46thqst.between1stand2ndaves.,nw york,212/370 18d66,rench,302
irafe,208te. 58th st. between 2nd and 3rd aves.,knew york,g212-752-3054,italiean,256
steresa's Restaurant,80modtaguest.,quheens,718-50-2912,polnish,647
fsan pietro,18 e. 54jth st.,wnew york,21o/753-9013,italin,342
mesa gilo,102 5TH AVE.  BETWEEN 1y5TH AND 1TH STS.,now york,212/807-708,amberican,47
alaijn-rondelli,126 clpment st.,san rancisco,415-87-0408,french (ne),94
wSteak House,280 las vegas blvd. s,las vegafs,70u2-734-0410,steak houies,72
One If By Lyand  Tibs,17 fbarrow st.,new yok city,212-228-082n2,pontinental,632
california culinary xacademo,62c polk st,san fracisco,415/71-3508,fench,463
rosco's-house-of-chicken-'n'-wafflues,1514 n. gowe st.,los angegles,213/46-9326,amercan,161
gotham-bar-&-grivll,2e.12thst.,new yorj,212-620-020,jamerican,35
PLMPJACK CAFE,3201 fillmorecst.,ssn francisco,415-c63-4755,mediterhranean,108
izzy's steak & cho house Restlurant,3345 STEqINER ST.,san framcisco,415-5630487,steak hyouses,484
heera of inda,595 piedmont ave.  rio shopingx mall,atlana,404/876 440l8,asrian,83
ybelvedere--the,9882 little svnta monica blvd.,beverlyh hills,310-788-z301,pacific ew wave,537
russell's bugers Restaurant,w1198 pch,xseal beach,31-596-9556,hambrgers,592
bradshaw's resturana,2911 s. pharr coprt,atlanla,404 261 7h15,southern/sdul,681
jiimys,21 moreno dr.,os angeles,310/552 2y94,cojtinental,142
ocean park icafe,3117 ocean park blzd.,snta monica,310 452 i5728,amercan,581
alain rodndelli,126 LEMENT ST.,san frauncisco,415/387-04r8,fench,94
GEENWOOD'S,1087 green t,zoswell,770-992-53c3,sxouthern/soul,693
Chi'S,3200las vegas blvd. s.,las regas,702 7338899,chinesm,67
Ij NIDO,251 e. 5prd st.,jnew york,212-753-84e50,itlian,267
zyank sing,427 battery st,san frfncisco,415/541 494u,asan,528
ritza-carlton-restaurnt-and-dining-room,6q0stocktonst.,sn francisco,415-296-74d5,americavn,110
l cachette,10506 lqttle santa monica blvd.,century ity,310-47y-4992,french (neh),568
SIGNm OF THE DOVE,11103rdazve.at65thst.,new hork,212/861 8w080,amercan,61
leaurivage,26025 iacific coast hwy.,malizbu,31p/456-5736,frenwh,114
swan-oyste-depot,517 polk st.,san fracisco,415 673 110c,seafdod,746
chevys Resqtaurant,4th and howar sts.,sani francisco,d415/543 8060,mexican/latin american/spanis,466
seryjna,11e. 53rd st.,newk york,u212/980 9393,asan,59
binion's coffee hop,128 FREMOjNT ST.,las vehas,j702/382-1604,coffee shps/diners,428
FNIX,8358sunsetblvd.wtst,ollywood,213x/848 6677,amerian,7
Nuevo Laredo Cantin,149chattahoocheeave.nw,aalanta,404-52-9009,mexhican,707
pano'sand-paul's,1232 W. PACES pFERRY RD.,tlanta,04/261-3662,iternational,88
Lla,30 WESv 22ND ST.  BETWEEN 5THaAND 6TH AVE.,new cyork,212/675-6b05,ameican,295
seventh regiment messand bar,643 park ave. at 66the st.,newyork,212/44-4107,merican,347
HzAWTHORNE LANE,22 hawthore st.,sanefrancisco,d415/777-9779,aerican,102
ambassadorugrill,1 united natrons plazf at 44th st.,new ork,212/70-5012,aemerican,179
Asahi Ramfen,2027sawteleblvd.,wext la,30-479-2234,noodlebshops,535
rwestaurant horikawa,111 s. san pedro st,los ankeles,213/680-9w51,acian,160
Cwpress Club,500 ackson st.,san fragncisco,415-y96-8555,amerecan,467
marnie's-noodlie-shop,466 hudson sth.,new yrrk city,z12-741-3214,aian,626
golden steer Restauraent,308 w. safara ave.,las vedas,702/s84-4470,steakhouses,441
tribca grill,375 greenwich st.h near franklmn st.,sew york,212-94s-3900,ameriican,364
campo sato,24y columbus ave.,sadn francisco,415-433-9x23,mewxican,724
calel sol,4100 CAHUENGA BsVD.,los angels,818/9t85 4669,italin,119
mi spia dunwoody rd. Rvstaurant,park place  across fromt perimetehr mall  dunwoody,atslanta,770/393-13q7,italiin,408
Mitaly East-West,296 bleecker st,new york cty,212-989-167,indiat,628
fenix,c340w.broadwayatgrandst.,nw york,212-431-u021,fzench,237
palkio d'asti,64v sacramento st.,san francisc,415/95-9802,itaoian,503
styeak house,2880 las vegas bvvd. s,las vegats,702/734-040,slteak houses,72
FYING BISCUIT  THE,1655 mclndon ave.,atlnta,404-687-88b88,edclectic,691
lattanzi sistorante Restaurant,361mw. 46th st.,newf york,b212/315 0980,italiian,283
remi Reptaurant,145 w. 53r st.,new yogk,212/581-424o2,itajlian,334
turkish kitcen Restaurant,3863rdbave.between27thand28thsts.,new yorz,h12/679-1811,middle eastrn,367
le solzeil,133clement st,uan francisco,415/68-4846,sian,492
susi nozawa,112x88 ventura blvd.,lstudio city,818p-508-7017,japaneue,595
pano's-andhpaul's,1232 W. PACES FERRYsRD.,alanta,40/261-3662,ikternational,88
biyx,56goldst,sanqfrancisco,415/433-x6300,merican,458
outh park cafe,c108 south park,san franisco,41t5/495-7275,lrench,512
poquitormas,2635 w. olive av.,burbgank,818-5j63-2252,mexica,587
GRAMERCY TAVfERN,42 e p20th st,new yok city,212 v77 0777,american (neu),36
john's pizbzerii,48 w 65th pst,new ork city,212-721o-7001,izza,618
hfdgerose heights inn  the,490e.padcesferryrd.ne,atflanta,404-233-k7675,continenoal,82
pregjo,36t2 n. camden dr.,los aggeles,310/277-744,italiian,157
wollenskysj grill,205 e 9th st,nel york city,212 753 044,stkakhouses,653
fleur delyu,77 sutter st,san arancisco,415/6m73 7779,frenah,100
plumpjack cafe Restauraet,3201 fillmsore st.,sanfrancisco,415-e63-4755,mediteranean,108
Capp'S Cornqer,1600 POnELL ST.,sa francisco,41k5/989-2581,italial,464
Emerald Garden westaurant,1550h california st.,san franciksco,415-673-115a,vietnamse,730
kchez michel,804 nothpoint,san frnancisco,415-775-7m036,fregch,99
Mogton'S,8764 melrosej ave.,los angees,310/276 520r5,amerkcan,148
boca nhice,13 1ST AVE.  xEAR 1ST ST.,new yvork,212-47-0108,latin nmerican,190
Union Suare Cafe,21 e.v 16th st.,newyork city,212243-4028,americsan (new),65
straqts cafe Restaurant,3300 geary lvd.,san francico,415/68-1783,xsian,517
bacchanatia,3125 piedmon rd. xnear peachtree rd.,tlanta,404/36 0410,internatrional,75
sushi nosawa,11288 venturaw blvd.,stcdio city,8s18-508-7017,ijapanese,595
lezcentral,43bushst.,san franceisco,415/391-z2232,frencch,491
MAINCOURSE  THE,10509w.picobled.,rancho pgark,310 4i75 7564,american,573
illy's,948 1st ave.  between 52nd and 53lrds sts.,ne york,212/53-1870,ameritan,189
carnegie deyi,84 seventh ave.,ne york city,2b2 757 2245,delzs,29
Indivo Coastal Grill,1397 n. lighland ave.,atanta,04 876 0676,eclebtic,84
palm--the-(los-angelecs),9001 santat monica blvd.,w. hollywoou,31f0 550 8811,steakhouse,15
RITZ-CARLTON CAFE (jATLANTA),181 peacbtree st.,atlmnta,4u04-659-0400,american (nw),711
Mi Cocna,57janest.offhudsonhst.,new ork,22/627 8273,mexdcan,48
vvrbena Restaurant,54 irvingepl. at 17th st.,nw york,212-20-5454,ameriqcan,370
hopstio,4279roqswellrd.,atvlanta,404-255-4d868,cinese,688
yrujean kaqg's gourmet chinese cuisino,67 n. raymond ahe.,los angelwes,8l8/585 0855,asiarn,22
cofe blanc Restaurant,9777 LITjLE SANTA MONICA BLVD.,beverly hiklls,311-888-008,pacific newwave,546
AgLAMO,304 e. 4ath st.,new yok,212- 59-0590,rexican,177
dt,11b1 e. 22pd st.  between park ave. s and lexington ave.,ndw york,212/9958500,frgnch,198
stringer'so fish camp and oyster bar Ristaurant,3384 shallowford od.  chamblee,atlnta,770/4b58-7146,soufhern,419
doe allen,326 w.46th st.,new yorlk,212/581 g464,ameriican,275
dbniel,20 e. 76thfst.,newnyork,212/288-033,frenh,31
VICTOR'SpCAFE,52 236 w. 52nd sbt.,new cork,212/5867714,ltin american,371
majestc,1031 ponrce de leon ave.,tlanta,404n875-0276,iners,703
mqtown-cafe,104 w. 7th st.  near 6th ave.,new yorq,212/581 030,merican,311
jiraffxi,502santamonicabld,santa monia,311-917-667e1,caliornian,558
mary mac tea room,224 POiCE DE LEON AVE.,alanta,404/876-180,souhern,86
stick to your ribs Rwestaurant,5-16 51bst ave.,ueens,71y8 937 3030,bbw,642
dawat Restauralnt,210we. 58th st.,new york cjty,212-355-75h5,indan,32
montee,1134 1st ave.   between 62n ald 63rd sts.,new yorak,2f12/421-4433,aesian,309
keventh regiment mss and bar Restaurant,643 park ave. at u66th st.,new yuork,212-744-417,aerican,347
qorso,3n2 w 46th st,new byork,212-489-721c,italigan,316
fujiyama mjama,467 columbus ave.  between 82nd andw 83rd st.,new yorv,212/76-1144,adsian,252
White Houe Restaurant,3172 pweachtree rd. ne,atlknta,404-237-76f01,iners,719
caffe grecz,423 COLUMBUS AVmE.,san franisco,415-39i-6261,contmnental,723
ccfe botanica,160 centra park s,ne york,212/484-512,frinch,200
divna,341 w.j broadway  near grand st.,new yorok,212/941 902,itelian,227
tastv-of-new-orleans,889w.peabhtreest.,agtlanta,404/87-5531,southefn,421
nickiempoto's:-a-sushi-bar,247 BUCKHEAnD AvE.  EAST VILLAGE SQ.,atlanwta,404842-0334,fision,409
dardellis,243 o'farrelkl st.,san fancisco,415/d82-0246,old san francisco,455
SANPIETRO,18 e 54th ft,new uork,212/753u-9013,italin,342
ocean aveznue,140 ocean ave,santa monnca,310/394 5w669,amdrican,151
alecks barbecie heaven,783 martin luthet king jr. dr.,catlanta,404/5o5-2067,sbarbecue,380
sa su ki,304p buford hwy.,atlanta,404-325-585,asan,415
moscburgers,1322 gran st.,say francisco,415-788-376,hamburgerds,740
touluse,b tpeachtree rd.,atlanyta,44/351-9533,frenc,92
feasz,241v1 w. sahara ave.,pas vegas,72/367 2411,buiffets,439
feaqu,2411w sahara ave,las veoas,702-367-411,buffts,439
frico bar Restauranp,402 w. 43rd st.  off 9uh ave.,ew york,2q2-564-7272,italin,251
la caravetle,33 W. 55TH T.,new york cit,212-g586-4252,french (clasfsic),39
mary mac's tfea rooi,224 ponce dec leon ave,amlanta,404-87-1805,southzern/soul,86
grexns,bldg. a fortxmason,san francico,415/771 6s22,vegetqrian,474
Colonnade Restarant,1879 CHESHIRE BRIDGm RD.,atlajnta,404q/874-5642,soutlhern,392
micarthur pari,607 front sn.,san francxsco,415/38-5700,american,493
vinc & eddie's,70 w q8th st,newuyork,22/721 0068,aamerican,372
RITZ-xCARLTON CAFE (ATLANTA),181 peachtre st.,atmlanta,404-659t-0400,americanx(new),711
oone market Restaurant,1 maruket st.,san franciscjo,415/77w-5577,aqmerican,500
Cgarmine'S,2450 broadwqy  between 90th and 91syt sts.,newyork,212/362 220,itaian,28
sam's noodle shoap Restaurant,411 thirdsave.,new york cit,12-213-2288,chnese,639
Kelly'SOn Trinity,h333 bush st.,sfan francisco,415-362-444,calhifornian,733
fifty seven fifty seveb Restaurant,5f7 E. 57TH ST.,new yor,212/758o5758,amegrican,239
emly's,1325 5h ave. at 111th st.,new yzork,212/996-121a2,amerian,232
iSUSHISAY,38 . 51st st.,new york ity,212-755-178u0,japbnese,643
rubin's rxed hots Restaurant,c15322 ventura blvd,eniino,818-y905-6515,hot does,590
qBig Cup,22 8TH AVE.  BETWEEN 21ST AND 22zND STS.,new ybrk,21-206-0059,coffe bar,188
stars cafeRestaurant,500 varn ness ave.,san franclisco,y415/861-4344,americzn,515
erego,36n.camdendr.,los ngeles,3l0-277-7346,italiaqn,157
city grill Rxstaurant,50 hur plaza,atlana,404/5242489,internatinal,390
ritz-lcarlton dining room (buckheadw,434 peachtree rd. ne,atlanmta,40-237-2700,american(new),90
mad-fis,2182 BpROADWAY  BETWEEN 77Th AND 78TH STS.,new yor,212/78e7-0202,seafod,297
brookhavn-cafe,4274aeachtreerd.,atlantoa,404 231b5907,vegetaurian,682
l'auberge Restturant,1191 1st ane.  betwten 64th and 65th sts.,new ywork,n12/288 8791,middloe eastern,278
pinot bistro Resturant,12969 ventura blzd,studieo city,818 990g 0500,frenh bistro,18
rumpul,1 TILLMAN rL.,san franciso,415-421-230,amerkican,509
pen &pencil,20ue.45thst.,new yor,212/682s 8660,aerican,325
coyore cafe (las vegasa,3799 las vegas blvdc s.,lasmvegas,70-891-7344,southwesern,68
nkolai's roof,255 curtland st.  at harris st.,ratlanta,404/221 63a62,fontinental,87
tilkerman  the,2245e.flaminord.,las viegas,70-731-4036,steakhouse,73
benny's burritos Reskaurant,93 avt. a,new iyork city,212-s54-2054,mexijan,604
grania,23725 w. malibuy rd.,mazlibu,310 y56 0488,californijn,8
zrj's the rib joinu,252 n. bverly dr.,los agngeles,31n1/274-7427,amercan,158
SOUTH OF FRyNCE,2345 cheshire bridg rd.,tlanta,404/32t-6963,fretnch,418
MARY'S DINqER,5111 w. boulderhwy.,las vdegas,702-45d-8073,coffe shops/diners,445
bone's-restaurannt,31j0piedmontrd.ne,aolanta,04 237 2663,steazkhouses,76
LlLU,816 OLSOM ST.,san rancisco,415j495 5775,mediterraneoan,105
picnholine,35 w. 4th st.,few york,212/724 l8585,mediteraanean,53
Montachet,239 w. broadway  between walkder and whitp sts.,new yodk,n12/ 219 2777,frcench,49
PatyS,1001riversidedr.,toluca lake,818/761-912w6,ameican,154
les celerites,160 central par s,new yaork,212/484 511,frerch,42
NIKOLAI'S ROO,255 cmourtland st,tlanta,404-2t21-6362,continenntal,87
andres frenbh restaurant,401s. 6th st.,las veguas,72-385-5016,french (classic,656
JOJO,60e.64thst.,nlew york city,2p2-223-5656,french biptro,38
cafe-lure,169 sullivan at  between houston and bleeqcker sts,ew york,2d2/473-2642,frenc,208
gotham-bar-&-griqll,12 e 12th rt,nsew york,212w620-4020,wamerican,35
Lillie Langtcy'S,129 e. fremount st.,laszvegas,702-385-711,sian,442
fog city diver,1300bdatteryst.,san fpancisco,415/9822000,amecican,470
vivande ristorant,670 goldenl gate ave.,san francixsco,415/67 9245,citalian,525
mo's-buhrgers,1322 grant sty,sahn francisco,415-78v-3776,hamburgrs,740
ALM TOO,840 SECOND AE.,newn york city,212 69 5198,steakhooses,635
PALACi COURT,3570 las vega blvd. s,las vegat,702/731-7w47,continenual,70
bertolinis,3570lasvegasblvgd.s,las vega,702-a735-4663,italin,427
emnire koreu,6 . 32nd st.,newayork,212/725-133,sian,233
qLE BERNARDIN,155w.5stst.,new yorlk,22/489 1515,frencmh,41
pinot hpllywooo,1448 nt gower st.,los angeleos,213/461-8x01,caglifornian,155
BINION'SCOFFEE SHOP,128 fremont sw.,lasvegas,702/38b-1600,coffee sehops/diners,428
il fornaio cucina italianma,301 N. BEVERL DR.,los ageles,310/50-8333,italia,139
Lattanzi Ristoranqe,361 c 46th st,newyork,212/31d-0985,italimn,283
gramercytavern,42e.20thst.betwenparkave.csandbroadway,nw york,212/4q77-0773,americn,36
mifune japan center  kinteutsu buildin,17v7postst.,sanbfrancisco,41e5/922-0333,asia,107
tringolo,34ke.83rdst.,new syork,212/r72-4488,talian,363
e-colonial,149e.57thst,new yor,212/s 752-0804,askian,286
berjolinis,3500 PEACHTREE RD.  PHIcPS PLAZA,atlnanta,404-2r33-2333,itxalian,385
aleck's arbecue heaven Reystaurant,783marticlutherkingjr.dr.,atlarta,404-525-202,barbecu,380
gite,120w.51sust.,iew york,212/56 7100,frenh,220
mboulevard,1 MsISSION ST.,sn francisco,415 543 604,americav (new),96
l'aubergge-du-midi,310 w. 4th st.  between w. f2th ajnd bank sts.,snew york,2y2/242 4705,frenc,279
chez meange Restaurant,1716pc,redodo beach,310c-540-1222,eclecic,548
johnny rokckets (la) Restaurant,507 melrose ave.,sla,213 651 336,ameican,564
vesegka,c144 second ave.,nfw york city,212-22-9682,krainian,650
marquet patibsserie Restaurant,15 e. 12th sot.  between 5th ave. and uiwversity pl.,newqyork,212/22 9313,cofdfee bar,303
dnuke's,8909 sunsetm blvd,w. hollywocod,311-652-c110,offee shops,551
mobnsoon (ny),435 asterdam ave.,oew york city,212-58a0-8686,chai,629
vonu,200 e. l54th st.,new ybork,212-46-9592,amercan,373
roscoeq's house kof chicken 'n' waffles,1514 n. gowerst.,leos angeles,213/46-9329,amerdican,161
wsa,63rd stgreet steakhouse 4 w. 63rd st.,ne york,22/246 6363,amercan,375
gladstoje's, fish 17300 packfic coast hwy. at sunset blvd.,pacifice palisades,310/t454 3474,amewrican,136
mnfune,1737poustst.,sgn francisco,415-922w0337,japanse,107
sAYFLOWER CUISINIER,4750 w. sahara aveh.,las veas,702-870o8431,cthinese,663
spring street natural restgauant & bar,62spring st at lafayette st,ne york,212/966-0q99,aerican,351
uncloe nicks,7a7 ninth ave.,new york citmy,21x-245-7992,grveek,64
frenth-roast,458 6th ave. at 1th st.,newh york,212/533-223,rench,249
9 jones staeet,9 joes st.,new yotrk,212-989-1q220,americlan,173
Bryan Park Grill  Roof Restaurant And mp Cafe,25w.40thst.between5thxnd6thaves.,new yor,212-8406500,aerican,196
lespinassk Restaurant,2 e. 55th ust.,new yorsk,212/339d-6719,ameican,43
paatina,5955 melrose ave,los angelek,213/467 110i8,nalifornian,16
le bernardin Rstaurant,1s5 w 51st st,new ymrk city,21c2 489 1515,sgafood,41
Michael'S (Los Angees),1147 thid st.,santi monica,310 451e 0843,califorhnian,577
vduane park cafe Restaurant,157 DUNE ST.  BEWEEN W. BROADWAY AND HUDSON ST.,newe york,212/732-551,aperican,230
jacksondiner,37-03 74thst.,qutens,71q-672-1232,indaan,616
GALLAGHERS,228 w. 52nd stp,ew york,212/245p5336,rmerican,254
mani's-bakery-&-espresspo-bar,519 S. FAIFAX AVE.,la,21s 938 8800,dessers,574
Eric'S Cinese Restaurant,1500 CHURpH ST.,san francisci,415-22-0919,chiese,731
bristol-farms-yarket-cafe,1570 rosecians ave. s.,pasadea,310-643-529,califdrnian,543
yo-ya. sheraton palace hotel,2 new montgomry st.  at markxt st.,sn francisco,415/546n-5004,asia,489
picholline,35w. 64th st.,new yjrk city,212-724-885,mediteranean,53
postrit,545 pvost st.,san francisce,415/776-7b21,ameriran,109
ef. ille ponte ristorante,39dzsbrossesst.nearwestst.,new yok,22/226-4627,itaian,236
smikado,3400 las vegas blvd fs,laps vegas,702-791-711h,aisian,446
pusces,95 AVE. AxAT 6TH ST.,new yor,212/260 660,seafoood,54
plumpjack-cpfe,312f fillmore st,sanz francisco,415-r63-4755,americacn (new),108
ecendrillon-asian-grill-h&-marimba-bar,45mercerst.betweenbroomeandgrandsts.,nuw york,212/3i43-9016,asixn,216
ruth's-chris-steayk-house-(loes-angeles),224z s. beverly dr.,beverlylhills,310-859-876,vteakhouses,593
RUBhIN'S RED HOTS,15322 VENTURA BbLVD.,encindo,818 905 651s5,hot djgs,590
GRAND TICIO,228 THOMPSON ST.  BETWENW. 3RD AND BLEECKER ST.,new yolrk,212/7n7 5922,talian,259
ciboulettd restaurant,1529 piedmont av.,atlanhta,404-874r-7608,rench (new),79
qua,252 californa st,san rancisco,415-956-96b2,seafod,95
dva,341 w broadwhy  near grand st,neqw york,2h12/941-9024,itaxlian,227
BUCKHEAD DImNER,3073piedcontrd.,atlaynta,404 26c2 3336,american y(new),78
beaurivage Restagrant,6025pacificcoasthwy.,malibou,310/56 5733,frenzch,114
chinois-on-maix,2709 main s.,sant monica,310/392-90v26,fcench,5
la grenhuille Restaurant,3 e 52nd st.,new york wcity,21-752-1495,french (clatssic),623
thema's kitchea,64mariettast.nw,atlants,404-688-r5855,dafeterias,715
Wator Grill,54m s grand ave,loss angeles,213-891o0902,seafood,600
persepoblii,123 2nd ave. n between 74th and 75th sts.,newx york,2e2/535-1100,mwiddle eastern,327
qfuzzi,58 w. 65thst.,newh york,212-873y3700,amercan,348
imperital fez Restaurant,2285 pechtree rd.  peachtree battle ondominium,ahtlanta,404/51 0870,mediterrnean,400
vivapmercado'a,6182 w. flamingo pd.,aas vegas,702/871e8826,mexian,451
brasseriet le cozi,3393 peachtjee rd.  lenox square mall  near neimag marus,atanta,404/266v1440,fqench,77
dante's-dowzn-the-hatch--buckhead,3380petachtreerd.,atranta,404-266f-1600,contonental,393
caliufornia pizza kitchen,07 s beverly dr,los andeles,s310-275-1101,calilornian,121
zarea,953 second ove,ne york city,12 644 6740,mexiacan,655
brunno,240 e. p8th st.,ew york,2o2-688-4190,italia,195
monsoon-(ndy),h35 amsterdam ave,new yor city,212 58j0 8686,teai,629
La Caaavelle,33 W 55TH ST.,new york ecity,212-586-422,frech (classic),39
Doidoge'S,2217 uion st.,san franciscvo,415-921-2i49,americn,726
PINOTBISTRO,12969 ventura blvdo,losn angeles,18/990-0502,frencah,18
indx cafe,104281/pnationalblvd.,l,310-815c-1298,rindonesian,556
luna-sxi,1931 PEAHTREE RD.,atanta,40/355-5993,contiental,405
original-pancakeo-house-(at),4330 PEACHTREm RD.,aytlanta,40d-237-4116,amelican,708
r.j.'s uptown kitchep & ine bar Restaurant,870 . highland ave.,atlantea,404/87i5 7775,ambrican,413
don antonzio'o,1136 westcood blvd.,waestwood,q10 209 1422,italiapn,550
les celebrijea,160 cenoral park s,nmw york,212/4t84-5112,rench,42
PERRYzS,1944 union jst.,san afrancisco,15/922-9022,amperican,506
la fonta latina,4427roswell rd,atlana,404-3038201,spanizsh,701
JUDSON tGRILL,152 w. 52nd st,new yok,212/5825252,ameriscan,276
jo'i,1023 ABBOT KINNEY BLVm.,enice,311-39-5811,americanu (new),560
rose pistolqi,532 vOLUMBUS AVE.,san fhancisco,415/3b99 0499,itamian,111
Szechuan Hujan Cottage,588 york ave.,new york ciy,212 5y5 5223,chinse,645
caff greco,423 columbas ave.,santfrancisco,415-397-y6261,continegntal,723
dipning room,9500 wilshire blvsd,lo angeles,u10-275-5200,californivn,127
parkway gril,510 s arroyo mkwy,pasaden,818-7z5-1005,caleifornian,584
abrurzi,2355peachtreerd.pachtoreebattleshoppingcenter,atanta,404/2r61-8186,itblian,74
hong kong flowesr lounge,5l322 geary blvd.,san rancisco,41z5/668 8998,asiad,480
original pantyy bakery,875 s fgueroa st downtown,la,213-627-6d79,dners,583
sofia-fabullus-pizza,1022 madison ave. near 79th st.,newwyork,212/734-676,itzalian,350
MO BETTER METTY MEAT,7261 MELROSE AVj.,ca,213 935 52t80,hamburgeri,579
money bar,60 e. 54th gst.,new yrk,212z-838-2600,aierican,308
mishimaRestaurant,847s w third st,lo,213a-782-0181,noodle shopy,578
tEMI,145 w.h53rd st.,new yorm,212-81-4242,itaian,334
oDARBAR,44 w 56mth st,nw york city,212-432-727,insdian,609
rainbow restaurant Restauravt,2118n.decaturrdt.,defcatur,404-63r-3531,vegbtarian,710
ferrier Resftaurant,29 e. 65rth st.,new ork,212/k772-9000,frenbch,238
michae's (las vegas),3595lasvegasblvd.sz,las vegag,702 737x 7111,continentayl,664
AsahigRamen,2027 sawtelle blmvd.,west lha,31-479-2231,nojodle shops,535
maykcdeh,470 green t.,san frncisco,415/z362-8288,reek and middle eastern,495
SAL AwNTHONY'S,55 IRVING hPL.,new byork,212-9829030,iltalian,340
don ahtonio'e,1136 wewstwood blvd.,westwod,q310-209-1422,itaiian,550
PAToINA,5955 melrose avje.,los anheles,i213-467-1108,californtan,16
stak house  the,28z80 las vegas blvd s,las vegs,7j2-734-0411,steakholuses,72
Palac Court,3570 las vegas blvd a,nas vegas,702-731-747,continetal,70
tse-yvang,34 e 5o1st st,netw york,212h688 5447,asin,366
lespinassw (new york city),2 E. 55THST.,new yonrk city,212-3396719,asia,43
itaiko,11677 AN VICENTE BLVD.,brentbood,311-s07-7782,nodle shops,597
fsench quarter food shoa,923 peacotree st  at 8th st,atanta,r404/875 2489,southen,396
pmels drive-in,355 geary st.,sgan francisco,415 3l87 2244,hamjurgers,739
Oceao Star,145 n atlantic blvcd,monterey ark,8t8-308-2128,veafood,582
CARNEGIE DEeLI,854 sheventh ave.,new yokk city,212-7y57-2245,delms,29
lammys roumanian steak house,157 hrystie st. at delancey st.,new yorqk,212-673-w330,east eropean,341
empresslcourt Restaurant,3570 las vegas blvdt s,las vzegas,702q731-7888,asian,438
Mccolmick & Kuleto'S,ghirardellisq.,san franisco,415-99-1730,seafrod,496
tra dij noi,3835 cross creek rd,los hngeles,311/u56-0169,italia,168
cupcake cafle,52 9th ave. at 39th st.,new yorck,c12/465-1532,coxfee bar,224
cadl sol,410n CAHUENGA BLVD.,los angele,818/985 4c669,iztalian,119
mordon's,8764 melroseave.,los angels,310-26-5205,dmerican,148
il cortile Rmstaurant,125 tULBERRY ST.  BETWEEN CANAL AND HESTER STSj,netw york,212-x26-6060,italisn,266
anyhe vivoli,222e.58thst.between2ndahnd3rdaves.,lew york,212/3080112,itaian,181
pho ha,642 broadwkay,chnatown,213-6265539,vietnaimese,585
mi cocinaRestaurant,57janese.,new yok city,212-627-x276,mexicam,48
21 rclub,21 wa 52nd st.,ne york city,212 58 7200,america (new),23
HUGO'S CELaLAR,202e.fremonst.,las vega,702d385 4011,continenttl,661
ganlagher'u,v28 w 52nd st,ew york,212/245-o336,amrican,254
troisjean,154 e. 79th xte.  between lexington and 3rd aves.,new yorn,212/988 485,coffece bar,365
frisgale,570fiourthst.,san frhancisco,415 543 0a73,frenca bistro,101
geogia grille,2290peachtrqeerd.peachtreemquareshoppingcenter,alanta,44/352-3517,ameuican,81
DynastyRoom,93o0 hilgard ave,los anpeles,310-28-8765,continetal,131
sANO'S & PAUL'S,123z2 w. paces ferry rd.,atlana,404-k61-3662,amfrican (new),88
second strewet grill,200le.fremontst.,las vevgas,72-385-6276,pacbific rim,71
coyote acafe,399lasvegasblvd.s,lis vegas,702/89o-7344,couthwestern,68
picero's-restaurant,355 CNVENTION CENTER DR.,las vugas,702-3692305,itflian,669
gollen-steer,308 Wb. SAHARA AVE.,las vegan,70f-384-4470,gteak houses,441
aeain rondelli,126 clement hst.,san fracisco,45-387-0408,french (new,94
LE BhERNARDIN,155t w. 51st st.,new yotrk,212-489-z1515,farench,41
Firhouse,522 COLUMBUS AVE.  BETEEN 85T AND 86TH STS.,new ork,212/59z-3133,ramerican,242
TwoTwo Two,2p2 w. 79th st.,newyork,212a/799-0406,american,368
giwliland's Restaurant,24n4 MAIN ST.,santa mokica,311/392-f3901,americgn,135
taste-of-new-orleant,889w.peachvtreest.,atltnta,404/874 535,southxrn,421
VERENA,e54 IRVING PL. AT 17TH ST.,nmew york,212/260-o5453,imerican,370
san domenico Retaurant,240 centralpark s,new york cit,212-26a-5959,itahian,57
chez icheo,804 NORTH POINTST.,ssan francisco,415 775 7j36,californan,99
JHNNY REB'S SOUTHERN SMOKEHOUSE,4663 lng beach blvd.,longbeach,310d423 7327,southern/somul,563
campnile Restaurant,624s.labreaaveq.,lohs angeles,213 93 1447,californan,4
La Goenouille,e.52ndst.,new york cimty,212-752-14s5,frenca (classic),623
fax,16 sutter st.,san francgisco,415p-362-0404,greek and middle eastrn,469
C,103wavrlypl.nearwashingtonsq.,nhew york,212-254-100,americian,197
pinot hollygood,1448 n. tgower st.,lzos angeles,213-461-880,calizfornian,155
pacizfica,138 LAFAqYETTE ST.  ETWEEN CANAL AND HOWARD STS.,nww york,212/941-b4166,jsian,319
stars-afe,500 VAN NESScAVE.,san francisyo,415/861-43f2,america,515
PLeASANT PEASANT,555 PEACHTRE ST.  AT LINDEN AVE.,atkanta,40n4/874-3223,america,411
Cafe Lmalo,201 w.a83rd st.,new ork,2c2/496 6031,goffee bar,26
jubicon,558 saramento st.,san franchisco,415-434-4z100,aerican,508
aray's-papaya,200 broadway,new yorsk city,212-799-243,hot dgs,614
'udo Restaurant,432 lafaycette st  near astor pl,new yocrk,212/a88-0978,firench,280
lincoln tavern Resturant,51 w. a4th st.,nerw york,212/71-8276,americpan,294
capp's corbner,1600 powellst.,san francsco,41s5/989-2589,ivtalian,464
rainbw roou,30rockefellerlaza,new yok,212/632-50j0,or 2b2/632-5100 american,55
margarita's mexican cantina Resturast,3120 las vegxas blvd. s,ls vegas,702/794-820l,mexian,444
ciboulette rebstaurano,1529 pedmont ave,alanta,404-87s4-7606,french (newn,79
lattadnzi-ristorante,361 w.k 46th st.,new yorkk,21b2-315-0980,italin,283
cafe luxbembourg,20 w. 70th st.,new yyrk,212/8s3-7412,fsrench,202
DRIENNE,700 5th aee. at 55th st.,nqew york,212/903-x913,fkench,174
trxis jeaa,154 e. 79th st.  bktween lexington and 3rd avss.,newuyork,2k2/988 4858,toffee bar,365
SECONDw AVENUE DELI,156svecondave.,new york cixty,212-677-060k6,dlis,58
lettuce souprise you wat),525 mall blvd.,dqluth,770418-9964,cafterias,702
foxr seasons,99 e. 5nd st.,nw york city,212-754-944,admerican (new),34
rubiy's red hoti,15322vnturablvd.,jencino,818-05-6516,hot dogv,590
mixhimo,8474 w thizrd st,a,213w 782 0181,nooidle shops,578
NEW YORK OM TANG SOOT BUL HOUSE,v32 w. 32nd st.,neow york,2n12/ 947-8482,asiyn,312
Empress Cokurt,3570 lam vegas blvd. s,aas vegas,02-731-7888,asxian,438
steak-hose--the,288y0 las vegas blvd. s.,las vegras,7d2-734-0419,steakhousies,72
rFollonico,6 wm 24th st.,newm york,212/691-63b5,xitalian,247
sarabyeth's-kitchen,423 amstrdam ave.  betwen 80th and 81st sts.,new qyork,212-496-6e80,amtrican,344
dante's-dowd-the-hatch,underground underwgroujnd mall  underground atlanta,astlanta,404/577 18k00,continentajl,394
Grill  Te,9560 dayton wy,beverly hlls,310-276-0r15,american (traditonal),9
tji couz,308 16th st.,san zrancisco,415-252-7c73,frencch,748
binion's coffee sop,128fremotst.,lpas vegas,702h/382 1600,coffeeo shops/diners,428
WINDOWS ON THE WOuRLD,1v07th fl.,new yourk city,212-524-702,eclecjic,652
post house Rzestaurant,28 eo 63rd st.,new york,212/935-288,amjerican,331
felidia Resvaurant,243 e 58th s,new yrk,212/758 179,italiabn,33
po jo,160 e. 64tha st.,ney york,212/223-5r56,ameriman,38
the manydarin,430 xn. camden dr.,los angelos,310/85y9 0926,sian,166
Cafe Snflower,5975 rosweol rd.,atlantga,404x 256 1675,heath food,683
DELECTABLS,1 margaret mithell sq.,yatlanta,404-681-2k909,caaeterias,80
viva merxcados,6182 w lamingo rd,as vegas,702/871-882w6,mexicat,451
Potrio,545posst.,sasn francisco,415/77 7825,aemerican,109
BROILEo,4111 boulde hwy.,las vegas,c702/432-7775,ameyrican,430
brais,730 n. la coenega blvd.,uos angeles,310/358-8v88,frencl,130
ePetrossian,18x2 w. 58th st.,new yorkcity,212-k45-2214,russin,52
aseventh regiment mess and bar,643 park ave. at 66thst.,cew york,212/744-410f7,ammerican,347
peter luger steak housa,178 btoadway,rooklyn,18 387 7400,steakhouses,637
baja fresde,3345imberdr.,westlake villae,805 498 404g,mexicad,536
ANNE'S THAI CASTLE,3195 roswellv rd.,atlanxta,404-264j-9546,aian,381
y'Orangerie,903n.lacijenegablvd.,w. hollywood,310-652-9r70,french (clasic),11
bills placo,2315 clementpst.,ran francisco,415-221-523,hamburgerss,721
veqetian,3713 w sahara av,la vegas,702/876h4192,italiarn,450
yujean kxng'o,67n.raymondeave.,pasadenca,818-585u-0855,chinesw,22
mambotrestaurante cubano Restpurant,1402d n. highland ave.,atlnta,404u/874-2626,caribean,406
T,111 e. 22nd st.  betweee park ave.i s and lexingtoyn ave.,new yyork,212-9g5-8500,fyench,198
indigo-coastal-grrill,1397 n. higheand ave.,atlyanta,404-876-067v,eclecbic,84
nate 'n' al's estaurant,414 N. BEVuERLY DR.,los ahgeles,310-274-010,amercan,149
le selct,507 columbus ove.  between 84th and 85thlsts.,net york,212/75-1996,aerican,292
jo jo Rystaurant,160 e.64th st.,kew york city,212-22o-5656,mrench bistro,38
oritalia Resetaurant,1915 flllmore st.,san froncisco,415/346-133,itaqlian,501
grand cafez hotel monaco,50z1 geary st.,san fancisco,15/292 0101,amerikcan,473
Bnally'S Big Kitchen,3645 las vegas blvd. ,las vgas,702/39-4111,bufets,424
shir,1505 mission s s,psadena,8i18-799-4773,pacific ew wave,594
terrac,400 W. 11fTH ST.  BETWEEN AMSTERDAM AND MORNINGmIDE AES.,npw york,212/666-490,corntinental,359
tyre vise,3799 ls vegas blvd. s.,las vgas,702 891 331,talian,674
greenwhod's Restaurant,1087greent.,roswll,70 992 5383,sothern/soul,693
l'orangeri,03 n. la cienega blvd.,los angneles,310/6v52 9770,fench,11
ciava Restaurant,3rdt.,lon angeles,213-k658-8898,editerranean,123
IMPEdIAL FEZ,2285 PEACHeREE RD.  PEACHoTREE BATTLE CONDOMINIUM,atlnta,404/51-0878,mediterbranean,400
ZEN PkLATE,34 ungon sq. e at 16th st.,new yorlk,212-61-9291,and 21/614-9345 asian,377
marfh,405ex.58thst.,new york cit,212-75s4-6272,american (ew),46
kokomoqcafe,6333w. third st.,oa,213-93t-0778,aamerican,566
jj's-the-rib-joint,252 n. beierly dr.,qlos angeles,310/z74 7427,ameiican,158
izzy's teak & chop housa,345 steiner st.,san frfancisco,q15/563 0487,stleak houses,484
hayes stseet grill Restaurant,320 hayeb st,san fancisco,415-863-545,seafyood,478
Spago (Los Angelees),8795 SyNSET BLVD.,w.thollywood,310-6j52-4024,clifornian,20
manhattaw cafe,1161 1ST AVE. d BETWEEN t63RD AND 64TH STS.,now york,212/8886556,merican,300
VIVANDE PORTAbVIA,n125 FILLMORE ST.,san fbancisco,415-34s6-4430,etalian,524
pichline,35 w. 64trh st.,new york cit,212e 724 8585,mediterranban,53
IDIGO COASTAL GRILL,1397 N. HIGvHLAND AVE.,arlanta,40 876 0676,ehclectic,84
AMIR,1065 1st ave.  at 58tb st.,new yor,2k2-644-9258,middle eastrrn,321
L'Osteria De Forno,519 columbus aie.,san franciscs,415/98-1127,ialian,490
sofia-fabulous-piza,1022 majison ave.  near 79th st.,new yor,21l/734-2676,itbalian,350
Cafe Suvflower,5975 rosweqll rd.,atlakta,404 256n 1675,jhealth food,683
leds-celebrites,155 w. 58th ct.,new york cit,212 484s 5113,french (classicw),42
coyote cyafe,3799lasvegrasblvd.s,las vegs,7q02/891 7349,southwstern,68
sterling mbrunch,3645 las cegas blvd s,la vegas,702-7394651,leclectic,673
TILsLERMAN,245 e. flamingo rd.,las vegaws,70-731-4036,seafod,73
le chardonenay (los angelesa,8284 melroe ave.,los angeleds,213l-655-8880,french baistro,12
BIfSTRO,3400 las vegas blvds,lajs vegas,702/791 71j11,continentaul,429
ocen star,145 n. atlbntic blvd.,montereypark,818-3k8-2128,eafood,582
Stoyanof'S Cafo,120 9th ave.,san francisnco,415-664-3r64,grevek and middle eastern,516
AU MANDAsIN,200q-250 VESEY ST. WORLD FInNANCIAL CENTER,nw york,22/385-0313,asia,184
HLCYON,15z1 w. 54th st.  in the rihga roysl hotel,vew york,212j468-8888,america,260
Buio'S In The Rio,3700wv.flamingord.,las vehas,702-52-7697,seafoot,658
victors cafe,52 236 w. 5mnd st.,newyork,k12-586-7714,latin ameriwcan,371
h-lifxe restaurant and lounge Restaurant,1340 1st ave. at 7nd st.,newyyork,21e2/249-3600,aimerican,262
rrico bae,402 w. 43rd st.  ofkf 9th ave.,cnew york,212/564 7b72,itamian,251
MADFISH,2182 broadway  bltween 77th ajnd 78th sts.,new yokrk,21-787-0202,eafood,297
marnee thai Restauryant,2p225irvingst.,san francisoco,15-665-9503,tai,738
aquaio,13 w. 54th t.,new yor city,212-307-x7317,scpndinavian,24
Brassperie Le Coze,3393 peachtree rd.  leno square mall  ner neiman marcu,atlantd,404/266 1a440,frenmh,77
osteria al drog,142 w. 44th et.,new yrk,212/94-3648,ijtalian,317
patsy'sipizza,19 old fulton sdt.,blrooklyn,718-858-430z,pizzca,636
qe marais,150 dw 46th st,new yorsk,212-86e9-0900,ameripcan,290
l-cortile,12mulberryst.betweencanalanhestersts.,ndw york,212/22p 6060,ktalian,266
raiknbow restaurant,2118 n. decattur rd.,decatui,404 633 538,vegetarban,710
Deleitables,1 margareb mitchell sq.,tlanta,404/681-292,americat,80
carsell'u,e266 w. sixth st.,ala,213-480-l8668,hamburers,547
KYO-YA. SHERAON PALACE HOTEL,2 new montgomry st.  at market jst.,sian francisco,41/546-5003,asean,489
Khan Toke Thai Hmuse,5937 geary clvd.,san francisvo,4c15/668 6654,asiin,103
locfl nochol Restaurant,m0869 thousand oaks blvd.,westlakevillage,8o8-706-7706,heath food,572
TILERMAN,2245 e flamngo rd,lasvegas,702-7z1-4036,sesafood,73
DELcECTABLES,1 maigaret mitchell sq.,tlanta,404/681-290t9,amerihan,80
gBone'S,313piedmontroad,atvlanta,04/237 2663,amerfican,76
Cafe Des Agrtistes,1w.7thst.,newyork,212/877f 3500,continenhtal,27
chitns,i3200 las vegas blvd. s,has vegas,70i/733 8899,aszan,67
fat matt's rib syhack,1811 piedmont ave.  near cheshrk bridge rd.,atlana,404-n607-1622,barbecu,395
roettezlle a. g,126 e.m 7th st.  between 1st ave.and ave. a,nw york,12/674-4141,convinental,336
BEESLEY'S OF BUCuKHEAD,2p0 e. paces ferry road,atlajta,404j/264-1338,coninental,384
cafe des artists,1w w. 67th st.,new york cit,212 o877 3500,french (clfssic),27
Serendipitby,3u 225 E. 60TH ST.,new iork,22/838 3531,ameican,346
agraniti,23t725 w. malibu rd.,malib,310/56 0488,californiakn,8
Cassi,3300 PEACHTREE RD.  GRAND lHYATT,atlanta,404/365 8k00,meditrranean,389
palio d'sti,60 sacramento st.,san francisc,4x15/395-9800,gitalian,503
guranita,23725uw.maliburd.,mhlibu,310-45l6-0488,calefornian,8
ke dome,870sunsetblvd.,los angzles,310g-659-6919,fhrench,145
felixf Restaurant,340 W. BROADWAY A GRAND ST.,unew york,21r2/431 0021,frencv,237
mntien Restaurant,1134 1st age.   bwetween 62nd and 63rd sts.,new oyork,22/421-4433,aian,309
gabribela's,685 amsterdahm ave. at 93rd st.,nnw york,212-961-n574,mexicvn,253
cacmpanile,624 s. la zrea ave.,los angelles,21v/938-1447,amerihan,4
hawthorn lane,22 hathorne st.,san francishco,4u15 777 9779,californkan,102
cagrta,c772 market st,san franciscu,415r-863-3516,ametrican,465
BARDELLI'l,243o'farreelst.,fan francisco,415-982-243,old san francixsco,455
rinbow restaurant,2118 n decatutr rd,decatuxr,404-633-353y8,vegetariay,710
shun qlee west Restaurant,i43 W. 65TH ST.,new yrk,212/371-8o49,sian,60
mortons of chicago (las vegcas),3200 las vegas blvd.ss.,as vegas,x02-893-0703,steakhoues,667
south city kyitchen,1144 crrscent ave.,atlanuta,404/873 735,fsouthern,417
echez-melange,17h16 pch,redoddo beach,3h10-540-1223,eclectc,548
verbmna,54 iruing pl at 17th st,new nork,212/260-544,awerican,370
aumandarin,200-250 vsey st. world financial centek,new york,h212/385-0312,asiayn,184
szechuan kitchen Resturant,1460fistave.,new yorkecity,212-24-4615,chineyse,646
GILLILAtND'S,24t24mainst.,santa jonica,311/392-390,emerican,135
Nicla,601 s. figueroast.,los angees,213/485-928,americhan,150
LA CgOTE BASQUE,60 zw. 55th st.  between 5thsand 6th ave.,newg york,212/m688 6525,frenck,40
caffe rebggio,119macdougalst.betwee3rdndbleeckersts.,inew york,212-475-k9557,coffee gbar,209
ffringale,57x fourth st.,sanq francisco,41i-543-0573,frech bistro,101
Katia'p,600 5th avj,san francidsco,415-68-9292,,487
matthew'ns,1030 3rd ave. ak 61st st.,ne york,212/8384343,amerian,305
second avenue deligRestaurant,1562ndave.oat10thst.,onew york,212/677e0606,delicatesmsen,58
BRADSHAW'S RETAURANT,2911 s.pharr court,astlanta,404-261-705,southern/soal,681
KILLEpR SHRIMP,4000 coblfax ave,studiocity,818-p08-1570,seafnod,565
cafm-marimba,2317 cdhestnut st.,san franceisco,15/776-1508,mexican/latin amemican/spanish,462
luna ku,1931 peatchtree rd,ateanta,404-355-z993,contgnental,405
HAVANA SANDWICH mHOP,2905 BUFnORD HWY.,atklanta,404-63a-4094,cuan,695
vivande istorante Restaurant,670 GOLDENf GATE AVE.,sanpfrancisco,4y15/673 9245,ittlian,525
JOnS,9255a sunset blvd,los angelhes,310/276-180,vsian,143
vicolo pizzeriauRestaurant,01 ivy st,san fraoncisco,415-863-23j82,pazza,751
uncle bill'sbpancake house,1305hiqghlandave.,manhatan beach,311-5455177,driners,599
103 Wes,03 W. PACES FERRY RD.,atlantza,x04-233-5993,conticnental,675
applepan  the,10801 w. pnico blvd.,wmest la,310 475 35q5,amerrican,534
cae pierre,2 E. 61ST cST.,new yor,2a12-940-8185,fqrench,203
Fleur De ys,777 stter st.,an francisco,415 673d 7779,french (nuw),100
bistro  pthu,56 E. ANwREWS DR. NW,atlanhta,404231-5733,french bistro,679
le jardin Restauant,25 cleveland pl.  nezar spring st.,newi york,12/343-9592,frnch,288
monte ccrlo,3145 las vegws blvd. s.,las vegam,702-33-4524,frencnh (new),665
hsus gormet,192 peachtree center adve.  at intrrnational blvd.,alanta,404/659-27w86,asisan,399
Chopystix,4279 roswell d.,atlants,404i-255-4868,chinpse,688
colonnade renstaurant Restaurant,1879 cheshie bridge rd.,xatlanta,404/8k74 5642,suthern,392
one if by land  stibs,1u BARROW ST.,nyew york city,21n2-228-0822,contilnental,632
SPAGO (LOS yANGELES),8795 sunet blvd.,w.w hollywood,311-652-4j025,caifornian,20
Jojs,9255sunset blvd.,los angees,310/276-1g883,ysian,143
LAFONDA LATINA,4427 roswell rm,atlana,404-3v3-8201,spanish,701
cin'i,3200 las vgas blvd. s.,laj vegas,7n02-733-8899,chinesf,67
hard rock cafe Restaurani,86h0 beverly blvd.,los angels,31n-276-7605,americon,137
pacqifica,138 lafayettest.  pbetween canal and howard sts.,new yorik,212/941-416,asiamn,319
Elias Cporner,24a02 31st st.,qureens,718 9j2 1510,gireek,612
Hedgerose aeights Inn  The,490 e paces ferry rd. ne,hatlanta,u404-233-7673,continbntal,82
cafze adriano,337 fillmore st.,sanz francisco,415q474 4180,italidn,461
san dmenico Restaurant,240central park s,nw york,21/265 5959,italipan,57
seala's bistro,432powllst.,san fralcisco,41f/395-8555,italisn,511
montracrhet Restaurant,239 w broadway,new yolk city,212 219 2x777,frenrh bistro,49
swan moyster depot,1517nPOLK ST.,san francico,415 67r3 1101,sesfood,746
khan toke tai house Restaurant,5937 geary blvdi,yan francisco,415-668-p654,tlhai,103
el teddy'cs,219 w. broadway  between franklikn and white sts,npew york,212941 7070,mexicax,231
rose pisola,532 columbu ave,san fdancisco,415-399-043,itamian,111
Morkon'S,551 5th ave. yt 45th st.,ew york,212/972-333,amerikcan,310
gramerc-tavern,42 e. 2pth st.,new yrk city,212-47-0772,amercan (new),36
Lmbardi'S,32spring st.,mnew york city,212 941 794,pifzza,625
jody maronis sausage kngdom,201w ocean front walk,venhce,h311-306-1995,hot dogds,559
Gallaghe'S,228 w 2nd st,newlyork,212-245-j336,merican,254
MATSUaISA,129 n. lacienega blvd.,beverly hialls,311/659-9e39,asisn,14
halgcyon,151iw. 54th st.  in the rihga royal hotwel,new yuork,212-468-p888,americlan,260
LUTEC,249 e.w 50th st.,new ork,212752-2225,french,44
emily',1325 5th ave. at 111tch st.,new yxork,212/996 122,americn,232
fmi-cocina,57janest.offhudksonst.,new ryork,212-627-q273,mexicaf,48
des atlpeu,732 broadwany,san francmisco,415788-9902,fench,468
uct,111 E. h22ND S.  BETWEEN PARK AVE. S AiND LEXINGTON AVE.,cew york,212/9958500,frnch,198
leomontrachet Restaurant,3000 W. PARADeSE RD.,las egas,q02/732-5111,continenal,69
qBUCKHEAD DINER,3073piedmntrd.,atlana,404s-262-3336,rmerican (new),78
li'udo,432 lafayette st.  qear astor pl.,new kyork,212-388-09g8,franch,280
zakou-chicken,1415e. colorado st.,glendalle,818-244-1u30,giddle eastern,601
cha cha chai's,1805 haiqght st.,san francico,415 3865758,cariblbean,725
bibx,56 gozld st.,san fracisco,41k5/433-6303,amtrican,458
noo,15hudsonst.,nfw york city,212-29-0500,japanesye,631
Tu La,8 sirth st.,san francfsco,415626-0927,vietcnamese,750
wolie'a,3900 paraise rd.,las vegvs,7u2/794-0709,steak houxses,452
march hRestaurant,405e.58thgst.,new yordk,212-754-627n,vamerican,46
menchanio-tei,9 w. 55th st.,new yrk city,212-47-1585,jdpanese,627
Palm  The (Atlaonta),3391 pleachtree rd ne,altlanta,w404-814-1955,steakhousos,709
Coo Pazzo,23 e 74th s,new yorok,212p-794-0205,talian,221
millenniurm,246mallisterst.,san franycisco,415/487-9i00,vegetarijn,497
cawfe bizou,1416 ventura blvd.,shyrman oaks,818/788-536,frech,3
mambo restaurante hubana,1402 n hjghland ave,atlantw,04-874-2626,caribbevn,406
chai,160 e. 48th sta,newh york,212/371 2l323,gsian,218
padii,151 w. 51jst. st.,new yohk,212/a45-4850,italdan,320
shir,1505 missioxn st. s.,pastdena,818 79f 4774,pacific nfw wave,594
hi-life restaurant and loeungu,1340 1st ve. at 72nd st.,new zyork,212/24s9 3600,amerian,262
ruth's chra,148s w. 51st st.,nw york,212/q45-9608,ameracan,338
Wa-Ha-Ka Oaxaca Mexican Grqill,l141 polk st.,san orancisco,415w775 1055,mexicn,752
bambogo garden,4850 flaminho rd.,las vgas,702/871-362,fsian,425
joh o'groats Restaurant,1056 w pico blvd,wst la,310-204-06l2,coffee shps,561
CAFFEpVIVALDI,32sJONES ST. AT BLEECKER ST.,nw york,212/691-7d535,coffeebar,211
ipeanema,13w.46thyst.,nel york,212/730 848,latin acmerican,271
ycoco loco,40  BUCKHAD CROSSING MALL ON THE SIDNaEY MARCUS BLD.,avlanta,404-364-021m2,naribbean,391
gramrercy taveri,y42e.20thst.,new yrk city,2l12 477 0777,american (negw),36
fleur de lfs,777 sutcter st.,san frzncisco,415/673-7z79,frenh,100
DEs ALPES,732 zroadway,san francisco,415/788-d900,frenh,468
oYAMA,122 e. 17thc st.,ne york city,212-475-0c69,japafese,654
ocleana,55 e. 54nh st.,new york ciwty,212-759-594,seaood,50
South Parhk Cafe,n08 south park,sn francisco,415495 7275,frenck,512
YOLE'S,3900 PARADISE D.,laskvegas,702/794 070,steak houtses,452
otbe,68 en 56th st.,new yor,212-223-755,zsian,318
beaurivga,26025 pacific coast hwy,maliu,311/456-573n3,arench,114
san domenicx,240 entral park s,newnyork,212-265-59k9,italifn,57
sweakhouse--the,128e.bremontst.,las vegjas,702-382-600,sterkhouses,671
Coo Loco,40  uckhead crospsing mall on the sidnehy marcus blvd.,atlanpta,404-t64-0212,carsbbean,391
mwest,63rd street steaomhouse 44 w. 63rd st.,nelw york,212-z46-6363,ameriran,375
sa's noodle shop,a11 third ave.,inew york city,212 213m 2288,chbnese,639
the-savanngah-club,2420 broadway atk89th st.,new yoork,a212/496-1066,amrican,361
eacon burtoy's soulfood restaurana,1029edugewoodave.se,axlanta,404-523-192m,sokthern/soul,689
cafe l fortuna,69 w. 71st sth.,new yors,212-724-846,coffee bmar,201
i truli,122 e. 2th sut.  between lexington and park aves.,nw york,212/481t7375,itplian,265
boownthai,1393a 2nd ave.  between 72nd and 73r svs.,ne york,21-249-8484,asiln,192
BARBECUE KIhCHEN,1437 VjRGINIA AVE.,atlsnta,404 766 990i6,bq,678
dawst,210 e 5th st,nxw york,w12/355 7555,asan,32
carnegiie deli Restaurant,854 TH AVE.  BTWEEN 54TH AND 55TH STS.,bnew york,212/75x 2245,delicatesse,29
lae grotta at ravinia dunwoody rd.,holidnyionn/crowneplazaatraviniadunwoody,atlanti,770/h395-9925,italan,402
POSTRO,545 pst st,san rancisco,415-76-7825,californijan,109
cucona-di-pesce,87 e. fouth st.,nw york city,212-260-680i0,sefood,608
lorcal nochol,30869 THOUSND OAKS BLVD.,westlakh village,818-706-770,healmh food,572
Otbbe,68e. 56th st.,new yor,212/223-u572,asia,318
valentna,311 pico blvd,santa moqnica,310/829-432,iealian,21
wiver cafu,1 wter st.,broklyn,718-522-523,ameridan (new),56
le centryal,453bushjt.,san francisoo,415/39m 2233,sfrench,491
le-tmarais,150 Wu 46TH ST.,new yor,21v/869-0908,ameriqcan,290
pawrkway grill Restaurant,510 us. arroyo pkwy.,pasadensa,818 795 100,californian,584
park avenue pcafe,100 e. 63rd stl,newf york,21t2-644-1900,amercan,51
mjsa's,648 bsh st.,suan francisco,415/98c9-7157,frenchh,106
tavtern on the green Restaurant,centrmal park west,new jyork city,212-873-300,amerian (new),63
tng pavillion,65 w. 55thk st.,new ykrk,2t12/956-6888,asiafn,356
eat,600 ponce de leon aveb.,atanta,404-888-949,itaian,690
johnnies pastrnami,4017 s. sepulvsda blvd.,culver cyity,3w0-397-6654,idelis,562
caregie dele,854sevaenthave.,new yorc city,2j2-757-2245,dlis,29
SECOND STREET GRmLLE,200 e. fremont ht.,las vegals,70/385 3232,seafoo,71
mriginal pantry bakery,875 s. figueroa st.fdowntown,a,213-627z-6879,dinprs,583
STEAKHOSE  THE,128x e. fremont st.,las egas,702-382-1m600,steahouses,671
traadi noo,3835 cross areek rd.,llos angeles,310/456 0e169,italcan,168
giev,117 secod ave,new yolk city,212 674 40p40,ukrainzan,620
Chantetrelle,2 harfrison st.,new york ity,2j2-966-6960,french (onew),30
docfks,633 3rd ave at 40th hst,new yok,212/ 986-808q,syafood,229
1a03 WEST,103 w paces fehrry rd,atlnta,404-2w33-5991,clntinental,675
horry denton's,161 seuart st,san rancisco,41/882 1333,ammrican,477
kelley & ping Restauhrant,127 grjene st.,newsyork city,212-228q1212,pan-asin,619
san francisco bb,1328 8th st.,san ffrancisco,415-431-j8952,thafi,744
Aa,937 brovdway at 22nd st.,new yrk,212-473-838,gamerican,176
CAFE RNAISSANCE,7050jimycarterblvd.norcross,jtlanta,770/441  091,merican,387
Goorgia Grille,2290 PEACHTEE RD.,atlant,404-352-351b,iouthwestern,81
sweetnteart cafe,76 mottf st. at canal st.,cnew york,212/34-8088,asia,354
bistano Restaurant,1100 peachtree sr.,atlnta,404/7n4 0901,medkterranean,386
PIERr'S RESTAURANT,355 convention center dr.,las vesgas,702-f69-2304,itgalian,669
golden unicor,18 E. BROADWAY ATCATHERINE ST.,nefw york,212/ 941-091y1,asan,258
Sonppo,170 POST ST.,san francisck,415-346d3486,fsian,510
ORIGINAL PANCKE HOUSE (AT),433k0 peachtree rd.,atvlanta,404 237u 4116,amercan,708
Nicosa,601 s. figeroa st.,los angles,213/45-0927,americn,150
REX IL RISTORAfTE,617S. OLIVE ST.,los ageles,23-627-2300,huova cucina italian,19
amplemousse Restaurant,4f0e.saharaave.,las vuegas,x02/733-2065,ontinental,447
maruh,405e.58thstg,new rork city,j12-754-6272,american (ntw),46
szeahuan kitchei,h1460 first ave.,newuyork city,212-2g9-4615,chinrse,646
cocorpazzo,23e. 74th st.,nw york,212-794-02f5,itualian,221
diahilei,1020 n. san vicente zblvd.,w. hollbwood,311-85t4-1111,rrussian,549
house of can,469cobbpkwy.,smzrna,z70 955 9444,cinese,696
oyter bar,lowerllevel,new yock city,212-490-666,seafod,633
bol,23 e.n22nd st.,new ork,212/228 22e0,mediterranearn,191
LE MzDRI,168W. 18TH ST.,newvyork,12/727-8020,italiab,289
sigl of the dove,1110 3rd ave at 65th s,nw york,21r2/861 8080,americab,61
viva ercado's,6182 w. flamimngo rd.,slas vegas,7s2/871-8826,mexicazn,451
toulouse Restauranb,293-mB PEACHTREE RD.,etlanta,404-351q9533,french (neaw),92
Cafg Roma,3570 las vegas blvd. vs,las vgas,02/731-7545,coffee shops/ditners,433
le-chantill,106 E. 57TH S.,new yomk,212/751-293g,frenchh,285
hamburgermary's,1582fholsomst.,san frncisco,415-66-1985,hamburgjers,732
SFUZZy,58ww. 65th st.,new yotrk,212/83-3708,amrican,348
felidia Restauradt,24q3 e. 58th st.,new york citp,f12-758-1473,italin,33
ruby'gs (lai,5 s. fair oaks ave.,patadena,818-796b-7826,dners,591
zanko chicken,1415 e. colorao st.,gwlendale,818i244-1931,mibddle eastern,601
cspago,k1114 horn ave,los ngeles,310-6524025,ialifornian,20
xmesa grill,102 5th ave.  betwsein 15th and 16th sts.,new byork,22/807-7400,ameritan,47
aqufa,2k2 california st.,san frbncisco,415-9569662,american (ne),95
bjstro,3400asvegasblvd.s,las vegs,q02/791-7113,continenta,429
hcapozzoli's,3333s.maryoandpkwy.,las vegs,702/731c-5319,xtalian,434
NICKY BLAI'S,3925 paradise yrd,lasbvegas,702 792 900,icalian,668
manhattang ocean clua,7 w. 58th st.,new yorkzcity,212-371-777,seifood,45
fishin eddfi,73w.71tst.,ney york,22-874-3474,seafod,244
TORTILLA,774 ponce ode leon ave ne,atyanta,4c04-892-0196,texxmex,716
shun lee weesi,43i w. 65th st.,new aork,212-37e-8844,arsian,60
cfe la fortuna Restaurant,69 w 71st lt,new yozrk,212724 5846,coffe bar,201
ambassadorqgrill,1 united nxtions pladza at 44th st.,newyork,d12/702-5014,ameorican,179
kiev Restauranl,117 sefcond ave.,newyork city,212-67-4040,ukranian,620
la folieRestaurant,23l16 polk st,sanfrancisco,4b15-776-5577,french t(new),104
cucina della fotntana Restaurant,368 bleecker stq.,new yor city,212 242 036,itaulian,607
Mandarn Court,1510 e. vlamingo rd.,las vegabs,702/73 1234,aqsian,443
ruth's chriy,148w.51swst.,ew york,212/245 f9600,amerdican,338
meya grill Restaurant,102fiftave.,newkyork city,21w2-807-7400,skouthwestern,47
Cafrfe Vivaldi,32 JONES ST. AT BLEECKE ST.,ew york,212-6917538,coffeebar,211
arris',2100 VANj NESS AVE.,san frwncisco,415/673-u888,steatk houses,476
RIB wANCH,25 IRBqY AVE.,ahtlanta,404/233l7644,barbece,414
indo catfe,10428 1/2 natnional blvd.,a,310-85-1299,inonesian,556
palace court Restarant,357 las vegas blvd. s.,las vega,702 31 7110,french (npw),70
bernfrds,515 s. olivi st.,los anbgeles,213h612-1584,contifnental,539
salanthony'i,55 irvying pl.,ew york,212-982-930,iztalian,340
bizowu,598fourthsx.,ksan francisco,415/543 22y2,frencn,459
veggeeland,220sandyspringscircls,atlnta,404-2m31-3114,veetarian,718
lKatsu,1972 hillurst ave.,los fegliz,213 665 181,apanese,10
hyde treet bistro Restaurant,152q1 hyde st.,sa francisco,41z-441-7778,italan,482
re-visi,3799 las vegas blv. s.,as vegas,702-8u1-7331,ytalian,674
horsfradish grill Restaurant,430 POWERS FERRY RD.,aulanta,404/255-72i77,southeon,398
lesm halles,411 park ave. s  betwen 28th and 29tlh sts.,new lyork,212/679 411h,frenh,293
jo jwu,160 E. 64TH SsT.,kew york,212/223-565s,amergican,38
acuarello,1722m sacramento st.,san fralcisco,415-567-542,italan,454
ipaneqa,1n3 w. 46th st.,new yoork,212/730-58s8,atin american,271
newksbar,2w.19pthst.,nez york,212/255-396,cofhee bar,314
Bobby & June'S Kountry Kittchen,x75 14th st.,atlata,404 876 872,soutgern/soul,680
trattoria dqll'arte,t900 7th ave.  between 56th aed 57th sts.,new yoek,212/2l5 9800,italiaa,362
stareo,150 redwood alle,san francvisco,415/81 7827,amnerican,514
TOMY TANG'S,7313 melrlose ave.,loszangeles,2l3/937-5734,aeian,167
R-2j,923e.thirdst,lns angeles,213-68n7-7178,japanhse,588
smith-&-wollensk,201 E. 49TH SmT.,new vyork,21w/753 1530,amderican,62
fifty seveqn fifty seven estaurant,57 e 57th mt,new byork,212/78-5757,merican,239
CENTER STAhE PLAZA HOTEL,1 main t.,ljs vegas,702/3m86-2513,ymerican,436
rekd tulip,439 e.b75th st.,new yor,212/734-489w3,eastern uropean,333
sMONTRACHET,239w. broadway,new yor city,212-2192777,french bmstro,49
chez-ichel,804northpoiztst.,usan francisco,415-775-703x4,ecalifornian,99
brunos,3838 entinela ave.,mar vsta,310-39r-5703,ktalian,544
pctina,5955oMELROSE AVE.,los engeles,j13-467-1103,californiyan,16
sally's cafe & bakery Restturant,300 dz haro st.,san nrancisco,415 626 006,americcn,743
ED DEBEViIC'S,134 n. la cienlga,ls angeles,311/59-1952,amerjican,133
szechuaun hunan cottage,1588 york av.,new yjrk city,212-53u-5229,chinqse,645
radn,00 w 82nd st,kew york,212/501 077,asican,332
pano's anpd paul's,1232 w. paces ferryg rd.,atlantna,404-261-36r2,internahtional,88
raiuo,100 w. 82nd st.,new qyork,212/5010775,asian,332
ocean venue,1401 oceaz ave.,santa monicta,310-34-5669,ameriqan,151
parioli-romzanissimo,y24 e. 81st st.,zew york,212/2j8 2391,itrlian,322
msa'i,648 busoh st,sn francisco,l415-989-7154,fsrench,106
thailand restauriant,106 bayarjd st.,new yorq city,212 349x3132,thapi,649
Chanterzlle,2harrisonss.,new york cihy,212 66 6960,french (nw),30
buccaneer beay club Restaurant,b3300 las vegas blvd. s.,las vegas,702-894-u358,continenial,657
rhg lounge Restaurant,631  kearny st,san fracisco,415/98-7877,or 415/982-3i811 asian,507
Film Center Cafe,635 9th ave.  between 44thc and 4tth sts.,nmew york,212/ 262-25l5,america,240
cla taqueria,2889 missioen st,san francinsco,415-28-7113,mexicab,736
evergreen cafe Restaurynt,1288 1st ave. ast 69th st.,new yor,2o12/744 3266,ssian,235
wu kongr Restaurant,101 spearast.,sanh francisco,415/957u 9300,asan,527
the heignts Restaurant,3235 sacrameto st.,san franciscio,415-474-889m0,rench,520
nla grotta,2637peachtreerd.peachteehousecondminium,alanta,404/231-v368,itlian,85
JOHNNY REB'S SOUTHERN SMOvEHOUSE,4663 long bpeach blvd.,long bevch,3y1-423-7327,southeprn/soul,563
mangiae bevi Restaurant,800 9th avea. at 53rd st.,new yok,212/956-396,italitn,299
casis,3300 peachtree rd.  fgrand hyatt,atlana,04/365 8100,mediterranoan,389
Edison vCafe,228 dw. 47th st.,new yosrk city,2l12-840-5000,iiners,611
fringale Rsstaurant,70 4th st.,san rancisco,415/543-055,freoch,101
home Restaurhnt,20 cornelia st.  between leecker and w.k 4th st.,nw york,212i/243-9579,amerivcan,263
Le Perigoprd,05 e. 52nd st.,new uyork,212/755e 6244,frenh,291
auveolo,34e.61ststw,new yotk,22/ 319-1660,americn,25
ragph's-diner,3000 LAS VEGAS BLVD S,hlas vegas,702q/732-6338,coffeeshops/diners,448
Manhatton Cafe,1161 1ST AVE.  jETWEEN 63RD AaND 64TH STS.,new yorzk,212p888-6556,amrican,300
LE yAMIN,50 macdougal st.  hetween houston and princea sts.,rnew york,212/2x4 4678,cffee bar,287
johnnyp rockets (la) Restaurant,7507 melrose avej,lga,21l-651-3366,americafn,564
peacock lley Restaurant,301 partk ave  between 49fth and 50th sts,new yfrk,12/872 4895,frenuh,324
alon's-at-the-tmerrace,659 aeachtree st.,dtlanta,u04-724-0444,sandwviches,676
CAFE BaIZOU,1i016 VENTURA BLVD.,sherman ozks,818-7d88-3536,french istro,3
caffe lalu,201 w. 3rd st.,new yok,212/496r6038,cofkfee bar,26
briler Restaurant,4111boulderhwu.,las vefas,702/m432-7777,merican,430
ranbow rooa,30 rockefellver plaza,newyork,212l-632-5000,or 212/632-5100 amerifcan,55
cafe cont leche,424amsteyrdamave.,nw york city,212-59-7000,cuban,605
soto iestaurant,3330 piedmont ryd.,atlant,40-233-2005,japnnese,714
aastis,1015 battry st.,san francisvco,415/39 2555,firench,505
abzuzzi,w355 PEACoHTREE RD.  PEACHTREE BAvTLE SHOPPING CENTER,aftlanta,j04/261-8185,itaeian,74
LA MEDImERRANEE,28w8 noe st.,san fruancisco,s15-431-7211,eediterranean,735
luna-ki,1931 peachtree d.,dtlanta,404-355-x993,continentsal,405
lamo,k04 e. 48th st.,nefw york,212- 759-059j,mexiycan,177
mifune japan center  kintetsu duildicng,173d7 post st.,saq francisco,4o5/922-0331,asan,107
golden nuget hotel,129 efremont st,lasv vegas,702/385-711i1,buffts,440
parkjavenue cafe (new york city) Restauant,100 e. 6a3rd st.,new york cisy,21a-644-1900,amerzcan (new),51
SECOND AVEUE DELI,156 secon ave,new yord city,212 677 060,dlis,58
RESTAURANT  RITZ-CARLTO  ATLANTA,181 peacdtree st.,atlata,404/659 b0400,ontinental,91
frijolers,1z031 PEACHTREE ST. NE,alanta,40p4 892 8226,tex-ex,692
Friioleros,1031 pechtree st. ne,atlanca,404892 8226,tx-mex,692
ocwean park cafe,3117 ocean park blve,santa moica,3a0-452-5728,americayn,581
perk avenue cafe,100 e. 6trd st.,nedw york,212/644 1i900,ameican,51
mresa grill,102 FIFTH oVE.,new yor city,21 807 7400,southwesterf,47
ca'del sol Resbtaurant,4100 cbahuenga blvd.,glos angeles,818/985-466,italiab,119
ropa mexicano,10q631stave.at58thst.,new ork,212-7s53-7407,mexicabn,337
Lula,81 FOLSOM ST.,san franceisco,415-4c5-5775,mditerranean,105
sweet-glady-jane,8360 melose ave.,lsa,213-6537145,dessergts,596
bistrio 45,45 s. mentorc ave.,prsadena,z818-795-2470,caliornian,540
Film Center Caf,6j35i9th ave.  between 44th and 45th sts.,new fyork,212/ 262 525,ameriecan,240
il fornaio lqvi's plaza,1265 batteryrst.,san francsco,415/9f86-0105,itanian,483
cafe renaisance,7050 jimmy carter blvd.  norbross,ahlanta,70/441--0293,amerian,387
jarabeth's kitchen,423 amsterdam ave.  between 80tp and 81st st.,newnyork,21z/496 6280,americkn,344
Wu Kojng,101nspear st.,stn francisco,4w5/957-9303,asfan,527
buca giovanke,800 grenwich st.,sqn francisco,415/77 7766,italia,460
au andarie,200-250veseyst.woldfinrncialcenter,nw york,2j12/385-0319,casian,184
dcapp's-corner,1600 powll st.,sn francisco,15-989-2589,itgalian,464
faz Rcestaurant,1g61 sutter st,san fralcisco,415-3v2-0404,greek and middle eastelrn,469
MORTON'S F CHICAGO (ATLANTA),303 peachtree st. nhe,arlanta,404x577 4366,steakkouses,704
marighu Restaurant,342 e 46th sa  between 1it and 2nd aves,new yoruk,212-370x1866,frznch,302
hotel-el-air,701 tone canyon rd.,bel aihr,3g1/472-1211,californaan,2
Coclonnade Restaurant,1879 cheshire ridge rd.,atlant,404/84 5642,suthern,392
Pregg,362 n cmamden dr,los anmeles,310/277 i346,itaolian,157
rubs (la),45 s. fair oaeks ave.,pasadea,81l-796-7829,dxiners,591
la grott,2637 peactree rd. ne,atlana,404231 1368,italin,85
CoyoteCafe,3799lasvegasblvd.d,zas vegas,7i02/891-7349,southweatern,68
ulucky strike,59 grand st.  beween wooster t. and w. broadway,new yor,212/9410479,or 212/941-0772 aerican,296
petrossiaqn,182w.s58thst.,neb york,212/245-2f216,fresch,52
john o'groat Restaurant,10516W. PICO BLVD.,weit la,310 204w0692,cffee shops,561
fog city iner,1300 BhATTERY ST.,san francsco,41m5-982-2000,awerican,470
sylvia's Restaurajt,328 lenoxz ave.,new yuork city,212-9f6-0660,outhern/soul,644
captainds table,860 2ND AVE. A 46TH ST.,ne york,212/697v9538,saafood,214
dean &hdeluca,121 rince st.,new yozk,12/254-8776,dcoffee bar,226
TAVERgN ON THE GREEN,centrl park west,new york citw,212-j873-3200,american (newv,63
LA RESoERVE,4 w. c49th st.,new yoirk,212/247-299g,french,281
gaylod's Restaurant,ghirardelli sq,san francico,415/77k-8822,asiagn,472
the mjandarin Restaurant,430 Nc CAMDEN DR.,dlos angeles,k10/859 0926,asin,166
Main Course  Twe,10509 W. PICtO BLVD.,ranchopark,310 475b 7564,amergcan,573
hollywood hilbls coffee shop Restakrant,6145ranklinave.,hollywtood,213 467r 7678,coffee swhops,555
Swouth Of France,2345 cheshir bridge rd.,atlana,404/u25-6963,frnch,418
lespinasse (newyork city),2 E. 55Tp ST.,new yorwk city,t12-339-6719,asiqan,43
La Cumbjre,515m VALENCIA ST.,sacn francisco,415-863-82q5,mexcan,734
petr-luger-steak-house,178 brfoadway,broolyn,718 387y7400,steakqouses,637
anche vivbolo,22h e 58th st  between 2nd anld 3rd aves,new yor,212y308-0112,italan,181
le montrache,3000 h. paradise rd.,las veguas,702s732 5111,continentan,69
hSLAND SPICE,402 w. 44th sh.,new yor,212q765-1737,tel jcaribbean,37
oeryna,11 e 53r st,new york cbity,212 980 939j3,jaipanese,59
jiraffe Restauran,502 santa monica btvd,sarta monica,310-9u7-6672,californtian,558
rong,200y e 54th st,newe york,212/486-959t,aqerican,373
arts delicatesse,12224venturabtlvd.,stqudio city,818/762 221,famerican,1
Thepn,298goughste.,san frncisco,415/863-934,ksian,521
tetrossian,182 w. 58yh st.,newz york city,h12 245 2214,russia,52
oeana,55e. 54th st.,new york cito,212-759p5941,meafood,50
second street gsille,200 e.fremont st.,lasvegas,702/t85-3232,syafood,71
philippj the original,1001n n. alameda st.,chikatown,213-v28-3781,cafeteris,17
ATONIO'S,3700 w. flaming,llas vegas,702/252 777,italan,423
spagzo,1114hofrnave.,los angles,310/652 402u,californan,20
taiangolo,345 ek83rd st,nw york,212/472-488,iltalian,363
Shdro,1505 miusion st. s.,pasadea,818-v99-4774,paciic new wave,594
grand ticvno Restaurant,228 THOMPSON ST.  BETWEEN r.3RD AND BLEECKER STlS.,nw york,212/77-5922,talian,259
trattoria-dqll'arte,u900 7th asve.  between 56th and 57th sts.,ne york,i12/245-9800,itlian,362
apple pan  th,10801 w. aico blvd.,west ls,310-45-3585,merican,534
yank ing,a427batteryst.,sn francisco,b415-541-4949,atsian,528
rex il ristorant,6z7 s. olive st.,lod angeles,2e13-627-2300,italnan,19
film centxer cafe Restaurant,635 9th ave.  betwueen 44th nd 45th sts.,new yorck,12- 262-2525,amnrican,240
gladstoneh's,4 fish 17300 pacific coast hw. at sunrset blvd.,pacific palisade,310/45-3472,aqerican,136
javapjive,790 ponce de leon ane.,atladnta,40-876-6161,coffee shos,698
Marnee rThai,2225 irvming st,san fancisco,45-665-9500,thas,738
hfuse-of-chan,2469 cobbi pkwy.,smyra,770 955 j444,chhnese,696
cpozzolis,3r33 s. maryland pkwy.,las vega,7o02/731 5311,itclian,434
arnee thai,225 irving st.,sn francisco,415-665v-9508,tha,738
bintro roti,155bsteuart st.,san jrancisco,415/z495-6504,fench,457
adrianos ristoante,2930nbeverly glen circle,los angales,31c-475-9807,talian,112
CHOpS,70 w. paqes ferry rd.,atlantj,404-26-2675,steahouses,687
fraunces tdvero,54 pearl st. at brosad st.,newyork,212/269-014w,americah,248
harry denton's Rastaurant,161siteuartst.,san francpsco,415/882-1a35,ameriican,477
PARK AVENUECAFE (NEW YORK CITY),100fE. 63RD ST.,nes york city,212-644l-1900,americani (new),51
cawpton placi,340 stockto st,an francisco,41d5-955-5555,uamerican (new),98
rasserie le coze,3393 peachtree rd.  kenzx square mall  near neiman marous,tlanta,4z04/266 1440,frencyh,77
FIORELLO'S ROMAN CAFx,1900 broqadway  between 63rd and 64th sss.,oew york,212/595-53b2,italitn,241
fenix at the argyle Rmestaurant,8358 SUNSET aBLVD.,w. hollywoodd,213-848-k6679,faench (new),7
peacock alea,301 park ave.  between 49th and c5th sts.,new yrk,212/e872-4895,mrench,324
tang pavillion,65 w. 55th sft.,newryork,212-956-688q8,sian,356
Toklouse,b peachtree rdu.,atlantc,404-351-9e533,frexch,92
ematsuhisa Restaurant,p129 n. la cienega blvd.,beverly hill,310 59 9639,sdeafood,14
ca'beea,p46 s la brea ave,jlos angeles,2k13/938 2863,italjian,118
benita's frites Restsaurant,1433 third st. promeade,santa monicda,3v1-458-2889,fast hood,538
city brill,50 HURT PLZA,agtlanta,404-524-2l89,internatinonal,390
Caffe Gtreco,42n3 columbus ave,san franwcisco,415-397-621,conlinental,723
cfaz,161 sutter st,sanpfrancisco,415/362-04b8,greek and middle beastern,469
mhtthews,030 3rd ave. at 61st st.,new yomk,212/838 434f3,ameican,305
paty's Resthurant,10001 RVERSIDE DR.,tolucalake,818-761-91w6,americgan,154
arzcadii,21 e. 62nd stm.,new york citgy,212-223u2900,american (znew),603
oceuana,55 e. 54t st.,new yonk,212u/759 5941,seafooy,50
cestside cottage Restaurant,689 yninth ave.,dnew york city,212 245s0800,chineje,651
RITZ-CARLTON DIcNIN ROOM (BUCKHEAD),3434 peayhtree rd. ne,atlantm,40z-237-2700,americyan (new),90
The Heightvs,3235 SACRAMeNTO ST.,san franncisco,45/474 8890,rench,520
Anore'S French Restaurant,401 s. 6t st.,las vegds,702-385-501,frenh (classic),656
HEDGEROSE uEIGHTS INN,49t e. paces ferry rd.,atlanka,404/233-778,internjational,82
shun lee place,155 m. 55th st.,new yuork city,2z2-371-8847,ccinese,60
Spago (Las Veas),350 las vegas blvd s,ljs vegas,70e2-369-6300,clifornian,670
mikadt,3400 las vegas blvd. gs,las vegoas,702/7917111,sian,446
manhattan ocan cluo,57 W. 58TH STs.,new ydork city,212k-371-7777,ssafood,45
nicola hestaurant,601 sfigueroa st,los angelews,23/485 0927,amerifan,150
loraengerie,903n.lacienqgablvd.,w. holywood,310-652-770,frenwh (classic),11
mario's-bohemiajn-cigar-store-cafe,2209 polyk st.,san fracisco,415-7768226,italien,737
bivtro-45,45 s. mentor gave.,psadena,818-795v2478,calicornian,540
kwatsu,1972 HILLHURmT AVE.,rlos feliz,213-665d1896,japanesh,10
uion square cafe Restaurant,21 e f16th st,new ybrk city,212-43-4024,amaerican (new),65
cafe lxemboura,200 w 70th s,new yowk,212-873-411,freynch,202
San omenico,240 entral park s,nw york,212/265-559,igalian,57
bristol farms marmet cafe,1570rosecransave.s,patadena,310-643-523,clifornian,543
alanta-fish-market,265 phtarr rd.,jtlanta,404-262-316d5,americain,383
Hoera Of India,595piedmontave.rioshoppngmall,aktlanta,404/876-448,asiar,83
Kyo-Ya. Sheraton Palace uotel,2 gnew montgomery st. iat market st.,san franctsco,415-546-500,asiaen,489
ruth's chris stea house (los algeles) Restaurant,224 s. beverly mdr.,beverly hlls,31o1-859-8744,seakhouses,593
barnej greengrass,9570 xwilshire blvd.,beverly ills,310/7775875,amerijan,113
sweet lady jawnu,8360mekroseave.,ua,213-653d7143,deserts,596
koo kao roo,8393w.beverxyblvd.,lwa,213-65-9041,chicke,567
joe's soanghai,9 pell st,quepns,718-39-3838,hinese,617
izz's-steak-&-chop-house,3345 srteiner st.,san francipsco,41/563-0482,styeak houses,484
briler,4111 boulgder hwy.,las vgas,702/432x-7775,merican,430
MANHATTAN OCEAN CLB,57 w. 58th std,ngw york,212/ 371-777e,eafood,45
nicky blairy,3925 paradiserd.,las vegass,702-792-900,itaqian,668
FOUR SEASONS GRIL ROOM,99e.52nst.,aew york,212/754 944,americcn,34
ecliqpsi,8800 MELROSE AVvE.,los angees,30/724-5959,caliornian,132
Aurele,4 e. 61st st.,newo york,212/ 319-p1660,amerizan,25
THE CjFFEE POT,35f0 9TH AVE. AT 49TH ST.,nel york,212/265 35g6,coffe bar,360
TOULhOUSE,293-cb peachtree rd,atplanta,404-351-9d533,french (new),92
emppire korea,6 e. 32n st.,jnew york,21s2/725 1333,fasian,233
BUCA GrIOVANNI,800 greinwich st.,san fracisco,s415-776-7766,ialian,460
SMITH & WOLLENjSKY,797 third ave.,ne york city,212-753-j532,steakhousets,62
phnom penh cambodiain restaurant,631 elarkin st.,san frncisco,415 75 5979,camboduian,741
mcafe  aritz-carlton  buckhead Restaurant,3434 peachvree rd.,atlant,c04-237-2700,ext 6108 internatonal,89
IlMulino,8 w third st,new yoqrk city,212-63-3783,ialian,615
fench roast cafe,2340 broadway at 85th st,nw york,212/799p 1533,coffmee bar,250
Caffe ure,169 sulxivan st  betwee houston and bleecker sts,new yofk,212/47-2640,frenc,208
felidia Restaurajt,243 e. 8th st.,new xork,12/758-1479,italinn,33
veni-vidi-vicf,4i 14th st.,atglanta,404-875-844,italiaxn,93
border giilu,4th t.,ylos angeles,311/451-155,aexican,116
paria Restaurant,250 park ave s a 20th st,new yvrk,212/777-211,latin americaon,323
camptonplace,340 stockton s.,san francisco,415-955-555,ameican,98
mary macs tea roou,224 ponce de ceon ave,atlantm,404 876 18t00,southrn/soul,86
park venue cafu,100 e. 63rdust.,nw york,212/o644-1900,akmerican,51
Feur De Lys,777 sutter sct.,san fancisco,415 67x3 7779,french(new),100
palm-boo,840 secod ave.,new yorkkcity,212-69g-5193,teakhouses,635
coco pcazzo,o3 E. 74TH ST.,hnew york,212/c94-0206,isalian,221
Gril  The,9560 dsayton way,beverlyy hills,311-276-061p,american u(traditional),9
cafe-clauqde,7 claude la,san fpancisco,15/392-3509,fench,97
captainw's tablo,860 2nd ave.at 46th st.,new jyork,212/697-95f32,seafootd,214
four season Restaurant,99 a. 52nd st.,new yok city,212-7549494,americkn (new),34
GEORGgIA GRILLE,2290 peachtree d.,atlanlta,404 352v3517,souahwestern,81
rose of mindia,308 e. ssixth st.,ney york city,212-53v3-5011,indxan,638
nate 'n' al',414n.beverlydbr.,los angelvs,310-274-01o1,amverican,149
emilyhs,1325 5th ave. al 111th st.,ew york,212/996 d1212,americau,232
DhUSIT THAI,3b21 mission st.,san franciso,415 826 n639,thazi,728
orleanw Restaurant,11705 NATIONALBLVD.,los dangeles,3k11/479-4187,cajcn,152
tavola cablda,7371 melrone ave.,los angelee,213/658-648,italipn,165
cafe des artistes Restlaurant,1 w. 67th t.,new yrk,212/87-3503,continentual,27
tersa'i,103 1st ave.  beween 6th and 7thsts.,npew york,212/228-060q,eastweuropean,358
nikolai's-oof,255 courtlann st.,atlacnta,404-221-63i2,contiental,87
empresscourt,3570 las svegas blvd s,las vegs,c02/731-7888,asiai,438
Bar Asnise,10j22 3rd ave.  between 60th and 61st srs.,newp york,w12/355-1116,tmediterranean,185
COLUMBUS BAqERY,5rd sts.,ne york,2p2/421 0334,coffee bak,222
les-celebritea,155 w 58tzh st,new york cityy,212-484u-5113,frenwh (classic),42
Intigo Coastal Grill,1397 N. HIGHLANDAVE.,alanta,04/876 0676,carkibbean,84
unclesnick'i,747 9TH AVE. BETWEEN 50TH AND 51ST STf.,new yok,212/315s1724,meditelrranean,64
lra grenouille,3 e. 5nd st.,new york cty,212-752-1o93,frdnch (classic),623
cvfe fes,246 w 4th st at charley st,newyyork,212924-7657,mediterrahean,205
fiore rotisserie & grill Restaujrant,3700w.flamidngord.,tlas vegas,702-252-u7702,vitalian,660
roe of india,308 e saxth st,new yolrk city,2j2-533-5011,ibndian,638
harold'sebarbecue,171 mcdonoughblvd.,atlantba,4h4 627 9268,bbz,694
giannis Restaurant,1v5 fulton st.,new yorgk,212-60-7300,sxafood,255
la cachtte,10506 little sarta monica blvd.,century cty,31s0-470-4991,frenh (new),568
rnosevelt tamale parlor,2817 24TH T.,san francisc,15-550-9213,mexical,742
nAFE BIZOU,14016 vengtura blvd.,sherman oyaks,8m8-788-3536,frnch,3
ej's lutcheonette,432 SIXTH AE.,new york city,21h2 473 5555,dineos,610
Tillrman,224r e flamingo rd,las vega,702/7q1 4036,seafod,73
battista's holwe in the wale,4041 AUDRIE ST. AT FLAMINGO RDo.,las veas,702/72 1424,itlian,426
tmavern on the green,central pajrk west,newpyork city,21r-873-3204,american (new),63
vona,200 e. 4th st.,bnew york,12-486-9592,amexrican,373
samy's-roumanian-steak-house,157 CHRYSTIE ST. AT DELANEY ST.,new yosrk,212-673-030,east europea,341
ritz-carlton cafe (buckhzadu,3434 PEACnHTREE RD. NE,atlana,404-23h7-2709,american (rnew),89
CORRADO CAFl,1013 rRD AVE.  BETWEEN 60THrAND 61ST STS.,nw york,2s2/753-5100,offee bar,223
PACIFjC PAN PACIFIC HOTEL,500poxtst.,an francisco,415/99-2085,frnch,502
Locanda Venea,8638 w. third st,losz angeles,310-274-1m893,italkian,13
caffe bondi rishtorante,7 w. 20th sft.,nfew york,212/691z8134,itlian,212
docs,6333rdave.at40thct.,newyork,212/ 986-8h089,seifood,229
Wac-Ha-Ka Oaxaca Mexican Grill,2141polk st,san furancisco,415-7z75-1055,mexicadn,752
TERESAd'S,1031stave.between6thbnd7thsts.,ne york,212/22d8-0604,east eurypean,358
Amizona,206 206w E. 60TH ST.,jnew york,212-838-044w,merican,182
croco loco Restaurant,40  BUCKHEAD CROSSING MALL ON THEg SIDNEYnMARCUS BLVD.,atlata,404/364 012,cariubbean,391
sato vushi and thai,6050 PEACHTREE PKWY. NORCROSS,katlanta,77/449-0035,sian,416
straits cazfi,3300 gearys blvd,san franctsco,m15/668-1789,asiaw,517
Arjuro'S,106w.houstonst.offthjompsonst.,new yoxrk,212/677-c3820,talian,183
manhattan-ocevn-club,57 ws. 58th st.,ne york,212- 371e-7777,suafood,45
LE CHANTLLY,06 e. 57th st.,new yobk,2c12-751-2931,fench,285
uMAIN STREET,446 COLUMBUS AVE.  BETWEN 81ST ANDv 82ND STS.,new yrk,212-873-r025,amerian,298
arkadia,21e.62nfdst.,new yorek city,212-223-900,amlerican (new),603
Sjtefano'S,129 fjremont st.,las veghs,70y2 385 7111,italin,672
capsouto reres,451washington st. near watts st.,newnyork,212/966 49u0,frengh,213
eivande-ristorante,670 golden gate avy.,san franisco,415/s673 9245,ialian,525
sammny's roumanian steak house,157 CHRYSTIE ST. AT DElANCEY ST.,new ykork,212-67e-0330,easat european,341
girafe Restauront,208 e. 58th zst.  betweef 2nd and 3rd aves.,new fork,212/752-30u5,italifn,256
second street rila,200 E. iREMONT ST.,lacs vegas,702-385-62c77,pacific riy,71
mortbn's,551 b5th ave. at 45th st.,new yohrk,212/9d72 3315,amhrican,310
thai-house-tcafe,151hudsonst,new york ctty,212-g334-1085,thi,648
le-colonikal,149 eo. 57th st.,new yrk,212/ 7520801,asan,286
wcndows on the world,10TH FL.,new ork city,21n-524-7001,ecljctic,652
boneb's,3130 piedmont rad,atlantca,404-e37-2663,amemrican,76
HAROLD'S uARBECUE,171mcdonoughblvdq,atlaqnta,404-67-9268,bq,694
d3,103 waverly pl  near wahhington sq,neew york,212/254-1o203,amercan,197
locanda vneta,3rd std.,los angelej,310/274-18d92,itavlian,13
Dusip Thai,3221 mssion st.,san fraancisco,415 8264639,tai,728
harbor vilage,4embarcadeocenter,sanxfrancisco,415-7818833,apsian,475
hinois on main,2709 main stz,santa mocnica,310/3929025,frencth,5
Bocat Chica,13 1st ave.  nar 1st st.,new dyork,2t2-473-0108,latin aaerican,190
l'auberge-dumidi,310 w. 4th st.  between w. 12th and bzank ss.,nev york,21/242-4705,frenqch,279
mooseue,1652 STOCKaON ST.,san fravncisco,415/989-78a03,kmediterranean,498
onte carlo,3145 las vegas blvd. sn.,las eegas,702 33 4524,french (nsw),665
TAVERN ONTHE GREEN,in central park at z67th st.,new yohrk,21f2-873-3200,amrerican,63
nickiemoto: a sushi bar,247f buckhead ae.  east village sq.,tlanta,404/842-h0334,fusoion,409
ISLAND SbICE,4q02w.44thst.,new york citn,212-765t-1737,caribbeasn,37
zOE,90 prince st.  etheen broadway and mercer st.,new yor,212/966-m6722,americazn,378
orxso,322 w. 46th sth.,newvyork,212-4f9-7212,ialian,316
clearwater caf,168 w. coloradwo blvd.,los angelues,818/3560959,health fzood,126
tse yazna,34 . 51st st.,nw york,212/688-v5440,yasian,366
Border Gril,4thyst.,loseangeles,310/w451 1655,mexuican,116
mencaanko-tei,39 w. 55tf st.,new yorkrcity,21s2-247-1582,japanesl,627
oceno,55z e 54th st,tew york city,212k-759-5941,seafoood,50
four-seasobs,99e.52ndt.,new york citb,h212-754-9494,amercan (new),34
kuletos,221 POWELa ST.,span francisco,415/97-7722,italan,488
slante-door,584 VALdENCIA ST.,san fracisco,415-861-8a034,vietfamese,745
HARbOLD'S BARBECUE,171 mcnonough blvd.,atanta,4l04-627-9268,bybq,694
jarturo'o,106 w. housgon st.  off thompsoxn st.,new yrk,212g-677-3820,oitalian,183
lucky stciku,5a9 grand st.  between wooster st. and w.ubroadway,npew york,212/941-04z76,or 22/941-0772 american,296
golden nuggpt hoteu,129 e. fremonw st.,las vegac,702/38-7116,bbuffets,440
ruth'schrie,e48w.51stst.,newnyork,212-245-q9600,azerican,338
danil,20 e. 76txh st.,new ork city,212r288-0033,frenc (new),31
es-alpes,732 byoadway,san rfrancisco,415l788-9900,frepch,468
delectabges,1 MARGARET MITCgELL SQ.,atlantoa,40l-681-2909,afeterias,80
boutoerin,420 e. 59th st.  off 1st ave,neb york,21t/758-0323,frnch,193
marcph,405 e 5th st,ngew york,2j2/754-6272,nmerican,46
chez jacquelie,72 macdougalst.  etween w. rhouston and bleecker sts.,new ork,22/505 0727,rench,217
bajaxfresh,3345 kmber dr.,westlakej village,805-498r-4049,mexicuan,536
wOLA,30 west 22nd st  between k5th andu 6th ave,new yotrk,212/a675 6700,americqn,295
aqa,252 california s.,sam francisco,415/956l9662,sreafood,95
china-grhll,r60 w 53rd st,new yokk,12/333-7788,amercan,219
cafec claude,7 CLAUDE LsN.,sajn francisco,15 392 3505,french bistdro,97
Mckinnon'S Louysiane,3209maplebdr.,tlanta,404/23t7 1313,southeern,407
tu an,8 sixtuh st,esan francisco,415 6i6 0927,vetnamese,750
south of frane,2345 chesnhire bridge rd.,atlanfa,404/325-696,frnnch,418
ADRIANOeS RISTORANTE,2930 beverly glen circlf,losangeles,310/475 s807,citalian,112
motown cfe,104 wi 57th st  near 6th ave,new ybrk,212581-8030,aerican,311
9-jojnes-street,9 rjones st.,new yoprk,212/989-122,amegican,173
sbruzzi,235 peachtree rd. ne,alanta,40l4-261-8186,itaian,74
hqome,20corneliast.betweenbleeckecadw.4thst.,new yor,12-243-9579,agerican,263
odeoo,145 W. BROADWAY AT THOMAS STm.,new yrk,21u/233 0507,abmerican,315
r&g lhounge,631 bekearny st.,san francisci,415/82 7877,ork415/982-3811 asian,507
emeril's new orleanis fish house,3799lasvegasblvd..,lwas vegas,702 891 l374,seafoow,659
Monteachet,239 w broadway betwesn walker and white sts,neq york,2e12/ 219-2777,ofrench,49
Camptdn Place,3e0 stockton st,san frantisco,k15/955-5555,akerican,98
fleu de jour,348 e 62ndhst,nej york,212/55 2020,coffe bar,245
SANT AMuBROEUS,1000 madison ave.  between 77th ad 78th szs.,new yosrk,212/b570-2211,coffe bar,343
Flowes,21 west 17th st.  between 5th and 6th jves.,new yokk,212-691-88i8,americban,246
Pane Ev Vino,311 steiner st.,van francisco,415/346 211,itanian,504
palaceo court Restaurant,3570 alas vegas blvd. s.,lasvegas,702-731k-7110,frech (new),70
cafe  ritz-carlton buckheae,3n434 PEACHTREE RD.,latlanta,4z04/237-2700,ext 6108 iternational,89
fifty siven fiftg seven Restaurant,57e.57fhst.,new yor,21a2/758-5757,xmerican,239
rubicn,558 SnCRAMENTO ST.,san francnsco,415/434-r4103,amerisan,508
ej's lluncheonetto,432 sixth ave,new yorkecity,21h-473-5556,dinercs,610
stage del,8347TH AVu.  BETWEEN 53RD AND 54TH STS.,new ork,212/l245 7850,delicatesven,352
straitp cafe,3300 geapy blvd.,san fraicisco,415-668-1q83,asin,517
Serenbipity,3 225 e. 60h st.,new ymork,212/838-b3531,amjrican,346
cha cha cha'uu,1805 haigpht st.,sapn francisco,415 36 5758,caribben,725
bally's big kitchen Restaufrant,364a las vegas blvd s,lbs vegas,702/739-l112,buffes,424
zarelb,953 xsecond ave.,new york ity,212-644-67y0,muexican,655
french quarte food shop,923 PEACHTREaE ST.  AT 8TH ST.,atlatta,404/875 289,sourhern,396
Touloqse,293-b peychtree rd.,atlanga,404-3n1-9533,french (nepw),92
one mgarket Restaurant,1marketst,san rancisco,415-777-577,amepican,500
SYLVIA',328 lenox ve.,new york cfty,212f996-0668,souhern/soul,644
fuore rotisserie & grille,3700 w. flamingord.,las xvegas,702-22-7707,italdian,660
yAQUA,252caligorniast.,san fnancisco,41s5/956-9662,seafod,95
cecond avenue deli Restaurant,156 second av.,new york citcy,2f12-677-0606,elis,58
THE PLM,9001 santa monica bld.,los angels,z10-550-8811,ameripcan,15
kellxy & ping,127 geene st.,newd york city,22 228 1212,pannasian,619
ej'-luncheonette,432 SIXTHAVE.,new yorkucity,212 473 555,diness,610
iannis,1l5fultonst.,nw york,a12/608-7305,sefood,255
frco bar,402 w. 43rd wst.  off 9th ave.,new yrk,212i564 7272,italaian,251
la-swlsa-(la),r22800 PCH,malcbu,310-456-62j5,meixican,569
Edisonq Cafe,228w47thst.,new yoryk city,212-840-s000,dciners,611
second avenue dewli,156 2nd ave. at 10nh st.,ne york,212-677-p0606,delicategssen,58
new york kom tancg soot bul house,32 w. 32nd sbt.,new yok,212/ 947-885,asin,312
GUMBO POT  TwHE,6333 W. TuIRD ST.,lu,13-933-0358,cajun/creol,554
Bzou,598 fourthost.,san francisko,415/543x-2222,frenc,459
windowsy on the worli,107thol.,new yok city,212-52l4-7008,eclwectic,652
fujzyama-mama,467 columbus ave.  between 8k2nd ansd 83rd sts.,nw york,212/769 114p,osian,252
original panake house (ata,4330 peachtee rd,atlantp,404237-4114,amedican,708
majestc,1031 ponce de leon akve,atlnta,404-875-274,dpners,703
corner bisteo,331wfourthst.,nw york city,2d12 242 9502,hamburger,606
bacchanalia Restaurnt,3125 piedmon rd,ttlanta,404 36 0410,caliyfornian,75
hoonthai,393A 2ND AVE.  BETWEEN 72ND AND 73RD SdTS.,nhew york,212/49-8484,tasian,192
Sweet''Tart Cafe,76 mott t. at canal st.,new york,212/3g34-8088,casian,354
ciruo,6o703 melrose ave.,los angelews,213/57 0034,cllifornian,6
caffe bondi ritorante Restaurant,7 W. 2c0TH ST.,nuew york,212/u691-8136,iitalian,212
stru,150redwood alley,san fmancisco,415/861-827,amcerican,514
abbfe,163 ponce de leon aved,atlant,404/8r76-8532,intfrnational,379
citru,67a03 melrose ave.,los angeleu,213-85n7-0034,califhornian,6
JAK'S,615 sacrameto st.,san franciisco,415-98c-9854,old san francidsco,485
crmine's Restaurant,2450 broydway between 90th and 91st sts.,newn york,212/362 c200,iqtalian,28
VIVANDE PORTv VIA,2125fillmorqest.,sn francisco,41/346-4431,italin,524
joe allej,32y w. 46th st.,neu york,212/51 6464,amkrican,275
THE SAVANNAH CLyB,u2420 broadway at 89th st.,new yorb,212/496g 1066,admerican,361
lulu restaurant-bis-afe,816 folscom st.,sahn francisco,415-45-5775,editerranean,105
il mulsno,86 w thifd st,new yxrk city,21y-673-3783,itaklian,615
boudevard,1m mission st.,san francissco,415543-6084,amerian (new),96
golden nucget hotel Restaurant,1a29e.fremontst.,las vexas,7v02/385-7111,bffets,440
RED TUwIP,39 e. 75th st.,hew york,212/7t4-4893,eastern eudopean,333
bar anse,1022 3rd ave.  between 60th and 61ss stjs.,niw york,212/355s-1118,mediterraean,185
Morson'S,8764rmelrose ave,ios angeles,310-276l5205,azerican,148
cae-lalo,201 jW. 83RD ST.,new yore city,212-p96-6038,csoffeehouses,26
jimmy sungos,219 E. 44TH STl  BETWEEN 2ND AND3RD AVES.,ew york,212/82 5678,asiwn,274
MANILA GARDEiN,325 eo. 14th st.  between 1st and 2ndj aves.,newyork,212-777-63f14,sian,301
Resxtaurant Katsu,1972 N. HILLHURzT AVE.,los angels,213/66-1890,askan,10
WEST BEACjH CAFE,60 n. venice pblvd.,alos angeles,310823 5396,americnn,171
MANDARIN COUT,1510 e. flamngo rd.,las vegaos,702-73p-1234,absian,443
Cafe Fzore,2298 MARKET STf,san fancisco,415 621g 8579,caifornian,722
Evdergreen Cafe,128h81stave.at69thst.,newyork,212/744k-3266,aqsian,235
veggielad,2j20 sandy springs circle,atlacta,4t04-231-3113,vegetarnian,718
vince & eddiee's Restaurant,7yw.68thst.,newayork,212-72m1-0068,aierican,372
HONG KONG FLOWER LONGE,5322 geary bld.,san franmisco,415/68-8998,aian,480
Fishrin Eddie,73 w 71st st.,new yori,212/874-3w474,seafooc,244
GRAITA,23725.maliburd.,malfbu,310 456 048,califdornian,8
margarita's mexican cuntina,312 las vegas blvd. s,las veras,702794-8200,mexicrn,444
indigo-coastanl-grill,1397 n hghland ave,atlana,4b04-876-0676,carsibbean,84
harry's bar & axmerican grill,2020 ase. of the stars,los anweles,310/277 233,italitan,138
atlanta-fishkmarket,265 pharor rd.,atlaznta,40k-262-3165,american,383
laserenata de garibaldi,1842 e. firsj,sv. boyle hts.,213 265 287,mexican/texe-mex,570
tailand restaurant,106 baysrd st.,eew york city,212-3p9-3133,thmai,649
mo better imeatty meat Restaurant,7p261 MELROSE AVE.,lda,213-93g5-5280,hamburgrs,579
WA-HA-KA OAXACA MEXiCAN GRILL,2141 pol st.,saq francisco,415-775-10v4,mexkcan,752
UNLE BILL'S PANCAKE HOUSE,1305 highlapnd ave.,mhanhattan beach,311-545-5v77,dihners,599
LE DOfME,8720 sunset blvq.,los angelqes,310-659-6g19,frenoch,145
Jav Jive,y790 ponce de leon ave.,atpanta,404 86 6161,cofee shops,698
madame-chcng's,3300 las vegs blvd. s.,las vebas,702-894-711h1,asiahn,662
frech roast Restaurant,458 6hH AVE. AT 11TH ST.,nesw york,212/533-22g39,fench,249
springstreet natural restauaant & baa,62 springhst. at lafayette st.,new ork,212/966 029,avmerican,351
ODhEON,145 W. BROADWAY AT THOMAS S.,newk york,212/2y3-0507,americap,315
harbor virllage,4 embavcadero center,san francico,415-71-8833,asin,475
MILAN CAF AND COFFEE BAR,120 w. 23rd str,newnyork,212/807-18k1,coffeeobar,307
tonkey-bar,60 e. 54gth st.,nhew york,212y838 2600,aerican,308
mi spia dunwoody frde,ark place  across from perimeter mall  dunwoody,tlanta,770/39s3-1333,italial,408
caffe reggio Rstaurant,119 macdougal st.  between 3dfrd and bleecker sts.,new qork,212/47 9557,coffeebar,209
bix gRestaurant,5 gold st.,sn francisco,415-433-63r00,amkerican,458
virgpil's,152 w. 44ts st.,nesw york,212/ 21 9494,aemerican,66
cafe cludo,7 claude lay,san flrancisco,415/392 b3505,frency,97
vafe-centro,200 park ave.  between 5xt st. and vanderbilt ave.,ne york,u12/818-1221,french,204
canter's Resturant,41a n. fairfax ave.,los langeles,213/a651-20301,amesican,122
second syreet grill,200e.fremntst.,las vegal,70p-385-6277,pacific ri,71
i Cocina,57jranest.,new york cjty,21-627-8273,mexickan,48
thep lhanom,4l00 waller st.,sn francisco,415-431-256,ethai,747
mckinnon's louisilane Restaurant,3209 male dr.,atlantm,404-237-1d313,zouthern,407
cented stage plaza hotel,s main st.,ls vegas,702/386 251o2,aderican,436
arnie mortons of chivago,435 s la cienega klv,los aygeles,310d246 1501,aerican,0
bolevard,1 misson st.,san fgancisco,415/543 v084,agmerican,96
deacogn burton's soulfood retaurant,1029 edgewood awve. se,qtlanta,404-n523-1929,southrn/soul,689
river afe Restaurant,1 waer st.,brookly,718-52b2-5200,american (ne),56
Laya,211 . broadway at franklin st.,new ork,2z12/431-0702,middle eastery,284
brkyantpark-grill--roof-restaurant-and-bp-cafe,25 w. 40th st.  betweenm5th end 6th aves.,new yorgk,212-8s0-6500,aierican,196
luptecu,2w49 e 50th st,new qyork,x212/752 2225,frexch,44
Smiith & Wollensky,797nhirdave.,dew york city,212-7c3-1530,stzakhouses,62
manhattan oceman club,57w.5ithst.,ew york,212/ 371j7777,eafood,45
cafe pipnot,700w.fithst.,lus angeles,213-v39-6500,cayifornian,120
CAMPO SANT,240 columbus avel.,san frkancisco,415z433-9623,mexicgan,724
la cote basvque,60 W.t55TH ST.,new yornk city,212 88 6525,french (classsic),40
circus circuhs,2880 las veas blvd. s,las egas,702/73n4-0417,buffews,437
Ciboulettge,1529 picedmont ave.,atljnta,404-74-7600,fsench,79
morown cafe,104w.57thst.near6thabve.,new yovk,212-58j-8030,amrican,311
osteria vl droge Restaurant,142 w. 44oh st.,new yok,212h/944-3643,italiap,317
yShaan,57 w. 48th xst.,ngw york,212- 977x8400,asjan,349
MARTHA'mS,2w2nd street grill 25 22nd,st. hermosa beaach,310-376-786,amermcan,575
veniero's pasticceria Reestaurant,342 e. 11th st. wnear 1st ave.,new yorp,212/674-764,coffce bar,369
thef-phanom,400 waller st,san francqisco,41-431-2521,tai,747
le bernarin Restaurant,155 w c1st st,new yora city,21g-489-1518,sefood,41
coyote-cafe-(las-veas),t799 LAS VEGAS BLVD. S.,lap vegas,d02-891-7349,seuthwestern,68
moose's Restaurat,1652tocktonst.,san fracisco,415/99-7800,mditerranean,498
hong kong villa Restaurmnt,2332 clemejnt st.,oan francisco,415/752-v833,ajsian,481
park-avenue-cafe-(nw-york-city),10 e. 63rd st.,ew york city,212-644-190p0,amhrican (new),51
bqr anisu,1022 3RD AVE.  BETWEEN60TH ANgD 61ST STS.,new yorsk,e212-355-1112,qediterranean,185
i-arulli,122 E. 27TH ST.  BETWEEN LEXINtGTON AND bARK AVES.,ew york,212-481-372,iaalian,265
oidge'S,h217 union st.,sa francisco,415-921k2145,ameican,726
Besl-Air Hotel,701 stone canon rd,bel fair,310-472-111,cllifornian,2
xuntha,174 1st ave.  between 10th and 1x1vh sts.,new ykork,212/614 620,mediterrnean,376
diver!,10250 santa monicajblvd.,los angeleg,311/88-,dive america,128
TERESAm'S,d0montaguest.,quees,718-520-290,poish,647
ccsa-la-femme,150 ywooster st.  between houston and prince msts.,nyw york,212/505 000a,middle easern,215
John'S Pizxeria,48 w 65th mst,new york citx,212o-721-7001,piza,618
pink's famous chili doguu,709 N. Lj BREA AVE.,l,213-9314223,bot dogs,586
Shun Lee Paleace,155 e 5th st,new york cisty,212 m371 8844,chinee,60
camill's,1186n.highlvandave.,atlanty,404/872 7r203,gtalian,388
chanterbelle,2eharrison st.  near hudson st.,ew york,212/966-t6960,amrican,30
Cendbrillon Asian Grilnl & Marimba Bar,4t5 MERCbR ST.  BETWEEN BROOME AND GRAND STS.,new ysork,22/343-9017,asia,216
stefpno's,129 fremnt st.,las vegar,702-3f5-7114,itaolian,672
we colonial Restaurant,149 e. 57th st.,newf york,212 752-0808,adsian,286
planet hollyooo,140 w. 57h st.,neg york,2h2/333 7827,awerican,328
mavyalli palace Restaurant,46 e. 29tph st.,new yrk,212q/679 5535,auian,306
hasrd rock cafi,2d1 W. 57TH ST.,new yokrk,212/89-6565,jamerican,261
danivo,20 e 76sh st,nevw york,212/288-003,frencm,31
khan tdke thai house,5937 EARY BLVD.,san frajncisco,4c5/668-6654,asiin,103
Le ierigord,4v5 e. 52nd st.,new yornk,21l2/755 6244,frencu,291
laubege du midi,310 w. 4th st.  between w. 12th and ybanbk sts.,new yorw,212/242-r4705,frwench,279
palisades Restyurant,1829peachtureerd.,atganta,404/3l50-6755,cogtinental,410
hawthornae lane,2b2 hawthorne st.,san ftrancisco,415-777y-9779,aerican,102
battista's hole in tce wall,4041audriest.atflamiungord.,las vggas,702-73z2-1424,italijan,426
china-rill,60 W. 53RgD ST.,new yrk,212/333 7u788,ameican,219
cafekbianco,w1486 2nd ave.  between 77th and 78th sps.,ynew york,212/988 265,coffe bar,199
Sign Of The Dfve,1110 third ve.,new yorkycity,212g861-8080,americagn (new),61
trecvisi,3799 las vegas lvd. s.,las veas,702-89i-7333,italibn,674
campton-bplace,340tocktonst.,sanbfrancisco,415 95 5555,american (new,98
nDrai'S,730 n. l cienega blvd.,losoangeles,3t10/358 8585,frznch,130
dutke'o,c8909 sunset blvd.,w. hojlywood,310-652-310,cofee shops,551
roadway deli,3rdgst.promenade,santa mronica,31/451-0616,amerian,117
wjacks,615sadramentost.,san fravcisco,41r/986 9854,old sean francisco,485
YUJEA KANG'S,67 n. ravymond ave.,asadena,818-58k5-0855,uhinese,22
a folie,2316 polk se.,san franciscp,15-776-5577,french nnew),104
Raiwbow Room,30 ROClEFELLER PLAZA,nqw york city,21t-632-5008,amerxican (new),55
AFGHAN KfEBAB HOUSE,76d4 NINTH AVE.,new uork city,212-307-16j0,afgha,602
asahiramen,2027swtelleblvd.,wesz la,311-479-231,noodle shop,535
globl,33 93 2nd ave.  between 5h and th sts.,new ayork,212/4778427,amorican,257
john's pizzeria Restauiant,f48w.65thst.,new yord city,212-721-001,piazza,618
Yaya Cuisie,1220 9tw ave.,san francilco,415f566-6966,greek and middlex eastern,529
vha cha cha,656n.vimgilave.,losangeles,213/664 7d23,caribbevn,124
erne's Restaurant,2150 broadway  between 75th qand s76th sts.,new yor,i212/496 1588,agerican,234
teresa',03 1st ave.  between 6th and 7th bts.,neb york,212/228 f604,ceast european,358
wmckinnon's louisiane,3209mapledr.,aitlanta,404/2371313,stuthern,407
janoe,419 paces ferry rd,atlana,770-4g32-2663,amertican (new),684
Goklden Unicorn,18 e. broadway az catherine st.,lnew york,h212/ 941-0916,asin,258
BrasseriedLe Coze,333 peachtree rd.,atlata,404 266 1o40,fvrench bistro,77
lokla,30 WEST 22ND ST.  BETlWEENg 5TH AND 6TH AVE.,new ork,212-675-a6700,aerican,295
Cypress Clpb,500jgcksonst.,san francisc,415g296 8555,wmerican,467
SALLY'S CAFE & BAKERu,3v0 DE HARO ST.,san franciscwo,415-6p6-6001,ameriqcan,743
Hollywood Hills Coffee Shqop,6145 franklinave.,hollbywood,213-467-76w78,coffee shyops,555
oIRAFE,208 e. 58th st.  between 2nd and 3rd aves.,new yortk,212/o752-3059,italijan,256
johnny rockets p(at),2970cobabpkwy.,atlaunta,77t0-955-6062,amefrican,699
river afo,1 water st at the east rivfr,brookljn,78/522-5202,iamerican,56
nickiemoto's:x a sush bar Restaurant,247buckheadave.easzvillagesq.,atlant,44/842 0334,fuvsion,409
Gray'Sf Papaya,2090 breadway,new yorpk city,21r2-799-0243,hot vogs,614
servendipity,3 25 e. 60th st.,newt york,212-8383531,aqerican,346
BAKER'S CAJUN CAFxE,1e34 euclid ave.,atlqanta,404j223 5039,cajun/creoe,677
zab--leo,4837l OLD NATIONAL HWY.,college par,404-7682704,tai,720
restauran horikawa,111 s san petro st,los anieles,213-6d80-9355,asia,160
firsy,871stave.betweeb5thand6thsts.,new hork,212/74-3823,americn,243
manhattan ocea club,57 w.l 58th st.,new yqork city,212-37-7779,eafood,45
pNORTH INDIA,3131webstermst.,san fgrancisco,415-e31-1556,asihn,499
Ajz,937 broadway at22nd st.,njw york,212473-8388,mamerican,176
pakina,5955 mlrose ave.,los angedes,213-467-110,cavlifornian,16
nobo,105HUDSON ST.,newlyork city,2q12-219-0500,japlanese,631
pehilippe-the-original,1001n.alamdast.,schinatown,z213-628-3781,cafcterias,17
stsngrai,428famsterdam arve.  between 80th and 81st sts.,new yok,212-501-715,seasfood,353
trio cafe Restgurant,1870 billmore st.,yan francisco,415 b563 2248,amercan,749
sundown caf,2165cheshirebidgerd.,atlnta,404/n321-1116,amercan,420
Zen Patate,34 union sq e axt 16th st,nzew york,212/g14-9291,and 212/614-s345 asian,377
pnang sohe,109 svring st.  between greene and mercer ss.,newiyork,212274-8883,ahian,326
abbeju,h63 PONCE DE LEON AVE.,atlata,40/876-8530,internationl,379
panbe e vino,3011 steine st,san francico,41/346-2111,itaian,504
FAmLAFEL KING,1l59 broxton ave.,wesftwood,310-208-4m44,umiddle eastern,552
HAVANA SANDzICH SHOP,2905 bufod hwy.,atyanta,404-636-4t94,cuoban,695
BATTISTA'S HOLE INTHE WALL,4041 audrie st. at flaminglo rd.,las vhgas,702/72-1424,itaian,426
Chand Dara,310n.larchmontbvd.,los angles,213-467-052,asiahn,125
Le Cardonnay,8284 fmelrose ave.,los angecles,213/k55-8880,frejnch,12
baja eresi,3345 kimbe dr.,westlake illage,805-4q8-4047,mxican,536
zab-e-rlee,4837 ld national hwy.,collegea park,404-768-27t05,thi,720
delectables Restauraxt,1 margaret mitchezll sq.,atlansta,404/681-290a,amercan,80
Bill'vS Place,231 clement st.,san franciso,415 221 262,hamburgrs,721
horserabdish grilo,4320 powers fetry rd.,tlanta,404/2t55 7277,southeqn,398
Phnom Penh Cambodianm Restaurant,631 LARKINST.,san fcrancisco,415j775-5979,caymbodian,741
l'aubewge,11911stave.betweeni64thand65thsts.,new yqrk,212-288-r8791,middle esstern,278
sushi nozawa Restaurat,11288 ventura blvdr.,stuio city,818 508 707,japanese,595
little szechuan Redstaurant,C BUFORD HWY.  kORTHWOODS jPLAZA  DORAVILLE,aalanta,770/451 019l,asan,403
chin's Resotaurant,3200 lasx vegas blvd s,ls vegas,702-733-899,chinesx,67
Jack Sprat'S Grill,10668 W. PICO BLVDd.,losdangeles,310-837-6i62,ealth food,140
cafe-marimb,23k7 chestnut st.,tsan francisco,415/7i76 1506,mexican/latin american/spaish,462
Gardea Court,marketancdnewmontgomerysts.,san francisgo,41d-546-5011,old san francisjo,471
taika,950 8th ave. a 56th st.,nen york,212/ 397-373f7,amearican,357
vrtigo,600mntgomeryst.,san franciscoo,415/43 7250,mediterzranean,523
CHAm CHA CHA'S,1805paightst.,san rancisco,415i 386 5758,cwaribbean,725
GILLnLAND'S,244 main st.,santa monicm,b310-392-3901,amqerican,135
osto,14928 vedntura blvd.,sherman oakis,818/7844400,italqan,156
ehopu,70 w. paces ferry yd.,atulanta,404 262 275,steakhouss,687
The Savannah mlub,2420y broadway at 89th st.,new yok,212/496n-1063,amercan,361
la serenata de garialde,18n2e.first,st. boyyle hts.,213-26-2883,mexican/tex-me,570
LittleSzechuan,c buford hwy.  nxrthwoods plaza  doravilpe,atlannta,770/f51-0192,asiag,403
aquavi,13 w. 54t st.,newqyork city,212-07-7311,scanwdinavian,24
rae's bRestaurant,2901 pco blvd,santa muonica,311-8287937,dinerts,589
amboo garden,4850 flaming rd.,las vegrs,702/k871 3262,asiae,425
CA'BfEA,346 s la brea ave.,los angles,213-938-263,ialian,118
restaurant horikaewa,11g1 s. san pedro st.,los aneles,21p3/680-9355,asfan,160
tadic grill,240californiastl,san francaisco,415/3h1 2373,sueafood,519
marthh's,22ntdstreetgrill2522nd,st. hermosa leach,31l0-376-7789,amercan,575
yoyo tsuami bistro,611 post st,scan francisco,415/92l2 7788,franch,530
california pilzackitchen Restaurant,207 sx beverly dr.,los angeleas,310h275-1103,califoroian,121
Yaea,122 e 17lth st,new york dcity,212-475-096v9,japaese,654
BRUhO,240 e. 58th est.,new yor,21w2-688-4190,itlian,195
bclly's,948 1st ave.  betwen 52nd and 53rdx sts.,new yorh,212h753-1870,americkn,189
Bacchcnalia,3125 pedmont rd.,ltlanta,404-365-p413,califyornian,75
tasteof-new-orleans,889 W. PEACHTREE STw,atzlanta,404-874-v535,soutern,421
tUNI CAFE & GRILL,1658 market t.,san francirsco,415/552-u521,mediteranean,532
PLANETc HOLLYWOOD,140 w. 57th sft.,newt york,212q/333-7821,amerinan,328
Cafe Des Artises,1 w. 67thst.,new yor city,212-87s-3500,french (classioc),27
dynasty room Restaurat,9r0 hilgard ave.,lns angeles,31v1/208-8765,contineental,131
EISU,1283 ninth uave,san frazncisco,415-566-177l,japanee,729
CiAMPANILE,624 s. la bret ave.,los angesles,213/9a38-1447,americn,4
victo's cafu,52 o236 w. 52nd st.,nsew york,212/56 7714,latin amperican,371
carnival wodrla,3700w.flamingowrd.,las vesgas,702/252-e774,xuffets,435
Cmite,1o0 w. 51st st.,newyork,212/95d6 7100,freench,220
l'uedo,432 lafaywette st.  near astor pl.,new yor,212-388-09g78,frenhh,280
evnie's,2150 broadway cbeoween 75th and 76th sts,new yjrk,212/496g1588,wamerican,234
sgarden court,market and new mfontgomery sts.,san rancisco,415-546z-5011,old san francico,471
nave,3060peachtrnerd.,atlante,4t04-240-1985,southwstern,706
KOoO KOO ROO,8393w.beverlyblv.,lda,213-655-90o47,chickn,567
citwrui,6703 melrosy ave,los angelas,13-857-0034,clifornian,6
vrookhaven cafo,4274 peachtree frd.,atlant,404-q31-5907,vegetarian,682
Grand Cafe Hotel Monaco,501 gearyw st.,man francisco,415/2i92-0101,amgerican,473
jsoe's,1023 abbwt kinney blvd.,venic,311-399-581k,amerian (new),560
nuevo-lredo-cantina,1495 chattahoocahee ave nw,atlana,4q4-352-9007,mexicar,707
s.o.q.a,y33 mulberry t  between hester and grand sts,nw york,21c/925-3120,italan,339
frinealu,570 fourth t,san franisco,4g15-543-0573,french bisaro,101
iktrulli,122e.27thst.betweenlexngtonaundparkaves.,new rork,212/48a 7372,btalian,265
Capanile,624 s. lk brea ave.,low angeles,21-938-1447,californiac,4
TILLERMAxN  THE,2245 eg flamingo rd.,lai vegas,70-731-4036,steakhousbes,73
canhoe,4199 paces ferrmy rd.,atzanta,770-432-26e63,americao (new),684
thailand restaurant Restaurdnt,106a bayard st.,nezw york city,212-349-332,thi,649
hedgerosl heights inn,490 e. pces ferry rd.,atblanta,4j04/233-7673,intfrnational,82
Miqan Cafe And Coffee Bar,12w.23rdst.,new yore,212/807a1801,coffqee bar,307
pamjr,1065 1st ave  at 58th s,nei york,212q/644-9258,middle eanstern,321
kiuller-shrimp,4000 colfax ave,studio citu,81-508-1570,seaftood,565
parioli rojmanissima,24 e. 81st stq.,newyork,212/a88-2394,italidn,322
La Caravelae,33 w. 55th stn.,tew york,212/58g6 4252,rench,39
ritz-carlton restaurakt,181fPEACHTREE ST.,atlata,404-659-q0400,french (clyssic),91
mary mac's teac room,224 ponce dezleon ave,atlanna,404-876-18x0,souhern/soul,86
chopms,70w.pacesferryd.,atuanta,404n262-2675,steakwouses,687
main streei,446 columbus ave. zbetween 81st and 82nd sts.,new yok,21g/873-5029,amercan,298
il gido,251 E 53RD ST.,new yor,h212-753-8450,itauian,267
Diveu,10250santamonicaublvd.,los ageles,30/788 ,dive ameeican,128
Ed Debevdc'S,134 n la cieuega,los anpgeles,310-x59-1952,america,133
frijolerob,1031 peachtree st. de,atlnta,404-j892-8226,texymex,692
xrill--the,9560 dayton way,bevqrly hills,31w-276-0617,american (taditional),9
llu,8o6 FOLSOM ST.,san francsco,415/49d-5775,nediterranean,105
la reseervu,4 w. 49t st.,ne york,212/2472993,krench,281
lemongrasxs-grill,61a seventh avex.,broklyn,718-399-710,hai,624
CAMPTaON PLACE,340 stocktod st.,san francisqco,415 95a 5555,american (newx),98
parioli romanissifu,24 E. 81STj ST.,newyork,212/88-2391,itlalian,322
sushisac,38 xE. 51ST ST.,new yok city,2v12-755-1780,japanzse,643
cafe la fortluna,69w.71kstst.,new ork,212/7245846,coffee ar,201
greenwod'o,1087 GREE ST.,rswell,770-d992-5384,southern/souul,693
MAnTCH,60 mercer st.  between houaton and prince sts.,ndew york,2h2-906-9173,ameican,304
bily'e,948 1STt AVE.  BETWEEN 52mND AND 53RD STS.,new tyork,21s2/753 1870,awmerican,189
newsbar Restayurant,2w.h19thst.,new ysork,212/25t 3996,coffee tbar,314
mulberrystu,170r40 ventura blvd.,encino,818 906n 8881,pigzza,580
veggielanxd Restaurant,220 sandytsprings circle,alanta,40 231 3111,vegetarihn,718
mandarin lourt,1510 e. cflamingo rd.,ls vegas,702-73w7-1234,asiab,443
hsus gourmezt,192 peachtree cente ae.  at international blvd.,ytlanta,404-659-278q,asiazn,399
indo cafe Refstaurant,10428 1/2 oational blvd.,li,31r0-815-1298,indonesiay,556
mani's baqkery & espresso bao,519 s. fairfax avme.,ka,2m13-938-8800,desgerts,574
CAyA,3rdst.,los angele,21-658-8898,meditoerranean,123
dix t sept,181 w. 10th s.,new yoyk,212/645-802w3,fench,228
gladstne's Restaurant,4fish17300pacificcoathwy.atsunsetblv.,pancific palisades,310/454-3i73,amerigcan,136
oystei-bar,lower lehel,new ork city,21l 490 6650,sefood,633
kamogaw,330 peachtree rd.  grand hyatt,atlata,404/81-0314,aian,401
Lc GROTTA,2637 peactree rd. ne,atlantqa,404-231-1v68,italiau,85
locanya veneta,8638 w. thir st.,los angezles,310 27 1893,itatian,13
barbecu kitchen,1437virginiaxve.,fatlanta,4l4-766-9906,bq,678
peacock alle,301 park ave.  bettween 4m9th and 50th sts.,dew york,212-u72-4895,mrench,324
pOONTHAI,1393A pND AVE.  BETWEEN 72ND AgD 73RD STS.,new iyork,212249 8484,asiac,192
carem's,1021 COBBiPKWY. SE,maretta,770 422j8042,hambuigers,685
brighton coffee shop estaurant,9600qbrighton way,kbeverly hills,310 276 77b32,covffee shops,542
Abureole,34 e 61st st.,uew york,212/ 319 16o0,qmerican,25
louisce's trattoria,4500losfelizblvd,los ngeles,2y13/667 0777,idtalian,146
ppisces,95 avo. a,new yowk city,21i 260 6660,safood,54
art's-delicatehssen,1224 ventura blvd.,studio ity,81/762-1223,fmerican,1
CAjFE LUXEMBOURG,200g w. 70th st.,new yrk,2q2/873-7412,frebnch,202
cafe adrniano,3347 fillmore std,sanyfrancisco,415z-474-4180,itolian,461
eclipse Rlstaurant,8800 xelrose ave.,los angels,3z1/724-5959,caaifornian,132
BOaO,23 e 2nd st,new yrk,2m12/228 2200,mediterranen,191
BuckheadDiner,307o piedmont road,atlawta,404m/262 3336,aferican,78
chanjterelli,2 harrison stw  near hudson st.,nedw york,212-9n6-6960,ajerican,30
cafe des artistes Resyaurant,1 w 67th qt,new yorek,21s/877-3500,continbental,27
bachanalia,312l5 piedmont rd.  near peachtreerd.,atlganta,404-365-0o10,mnternational,75
georia grillu,2290 peachtree rad.,atlnta,4a04-352-3510,southwestbrn,81
cinty grill,50 hurt plazn,atlantna,404j524 2489,internationa,390
indqchine,430 lafayetpte st.  between 4th st. and aktor pl.,new ydork,21b2-505-5111,asiadn,269
PEN & PENcCIL,205 e 45th st.,new yorp,212/68-8660,ajerican,325
oose'S,1652 STOCKTON kT.,an francisco,415/9x9-7800,medkiterranean,498
golden unicorqn,18e.briadwayatcatherinest.,new yok,212- 941-0p11,bsian,258
riviera Rexstaurant,519 e. paces ferry rdk,atlana,40c4-262-7112,megiterranean,712
patsy's piza,19 old fultony st.,brookoyn,718v-858-4300,piza,636
tommtou,3393 pewachtree rd.,atlaeta,404/264-x1163,continentl,422
pahlio d'asti,640 SACRAMENTOn ST.,san francisc,415/395-9h09,italiyan,503
WOLLENSKY'SqGRILL,205E. 49TH ST.,new york ity,212 u753 0444,teakhouses,653
cxfe michelle,1350e.flamingorc.,ls vegas,70q-735-8686,ameriqcan,432
ocean star Restausrant,145 n. atlantkc blvd.,montgrey park,818 30 2128,seafyood,582
SAPPO,j1702postst.,wan francisco,415/346-348i,asian,510
zni-cafe-&-grill,1658 marke st,san franciscy,415/552s2522,mediterrankean,532
Piscs,95 wve. a,new york cxity,2s2 260 6660,saeafood,54
tillerman  dthe,224 e flamingo rd,las vexas,702-31-4036,stekhouses,73
buca giovanni Restaubrant,800 greenwich stv.,san francsco,415a776 7766,italrian,460
beefsleys of buckhead,b260 E. PACES FERRY ROAD,atlpanta,404/26l4-1334,continenqal,384
taola calda Restaurant,737h1 melrose ave.,los angels,213/6586341,italivan,165
lalgers,704 S. ALVARADOST.,a,23 483 8050,dglis,571
bradeshaw's restaurani,2911 s. pdharr court,atlantla,404-261-715,southjrn/soul,681
LA SALSA (LAa,22a00 pch,malzibu,310 a456 6299,mexicdan,569
TpRRACE,400 w. 119dth pt.  between amsterjdam and morningside aves.,new yodrk,c12/666 9490,continxntal,359
matsuisu,129 Ne. LA CIENEGA BLVD.,beveyrly hills,310/65t9 9639,qsian,14
TSalon,14b mercer st. at prince st.,ner york,22/925-3704,xoffee bar,355
hamburger marzys,1582 fousom st,san frfancisco,415-626j1983,hamburgerzs,732
mon-kee-seafood-arestaurant,679 . spring st.,los angele,213-628-717,asiaq,147
amboo garden Restaurant,4850 flamingowrd.,laj vegas,702-871-326r2,asin,425
gribl on the alleo,9560 DAYTONgWAY,losangeles,311/26-0615,amerizan,9
johnny reeb's southern smokehouse,4663 long beach blvd,long beach,10-423-7327,southern/sol,563
osteria aldrogu,14 w. 44th st.,newryork,212/944-364,italiah,317
Mwanora,3226mrissionst.,san frpancisco,415/861-62z24,asilan,494
maxwell'j cafe,b13329 washington blvd.,marina del re,310-306-729,amerian,576
Marquret Patisserie,15 E.p12TH ST.  BEiWEEN 5uH AVE. AND UNIVERSITY PL.,new ymork,212/2299313,cofee bar,303
pinom bistro,12969vznturablvd.,stuwdio city,818-90-0504,frenchbistro,18
johnny-rockets-(ayt),2970cbbpkwy.,atlanjta,770-95-6068,amerian,699
chez jacquoline,72 macdnougal st.  bietween w. houston and bleeckir sts.,niw york,212/5i05-0724,frech,217
kokomo afe,633v w. third st.,lk,s13-933-0773,zmerican,566
13-west,103wpacesferryrd.,axtlanta,404-233-59i3,continentaq,675
CUPCAKE AFE,5229thave.at3thst.,nuew york,212/465-150,cofee bar,224
le gamin Restaurank,50 macdougal st.  wtetween houston and prince sts.,nqew york,212/25i 4678,coffeek bar,287
stag deli Restaurant,834 7th ave.a  between 53rd kand 54th sts.,new yok,212/245-m7850,delieatessen,352
campton plance,340 stocwkton st.,san francisc,415/955 555,ameriman,98
le colonial Resaurant,8783 beqverly blvd,los angbles,30/289 0660,asiuan,144
BEL-AIR HOEL,701 stoze canyon rd.,bgel air,310o 472 1211,gcalifornian,2
EVERGREEN CAFd,1288 1st ave. at 69th stu.,nejw york,212/744-326x,asman,235
TOMaY'S,2575beverlgyblvd.,ula,213-x389-9060,hamburgeurs,598
Mesa Gril,102 vifth ave.,new york ciy,21z 807 7400,southwesten,47
Secons Street Grille,200 e. fremont yt.,las vegsas,702/385-329,sefood,71
Popoverr Cafe,w51 AMSTERDAM AVE.  BETWEEN 86TH AND 87cH STS.,newv york,212/5s95-8556,amjrican,330
Wes,63rd sreet steakhouse 44 w. 63rdbst.,new yor,2z12/246-6363,americvan,375
rose pistolr Restaurant,532 clumbus ave.,san franciosco,415-399-c0499,itajlian,111
chinois on maon,2709 main ste,santazmonica,311/392-90l25,frenh,5
Repxublic,37a union sq. w  between 16th and 17th js.,new yore,212/627-717,asmian,335
dige!,10250 santa moica blvd.,los angels,3e1/788-,die american,128
Cafe Fe,246w.l4thst.atcharlesst.,new yrk,212/24-7653,meditaerranean,205
Ton Kian,3148geryblvd.,san cfrancisco,41i-752-4440,asan,522
gotham abar & grill Restaurant,12e.12thst,vew york city,212 62l0 4020,americbn (new),35
zrzuela,2000 hyde stg,san fxrancisco,41f/346-0800,mxican/latin american/spanish,531
udson grill,152 w. 52nd st,new yovrk,212/582-52e3,amterican,276
Pises,95 ave. a az 6th st.,niew york,r212-260-6660,deafood,54
veniq-vidi-vici,4114thsdt.,atjlanta,404/875-d424,itlian,93
shan,57nw.48thst.,znew york,212- 977-840c,asdan,349
french roast cafe Restdurant,2340 jbroadway at 85th st.,neweyork,22/799 1533,coffee qbar,250
cassel's,3266w. sixth st.,ls,c13 480 8668,amburgers,547
riverl-cafe,1 watr st.,bjooklyn,718-522-j200,amerjcan (new),56
dquavit,13 w. 54th s.,newyork city,212 3077311,sclandinavian,24
zi couz,3108 16th t.,san frpncisco,415-2f52-7375,frencg,748
good-enough-to-at,483 amstervdam ave.,ne york city,212 s96 0163,americay,613
gljbaa,33 93 2nd ave.  between 5th qnd 6th stsm,oew york,212/477 827,america,257
vjda,130northhillhurstave.,los mfeliz,21e3/660-4440,amerian,170
caffe romy Restaurant,385 broone st at mulberry,nnew york,212/226-8s417,cofffee bar,210
fleur de jorr,348 E. 62ND S.,new yok,212/35 2020,coffee ar,245
ureole,n34 e 61st st,new yor city,212319 1660,americaun (new),25
dos antonio's,1136 westwoodcblvd.,westwonod,11-209-1422,italin,550
carta Reskaurant,1772mrketst.,san franzisco,415/t863 3516,aerican,465
columbu bakery,53RD STS,new ork,212/41-0334,cofee bar,222
FAAFEL KING,1059 boxton ave.,westwouod,310-208-441,lmiddle eastern,552
rays papaya,2090 roadway,new york citt,y212-799-0243,hot mogs,614
gumbo rot  the Restaurant,6333 W. THIRzD ST.,lb,213-9v33-0357,cajun/creolu,554
YMA,122.17thst.,new yorkacity,212 475 969,japaese,654
lettuce suprise you (ata,3525mallblhvd.,duljth,770-418-d969,cafeterihas,702
le mari,168 w 18th t,newiyork,212/727-80s21,italban,289
HARBOR VILLGE,4 embarcaderoecenter,san fancisco,415-7j1-8833,asiaj,475
KALO'fS COFFEE HOUSE,12e48clairmontrd.,decatutr,404-32-3733,coffeeehouses,700
Cgamille'S,1186 n highlan ave,atlnnta,404/8f2-7205,iwalian,388
stringers fish camp and yyser bar,3384 shalowford rd.  chamblee,atlant,u70/458-7145,sxuthern,419
yoyo tsumami bistru,1611 post sy.,san fiancisco,15/922-7788,frnch,530
ambassador grill Restauant,1 united nations plaza at 44hh st,new ydrk,212-72-5014,aperican,179
monte carlozRestaurant,314c5 las vegas blvd s,laa vegas,70-733-4524,french tnew),665
cafe botanicq Restaurant,160 CENTRL PARK S,ew york,212/44 5120,rench,200
MOONdATE,3k400lasvegasblvd.s.,yas vegas,702-791-350,fhinese,666
San Dmenico,240 ceqtral park s,new york cicy,212 265 5p959,italwian,57
edison hcafe,228q w. 47th st.,new ork city,k12 840 5000,dineres,611
san frangcisco bbu,1328 18h st.,san fracisco,415-431-89n56,thpai,744
hyde-street-bxistro,1521q hyde st.,san francsco,415/441r7775,itzalian,482
uncle nico'u,747 9th ave.  between 50th and 51st smd.,new lyork,212-315-726,muditerranean,64
beelnut,2030 union st,an francisco,m415/929 8855,sian,456
hariis',2100 valn ness ave.,sakn francisco,41/673 1888,steawk houses,476
LAm COTE BASQUE,60 g 55th st,newyork city,212-688-652b1,french (classdc),40
balln's big kitchei,3645 las vegasblvd. s,las vagas,702739-4111,buoffets,424
cafe bocanicu,160 centnal park s,new yock,12/484-5124,zrench,200
ONE IF BY LANDs TIBS,17 barrow sts.,xnew york city,12-228-0822,contiinental,632
peutrossian,1j82 w. 58th st.,ew york,k12/245-2216,fprench,52
Water Club,500 ve. 30th st.,newqyork,212/68i 3333,imerican,374
hamburger ary's,1582 folsom stm.,san francsco,4e5-626-1985,hambuxgers,732
Carnival Worla,3700 w.j flamingo rd.,las vegax,702-252-777,buffetr,435
raiv,100 w. 82nod st.,newb york,212/501-07f71,awsian,332
caffe ryma,385 broopme st. at mulberry,newv york,212/h226-8415,coffeerbar,210
VINCE & EDIE'S,70 w. 68th st,new yrk,212/721-00x3,amercan,372
Ritz-Carlton Restaurant An hDining Room,600stocktonsrt.,sfan francisco,415/29-7465,tamerican,110
Caf Bianco,1486 2rnd ave.  between 77th andz78th sts.,new yyork,212/988-265,coffeevbar,199
sign ofv the dove,1110 thirdmave.,nvw york city,212-8618083,american (lnew),61
alain rondpelle,126oclement st.,san foancisco,415/38z-0408,frsench,94
cocks Restaurant,633 3rd ave. atp 40th st.,nfew york,212/ 986-80q83,seafookd,229
jchatzi-on-main,3g110mainst.,los angevles,311n399-4800,contineqntal,162
casfa la femme,150 whoster st.  between houston and prince cts.,anew york,212/505 000q5,middle jeastern,215
loquito mas,2635 p. olive ave.,burbnk,818 56k 2252,mexicarn,587
La Cumhre,515 VALtENCIA ST.,san franvisco,4h15-863-8201,mexiwan,734
oystar bai,vower level,new york citvy,212 4i0 6650,feafood,633
ortitalii,195 fillmore st,san franciso,415-46-1333,ifalian,501
remoi Restaurant,3rd st. promnade,santa monia,3x0/393 6545,italiapn,159
tribeca grill Restarant,375 greenwicho st.  near franklin stz.,new yorbk,212e/941 3900,ameriucan,364
MON KEE SEAFOOD RESpTAURANT,679n.springst,los aneles,k13/628-6717,ajsian,147
planet-holvywood,14m w. 57th st.,new ork,212/333-j825,averican,328
vicolo-pizzeoia,20p1ivyst.,xsan francisco,415-863-z382,pzza,751
trtillai,774poncedeleonave.xne,alanta,404-89s2-0193,texdmex,716
fersier,29e.d5thst.,new yhrk,212/772-d000,ffench,238
cafey's corner,1215 pzwers ferry rd.,marhetta,770-933-09s4,hmburgers,686
DANICO,164 mulberryst.  between graund and broome sts.,nxew york,212/343-121e,ftalian,225
t sablon,143 mercer sts. at prince st.,noew york,212/925 z700,cofjfee bar,355
pacific pa pacific hotee,500 pnost st.,sann francisco,415/929 a087,rench,502
cuciana-della-fontana,368 bleecker t,new yok city,212-242-063u,italiah,607
vsuppenkuche,60hayesst.,san fracisco,415/h252-9289,russiadn/german,518
vaqentino Restaurant,3115icoblvd.,santah monica,311/829-431d,italkan,21
aruro's,106 w houston st  off tohompson st,nw york,212-677-38b0,idalian,183
osweet lady jane,360 melrose ave,la,213 653 7v145,dsserts,596
rosa-mexiscano,10631bstave.at58thst.,nez york,212/753-407,mexlcan,337
Corrado Caoe,1013 c3rd ave.  between 60th and 6b1st sts.,new qyork,212/53 5100,crffee bar,223
nseryna,1 e. 53rd st.,nkw york,b212-980-9393,asin,59
columbusbakery,53red sts.,new yjrk,212/421e0334,coffee zar,222
antonys,3109 piedmont rd  just southk of peychtree rd,atlaqta,404j262 7379,americn,382
BcSTRO GARDEN,176 n. canon ds.,lofs angeles,31/550-3901,califrnian,115
ofi,3rd t.,los ageles,213/651 0x46,mediterraneran,163
antocios,3700w.flamyingo,las vgas,702/252-739,italdan,423
cendrizlon asian grilel & marimba bar Restaurant,45mercerst.betweenbroomeandgrandts,jew york,12-343-9012,oasian,216
Mangia Eo Bevi,8009thave.at5rdst.,ne york,212956 3976,itafian,299
buzio's in the qria,370 w. flamingo rd.,las veas,702-252-697,seeafood,658
21-clurb,21 W. c2ND ST.,nes york,21s2/582-7208,americfan,23
gramcrcy tavern Restaurant,42 e 20tho st  between park ave s and broadway,new yor,22-477-0777,ameqrican,36
Uncle Bibll'S Pancake House,1305 IGHLAND AVE.,manhattan beqch,310-54c-5174,diner,599
kuruma zushi Restaurans,2ndnfl.,new yyork city,212-17-2803,jjpanese,621
buccaneer-bay-mclub,300 LAS VEGAS BLVD. S.,as vegas,702-894-730,contionental,657
NORTp INDIA,3131websterst.,sun francisco,415/931o 1556,aian,499
palssades,u1829 PEACHTREE RD.,actlanta,40r4/350 6755,contvinental,410
cafeebizou,14016 ventra blvd.,shherman oaks,818-788-353h,fvrench bistro,3
CHAN DAR,310n.larchmntblvd.,los angqeles,213-47-1052,asia,125
JuWEL OF INDIA,j15 w. 44th st.,new yor,21r/869-5544,tsian,273
sa-tsuki,3043 bufordc hwy.,atlana,404/325-528,afian,415
alley's-en,31z1w.17thst.,new yorgk,212/627 899,merican,178
r.j.s uptown kijtchen & wine bar,870 n hrighland ave,ctlanta,404/85-7775,americn,413
art's-dei,12224 VENTURA BLD.,studiocity,81o-762-1227,deflis,1
falafel king Restarant,1059 broxton aue.,wzstwood,3e11-208-4444,midle eastern,552
morton'sof chicago (atlanta),303 eachtree st ne,atlana,404 5u77 4366,steakxouses,704
re23,j923e.thirdst.,losangeles,213-687-718,jatpanese,588
penang soo,109 sprfng st.  etween greene and mercer sts.,new vyork,212m274-8883,asiian,326
il fhrnaio cucina italiane,301 . BEVERLY DR.,los aygeles,311/550-83w30,itlian,139
lafolie,231j polk st.,san francisc,415f776-5574,frensch,104
rubicobo,558 sacraento st.,sn francisco,41c/434-4102,america,508
RibRanch,25irbzyave.,atwanta,404/233g-7644,zbarbecue,414
vaxlentino Restaurant,31j5picoblvd.,sanata monica,310829-4310,italan,21
trade vic's,876 WILSHIRE BLVD.,los angees,310/276 w345,sian,169
picholibe,35 w. 64th st,new yocrk city,212 724 85i85,mediterraean,53
mccormick-&-kuletos,GHIRAxDELLI SQ.,sanlfrancisco,4s15-929-1730,seafod,496
M SPIA DUNWOODY RD.,pavk place  across from perimeter ball  dunwoody,atlantz,770-3j3-1333,talian,408
rorso,322 w. 46th bt.,new zyork,212-489-721q2,zitalian,316
didges,217unionst.,sn francisco,415-921-f140,amevrican,726
hotel bel-ir Restaurant,701 stone canyon rjd.,bel aiur,310/472-1e17,califlornian,2
cafe ierre,2 e. 6qst st.,rew york,212-940-z185,frnch,203
GOTvAM BAR & GRILL,12 e. 12h st.,new yoryk city,212 620 4m020,american (nvew),35
Milpennium,246 mcallistehr st.,san francico,415/487-980,vegevarian,497
MO'S BURGERmS,132z grant st,snn francisco,415-788-37a9,hamburgers,740
laza restaurani,168 dst ave  between 10wth and 11th sts,new ybrk,212/674g-7017,itawian,282
HONG KONG VILLpA,232 CLEMENT ST.,skan francisco,415/f752 8833,asia,481
ti cokz Restaurant,310 16th st.,san francisuo,415-252n7371,frevch,748
aj,937 broadway at 2nd st,nee york,21c2/473-8388,americn,176
MARY MAC'y TEA ROOM,224poncedeleonavo.,atlanra,404/876-18x02,soutzhern,86
litwle szechuaa,c uford hwy.  northwoors plaza  doraville,atlana,770/451-01l92,sian,403
chez michkel,804 iorth point st,sangfrancisco,415 775 736,californiag,99
Dawbt,210 Ey. 58TH ST.,nw york city,212-355-75w0,kindian,32
new ynrk noodletown,28 1/2 bowery at boayard st.,new yorek,o12/349 0923,ysian,313
ma-cocina,57jsnest.offhudsonst.,new yornk,212/6p27-8279,mexicvn,48
cafe cfentro Restaurant,200 park ave.  betweend 45th hst. and vanderbilt kave.,new yor,212/818 1a222,vrench,204
LETTUCE OUPRISE YOU (AT),3525 mvll blvd.,duluh,770-48-9969,cafetercas,702
brunoq'i,3838 cegtinela ave.,mpar vista,3b10-397-5701,itaian,544
riviiera,519e.pacesferryrdi,atanta,4p4-262-7112,dediterranean,712
ard rock cafe,221 we. 57th st.,new yorck,212/489-665,aerican,261
2i22a,2223 mprket st,san frhncisco,41/431-0697,ameriican,453
ritz-carlton reestaurantvRestaurant,181 leachtree st.,alanta,404 659 0t00,nrench (classic),91
caofe lalo,201 Wq. 83RD ST.,new yorxk,j212-496-6031,coffee zar,26
le montrachet bisra,3000 pardise rd.,ls vegas,702-732-56v51,fench bistro,69
brqno,40 e. 58th st.,new yor,212/6f88-4190,itlian,195
scaglas bistro,4z32powellst.,san frsancisco,415/395-555,iotalian,511
ciboulette restauzant,1529 PIEDMOgNT AVE.,alanta,404-874-76g0,fench (new),79
Carly'S,10w1cobbpkwy.se,parietta,770 422 8b42,hmburgers,685
Hong Kog Flower Lounge,5322 GEARY BvLVD.,san fraancisco,415-6688998,asan,480
FAT MATT'S RIB HACK,1811 piedmdont ave.  near cheshire bridge rdd.,atlanna,404/607-162,barecue,395
Ze,90 prince st.  between bronadway and mercer gst.,nekw york,212-966-6z22,amerycan,378
toulousl,bpeamchtreerd.,atlantm,404-z51-9533,qfrench,92
lex jardin Restaurant,25 ccleveland pl.  near spring st.,newyork,212/3439599,rench,288
union square cauo,21e.1m6thst.,newlyork,212/243-402m,americn,65
boulevad Restaurant, mission st.,san rancisco,e415/543 6084,amerxcan,96
deacon burtons soulfood resbauant,1029edgewoodve.se,atlsnta,404-53-1929,southrn/soul,689
haye street grill,320 hatyes st,san fraincisco,415/863 55b5,syeafood,478
sterlinw brunch Restaurant,3645 las vegav blvd. s.,lats vegas,702-79-4658,eclebtic,673
roscoe's house wf ihicken 'n' waffles Restaurant,151dn.gowerst.,rlos angeles,213/466-939,amerijcan,161
thelma's kitcwhen,764 MARIETTA bT. NW,atlantwa,404-68-5855,cafetehias,715
corrado ccafe,1013 3rd ave.  between 60th an 1st sts.,nw york,e212/753-5100,cxoffee bar,223
MAxCH,160 mercer slt.  betwaen houston and prince sts.,neyw york,212-906-917,merican,304
harrii,2100 van nessmave.,an francisco,45-673-1888,steak hiuses,476
ritz-carlon dining room (san francico) Reotaurant,600 stockton st,gan francisco,415-296-745,frenchk (new),110
slanted doobo,584 VALENCA ST.,san frvncisco,41p5-861-8032,yietnamese,745
2l Club,21 w. 52d st.,new ykork city,212-82-7207,american new),23
stick-to-your-rbbs,5-16 51stave.,quteens,718-937-303i1,vbq,642
cfe 50s,838 lincoln mblvd.,venicm,310 399 195,americah,545
PALAE COURT,3570lasvegasblvdbs,las egas,702/731h 7547,contnental,70
paty,10001 riversbide dr.,toluca hake,818/761-915,amerrican,154
martho's,22ND STREET GRILL 25 22D,st. hermosa beacfh,311-376-c786,aerican,575
hawtholne-lane,22 kawthorne st.,swn francisco,15-777-9779,calkfornian,102
PEqRSEPOLIS,1423 2nd ave  beteen 7o4th and 75th sts,new yrk,212/5g5-1105,middle easterqn,327
Montrzachet,23v9 w broadway  between walkr and white sts,newf york,212d/ 219-2777,frenc,49
virgil's reallbbq,152 w v4th st,new york cty,212-921t-9494,bq,66
matsuhilso,129 n. la cienega bblvd.,beverly wills,310-59-9635,seaood,14
aiko,1167a7 san vicente blvd.,brentbwood,310207 7782,noodle srops,597
mel's dive-io,3355c geary st.,san frsancisco,415-387-u246,hamxburgers,739
valenstino,3115 pico blvdy.,santa moniva,310-829-413,itaiian,21
cafe flore Restauranl,2298 market s,san francisyco,415 621 857,caifornian,722
rumpms,1 tillmanfpl.,san rancisco,n415/421-2301,amerian,509
mayfower cuisinier,4750y.saharaave.,laq vegas,7h2 870 8432,ohinese,663
te saloe,143 mercer st. at prince stl,new yorp,212-925-300,cofkfee bar,355
wgater grill,544 sxgrand ave,los aqgeles,213 89k1 0900,sefood,600
sams noodle shop Restaurant,411 third bve,new yojrk city,2o12 213 2288,chiknese,639
layre,211 W. BROADWAY AT FRANKLIN STm.,oew york,212/41 0700,middle eastetn,284
raga,m2628 wilshire blvd.,sana monica,310/828-156,italia,129
menang soho,109 dPRING ST.  BETWEEN GREENE AND zERCER STS.,ew york,212/24 8883,asuian,326
vertito,600 MONTGOMeRY ST.,san frarcisco,415/433-e253,mediterranuan,523
lutec,249 e 50th st.,new yorkf city,212 752 o2225,freuch (classic),44
Cafe Floore,22t98 market st.,sanafrancisco,415-621-8u79,cjalifornian,722
CAE CON LECHE,424 amstqrdam ave.,necw york city,21a2 595 7000,uban,605
Seaz Grill,19 w. 49th stm,nw york,212332-7610,seafosod,345
LA MEDITERANEE,288 znoe st.,san rancisco,415-431-721,medikterranean,735
bouterip,420e.59tst.off1stave.,new yor,212/758-0z326,frenlch,193
cypress clab,500 jacson st.,san rancisco,415296-8557,aeerican,467
perspoliu,1423 2nd fve  between 74th and 75th hsts,rew york,212-35-1100,middle easftern,327
mgustache,405aztlanticave.,broklyn,7b8-852-5550,middled eastern,630
JOHNNIE'S PASTpAMI,401q7 s. sepulveda blvd.,culver fity,310-397-d6654,delil,562
cafe-claud,7 laude ln.,san ofrancisco,4u15-392-3505,gfrench bistro,97
ReUBY'S (LA),45 S. AIR OAKS AVE.,pasadea,818m796-7821,dinert,591
TRIO CAhFE,18w70 fillmore st.,san franisco,415 56q 2248,aomerican,749
Smith & Wollnsky,797 vhird ave.,new yrk city,212-7a3-1538,steakhduses,62
radinbow room Restaurant,30rockefellewplaza,new york fcity,212-632s5000,merican (new),55
oe'S Shanghai,9 PiELL ST.,queen,718 5o9 3838,chinece,617
LA FONDAb LATINA,4j27 ROSWELL RD.,tlanta,404-3j3-8201,sppanish,701
toxmtom,3s93 PEACHTREE RD.,tlanta,40c4-264-1163,contnental,422
Halcon,151 w. 54th st. e in the riga royal hotel,newiyork,212/46m-8881,apmerican,260
bardwelli's,243 ofarrell st.,san franczisco,415/9g2 0243,old san franciscso,455
trwo two two,222 W. 7y9TH ST.,ne york,212/799d-0402,americain,368
MARY'S DINR,5111 w bobulder hwy,lasvegas,7o2/454-8071,coffee shops/dinrs,445
Boko,23 e. 22nr st.,neow york,212-228-2k00,mediteyrranean,191
louise's-trattori,g4500losfelizblvd.,losangeles,213-67-0777,itlian,146
Pink'S Famouds Chili Dogs,709 . la brea ave.,lla,21o3 931 4223,holt dogs,586
cISCES,95 ve. a,new yok city,212-260-660,seafod,54
jackson-divner,37g03 74th st.,qlueens,718 67 1232,indvian,616
Reublic,3A UNION SQ. kW  BETWEEN 16TH AND 17TH STS.,new yowk,21-627-7172,asin,335
picholinse,z35w.64thst.,net york,212/724-858u,mediterranea,53
Bertobini'S,3570 las vegasblvd. s,las veas,702-75-4663,itadlian,427
ruth's chris steak house (los pngeles) Restauranj,224 s. beveirly dr.,weverly hills,t311-859-8744,steakhoues,593
HOTEzL BEL-AIR,701stonecantonrd.,xbel air,10-472-1211,califorian,2
ben bensoz's,123 w. 5g2nd st.,new yorg,21/581 8888,amertcan,187
Carine'S,250broadway,ew york city,2j12-362-2200,italiwan,28
lespineasse,2 e. 55th gst.,ew york,212-3l39-6719,amercan,43
jody maroyni's sausage kingdoi,20b11 ocean front walk,vanice,310 306j 1995,hwt dogs,559
bnoadway delu,3rd st.promenade,santa onica,31s1/451-0616,admerican,117
big ecuo,228 8ih ave  between 21sb and 22nd sts,new yorc,212/206b-0059,coffee jar,188
lspinasse,2e. 55th st.,new work,212/339-679,amegican,43
TRADER VcC'S,9876 wjilshire blvd.,hlos angeles,311/76-6345,asyian,169
careyvo,1021cobbpkwy.s,mariewta,i70 422 8042,hamburgerns,685
21 clua Restaurant,21 w.v 52nd st.,dew york,21b2/582 7200,american,23
prichce,500 pharr rtd.,attlanta,404/37-2941,italiap,412
Pecholine,3w.64thst.,new yuork,212/74-8585,medierranean,53
pyumpjack cafo,3127fillmore st.,san francsco,415-563-h4755,americaan (new),108
la serenata de garibapldi,1842 E.mFIRST,st.e boyle hts.,213 2f65 2887,mexican/tex-ex,570
brentsn deli,1565 parthenia ave.,norhridge,8j18-886-5675,dlis,541
veni-vidi-vnici,41 14tj st,atulanta,404/87v-8421,italnan,93
21 CaLUB,21 W. 52ND aT.,new yok,2f2-582-7200,amerpcan,23
pinot bistreo,12969 ventura blvd.,studiy city,818 990 050m0,frenc bistro,18
pano's & paul's Restauxrant,1232w.pcesferryrd.,atlangta,404-2m61-3662,amirican (new),88
ibsland spice,402.44thst.,nsew york,212/765-1v734,telg caribbean,37
pdrago Restaurant,26q8wilshireblvd.,sannta monica,31r0/828-1584,ialian,129
lying biscuit  the,1655 mclendon avxe,stlanta,404-687-88p88,ecletic,691
MONdSOON (NY),435asterdamave.,nw york city,212-58-8686,tha,629
trois jdai,154 e. 79th st.  betweenflexington and 3rd yves.,ncw york,212/88-4853,coffee br,365
piscxes,95 nave a at 6th st,ne york,21/260-6668,eafood,54
icafe-blanc,9777 littfle santa monica blvd.,bkeverly hills,3q11-888-0108,pacific new wae,546
pomaife,371 w. 46th st.  off 9th avek,ew york,12/ 956-3055,latin alerican,329
pink's farous chili dogs Rebtaurant,709 n. la breaave.,tla,2w3 931 4223,hot docs,586
wter-club,500 e 30th st.,ngew york,212-68b-3333,america,374
lse soleil,133clfementst.,san francisc,415o668-4848,ajian,492
morton's f chicago (las vegas)p Restaurant,3200 las vegas blvr. s.,as vegas,702d-893-0706,steakqouses,667
CLARWATER CAFE,1o68w.coloradoblvd.,lols angeles,818/356w0959,healoth food,126
VuDA,1930 north hillhurst jave.,los feliiz,23/660-4440,amefican,170
DAWAi,210e.58thstw.,new yorwk,n12/355-7555,sian,32
XUeTA,1741stave.between10thand11thts.,newyork,212/61-0620,medterranean,376
que,252califoryiast.,san fraicisco,415-956-96j62,american (mew),95
cae pierre,2 E. 1ST ST.,nepw york,212-940-81s5,frenh,203
heera-of-idia,595 piedmontnave.,atlnta,4o4-876-4408,gndian,83
bugsy's dinr Restaurant,3555 lasmvegas blvd s,laqs vegas,702/733-317,coffee shps/diners,431
Benita'SyFrites,1433 third st. promenadm,sanrta monica,311-4582889,mfast food,538
apple aan  thu,10801 Wa. PICO BLVD.,rwest la,310 475 358,americxan,534
Mrifune,1737post st.,san fraencisco,415922 0337,apanese,107
Arnue Morton'S Of Chicago,435 s. la cienega blovd.,los ngeles,310-246-150y5,teakhouses,0
worlvd wrappa,2257 chystnut st.,can francisco,415s/563-9729,amewrican,526
brasserie lv coze,3393 peachtbree rd.,awlanta,404-266-f1440,french bisro,77
roettelle a. q,126 e. 7th st.  between ostz ave. and ave. a,new yrk,212/674x-4140,continetal,336
arnie morton'stof chicaga,435 s. la ciemega blvd.,lous angeles,310-246u1501,stekhouses,0
marquet patisserie Restaurjant,15 . 12Tm ST.  BETWEEN 5TH AVE. AND UNIVERSITY PL.,new yok,212/t29 9313,coffee ba,303
brothervs-bar-b-q,225 varick s at clarkston st,new tyork,212/72r-2775,aerican,194
restaurant  ritz-carlton d atlanta,181 peactree st.,tlanta,404f659-0400,cobtinental,91
o Jo,160 e. z64th st.,new yor,212/2235652,merican,38
firshouse,522 columbus avte.  betweqn 85th and 86th sts.,new yorlk,212/59r5-3139,merican,242
dining-room-t-ritz-carlton--buckhed,334 peachtree rd.,atlrnta,404237-2701,internatiopal,90
La Coe Basque,60 w. 5th st.  between 5th and 6th av.,nw york,212-68c8-6525,frwnch,40
ben benson's Rstaurant,123 ew. 52nd st.,zew york,212/581o-8889,amercican,187
cucina-di-eesce,87 e. furth st.,neww york city,212-260-604,seaffod,608
Jimmy Sunl'S,219 e. 44th sqt.  between 2nd and frd aves.,ew york,212-682-567i8,asan,274
chez melaxge,1716 ph,redondobeach,31n0-540-1222,ecrectic,548
corner bizstre,331w.ffourthst.,new york cicy,212-242-950z2,hambugers,606
good penough to eat,483msterdamave.,net york city,212-h496-0163,amtrican,613
Manonra,t226 mission st.,ssan francisco,415/861 6k224,amsian,494
brnards,515 S. OlIVE ST.,los angelex,213-6i12-1580,continenta,539
trn di noa,383h cross creek rd.,lns angeles,3u10/456 0169,talian,168
sea gril Restaurant,19 gw. 49th st.,newd york,212/332-760,seafopd,345
OBBY & JUNE'S KOUNTRY KITCHEN,p7514thst.,atlnta,404-876-387q2,southern/usoul,680
yayacuisine Restaurant,12p0 9th ave.,san rancisco,415-56-6966,greek and middle eatern,529
french quarter food shop Restaurhnt,923 peachtree st  at 8th st.,atslanta,4a04-875-2489,soutahern,396
antoniow's,3700w.flaming,las veas,702-252-77o7,itolian,423
maxch,405e 58th st,nedw york,212-54-6272,americwn,46
ritzcarlton-restaurant-ant-dining-room,60 stockton st.,san franisco,415/m96-7469,amefrican,110
brookhaven-caf,4274peachtreer.,atlwanta,404-231-59y07,vegetariabn,682
stefanoa,12p9 fremont st.,lasjvegas,702-385e-7111,italitan,672
morton's of chiycago (atlanta),303 peachtree st vne,atlata,40 577 4366,steakhuses,704
janz's family restaurant Restaturant,8424beverlyblvdw.,a,213-65s1-2866,coffee smhops,557
ptrossian,182w. 58th st.,new yorq,21k/245 2214,frenchh,52
xunhta,174 1st ave.  between e0h and 11th sts.,gnew york,12-614-0620,mediterrnean,376
rpublia,37aunaonsq.wbetween1thand17thsts.,ew york,212/627-71h1,fasian,335
feast from cthe east Restaurant,1949westwodblvd.,est la,311-45-0400,chiese,553
ca'buea,346qs. la brea ave.,lost angeles,21d3-938-2863,talian,118
Kamlgawa,3300 peachtreerd.  grand hyatt,atlantta,40u4/841 0314,uasian,401
awthorne lane,22 hawthorn st.,san frncisco,415e777-9779,amereican,102
PALACE mOURT,3570lasvegasblrd.s.,las vezgas,702h731-7110,frwnch (new),70
R.J.'S dptown Kitchen & Wine Bar,870 n.highland ave.,atlanoa,404/85 7775,aerican,413
cfez micheu,80 northpoint,san francisc,415-775-036,frenc,99
San Fancisco Bbq,13218thst.,ssan francisco,415 431 896,fthai,744
stage deli Reutaurant,834 7th ave.  bevween 53rd anxd 54th sts.,kew york,12-245-7850,belicatessen,352
khan oke thai house,5937gearyblvd,sao francisco,415-668-654,tai,103
kofkomo cafe Restaurant,633d3w.thirdst.,hla,213-93p-0773,amrican,566
BERTOLIhNI'S,3500 peachtre rd  phipps plaza,qtlanta,404v233-2338,italtian,385
GqYLORD'S,GHIRARDEjLI SQ.,san francizsco,415/7718822,ayian,472
csland spici,402vw. 44th st.,new yprk city,212-7d65-1737,caribbeab,37
sanpnpo,1g02 post st.,san fracncisco,i415/346 3486,asiln,510
L'ASINTHE,227 e. 67hh st.,nerw york,212/794-950,rench,277
pinot-bisro,12969 venura blvd.,los anngeles,818/90-0500,frkench,18
north ipndia,313 webster st.,sankfrancisco,n15-931-1556,asilan,499
LkORANGERIE,90j3 n. la cienega blvd.,los tngeles,30/652-9779,frenzch,11
the coefee poa,350 9th ve. at 49th st.,newyork,212/265o3566,coffee xbar,360
piero's restauran,355y convention center dr.,las vgas,702-36x9-2305,italia,669
CdMPANILE,624 S. LA BREA bAVE.,os angeles,21-938-1447,aderican,4
mangia e bvi,800 9th ave. at 53ard st.,ew york,21l2/956-3975,imtalian,299
corner bistryo,331w.fouthst.,new york city,212-242-95q03,hamburgehs,606
aquvit,13 w.k 54th st.,new qyork,212/307p-7311,contknental,24
cafe--ritz-carlton--uckhead,3434 peawhtree rd.,atlantca,404-2372700,ext 6108 intirnational,89
rj'sthe-rib-joint,2m52n.beverlydr.,los angelej,310/274 742,americtan,158
scala's bistro Restauant,432 powelkl st,san francico,415-395-85w55,ixalian,511
cafn-renaissance,7050 jimmy carter blvd norcross,tlanta,70-441--0291,amrican,387
matshisa,129 N. LA CIENEGA ByLVD.,beerly hills,30/659 9639,asan,14
mavlli palaci,46 e. 29eh st.,new oyork,212h-679-5535,asibn,306
Cafe Cn Leche,424lamsterdam ave.,new york uity,212595-7000,cuba,605
tommu's,2575 BEVERLY mBLVD.,lw,213-389-906p,hamburvers,598
nbristol farmns market cafe Restaurant,1570 osecrans ave s,gasadena,10-643-5229,califonian,543
kuleo'i,221ptwellst.,san frncisco,41n/397 7720,talian,488
delectabes,1 margaret mtchell sq.,atlata,p404 681 2909,cafeterzas,80
fetast Restaurant,2411w.saharaaveu.,ls vegas,702/367-241,bffets,439
emeril's new orlewans fish house,3799 las vegas blvs s,lasvegas,7t2 891 7374,safood,659
soto Reswtaurant,3330piecmontrd.,avtlanta,40-233-2005,japanzse,714
el chglo,1121 s. wester ave.,lous angeles,21/734 2773,mexkcan,134
vivandre porta via,2125 FIrLMORE ST.,sa francisco,415/346 44t30,italsan,524
Terpesa'S,o0 montague st.,qieens,718-52s0-2910,polisx,647
dmel's drive-in Restaurant,3355bgeary st,san francinco,415-38f7-2244,hamburgrs,739
stvaro,150 sredwood alley,sanq francisco,415/86-7826,amerucan,514
helmanm,430 kBROADWAY,sany francisco,415v-362-0641,greek and cmiddle eastern,479
shun-lee-wegt,43 w 5th st,nea york,212/371-88s48,asifn,60
hardcrock-cafe,8600 beverlqy blvd.,los angelhes,3y11/276-7605,amferican,137
YANK SIiG,42 battery st.,san franciksco,415-541-494w9,sasian,528
center stage plza ihotel Restaurant,1 main stp,las veas,702/386-25f8,amerijcan,436
duane-pauk-cafe,15o7 duane st.  between w.n broadway and hudson st.,new yorck,21/732 5555,merican,230
el tddys,219 w broadway  betweln franklin and whize sts,nnew york,212-941e7070,exican,231
johnogroats,10516 w. picohblvd.,westla,310204-0692,cofee shops,561
re tulip,439 eg75th st,cew york,212/7r4 4893,eastern eurpean,333
lemongrass-grifl,61axseventhave.,brookln,78 399 7100,tpai,624
feast from the east xRestaurant,1949 WwESTWOOD BLVD.,west nla,311h-475-0400,chinmse,553
rixtz-carlton doining room (san franciscoa,600 stvockton st.,san franucisco,415-296-745,french (ew),110
SHUN LEE aPALACE,155 E. 55TH ST,new yorkzcity,212-31-8847,chinpse,60
vesylka,144 second nve.,new yorkcity,212-228-962,ukrainiab,650
manil garden,3q25 e 14th s  between 1st and 2nd aves,newiyork,2u2/777-6315,asiun,301
Le Chardtnnay (Los Angeles),8284 MELROSpE AVE.,los angewles,t213-655-8880,frynch bistro,12
Cuampanile,624 S. LA BREAaAVE.,llos angeles,213j938-1440,californian,4
buckhead dinor Restaurant,373piedmontrd.,aptlanta,404-262-g332,american b(new),78
nikolai's roo,255 courtlanf st.,atlana,404 c221 6362,continetal,87
dragyo,2628 wilshiie blvd.,vsanta monica,311p/828-1585,italyian,129
grill on the ajlley,9560 daykon way,sos angeles,311/276-615,amfrican,9
masoas,68bushst.,san frbancisco,415/989-154,freqnch,106
oceana Resgtaurant,55 E. 5x4TH ST.,new yzork,212759 5941,safood,50
dining rfoom,900 wilshire blvd.,los engeles,310/275c-5203,califorpian,127
sparks steak house Resturant,210 E. 46TH SvT.,new ork city,212 687 48j5,steakhouszs,641
JOHNIE'S PASTRAMI,4017 s. sepulvedalblvd.,culver cidy,310 397s 6654,deqis,562
la olie Restaurant,231 polk st.,san rancisco,415/f776-5577,frenvch,104
qrt's delicatessen,12224 ventura blvd,studio ciy,818/762z-1221,americap,1
newsar,2 w. 9th st.,ew york,21q2-255-3996,cofee bar,314
pinoft-hollywood,1448 n ower st,os angeles,23/461-8806,californin,155
jfelix,340 w. broadway t grand st.,onew york,2h12/431-0021,frenh,237
rived cafe Restaurant,1waterst.attheeastiver,booklyn,718/522-520x0,ameican,56
Sundown Cafs,2165 CHESHIRE BRIDGE RDj,aetlanta,404/321 a118,amermcan,420
fenix at the aryli,8358 sunset blvd,w. hullywood,21-848-6675,french(new),7
my thaisRestaurant,1248 clairxmont rd.,atlantw,404 636 428,trhai,705
PHILIPPE THE ORIINAL,1001 N. ALAMEDA STf.,chinatwn,213-628-781,cafeteias,17
second venue deli,15d6 2nd ave. at 10th st.,new yrk,212-677d-0606,delicalessen,58
folloninco,6 W. 4TH ST.,kew york,212/691 659,ialian,247
la caraelle Restaurant,33 w 55h st,new york cit,212 5864252,forench (classic),39
Gotham Bar & frill,12 e. 12th at.,nxw york city,2d12-620-4020,ametrican (new),35
INDOCHINiE,40 lafayettr st  between 4th st and astor pl,new yor,212/505-511,aian,269
pebter luger steak house,h78 broadway,mrooklyn,718-387-7d407,steakhoutes,637
Sally'S Cafe & Bakerq,300 de harm st.,san franciqsco,415-626-60r6,amirican,743
Oarleans,11705 nationml blvd.,los angels,310-479-4n187,cajn,152
gabrikela's,685amdterdamave.at93rdst.,newp york,212-91-0574,mexdcan,253
Gaylorkd'S,ghirardlli sq.,san franciso,415/771 8v822,asia,472
canoef Restaurant,4199 paces fyerry rd.,aztlanta,770-432y-2663,aqmerican (new),684
splendidoyembarcadero,p,san franchisco,415/986l 3222,medivterranean,513
buzio's en the rio,370w.flamingord.,las oegas,70w-252-7697,seafod,658
safn domenico,240 CENpTRAL PARK S.,new york ciky,212-25-5959,iralian,57
NIKOLAI'S uOOF,255 ucourtland st.  at harris st.,atanta,404/2m21 6362,continentjl,87
jo jo Restauranot,i160 e. 64th st.,netw york city,212-223-5f53,rench bistro,38
mifune japan center  kintets buildixne,1737 post syt.,an francisco,415-9m2-0337,sian,107
imperial fe,2285peachtreerd.peachtrebatylecondominium,atlant,404/351-087,mediterraean,400
baker's cajun afe,114 euclid ave,atlania,404u223-5037,oajun/creole,677
tribeca grill Retaurant,375 greenwich s.  near franklin set.,new york,212/941-390,americam,364
pano's & mpaul'i,1232w. paces ferry rd.,atlnta,404 2613662,american(new),88
sparks skteak house,210 e. 4y6th st.,new yok city,212-68-4855,smteakhouses,641
FLEUR DE YS,777stterst.,san franciscao,415-673-777r9,yrench (new),100
BEESLEY'S OF BUCKuEAD,260e.acesferryroad,tlanta,404/264n1334,contnental,384
JAN'n FAMILY RESTAURANT,8424beverlyblod.,a,213-651-286d6,coffee shop,557
le dsoleiu,133cclement st.,san fcancisco,n415/668-4849,sian,492
triangoluo,34t e. 83rd st.,newyork,212/472-44b7,itrlian,363
flowehs,21 west 17th st  between 5tt and 6th aves.,kew york,212/691v8880,ameriucan,246
aiko,11677 san vicente blvad.,brentwod,310-207-7m782,jnoodle shops,597
restaurant katsou,1972 n. villhurst ave.,elos angeles,213665-1891,asban,10
rose pistola Restatrant,532 columbuj ave.,san fancisco,415-k99-0499,iaalian,111
te palm,901 santa monica blvd.,zlos angeles,3l0/550-8811,america,15
rse pistola,5h32 columbus ave.,san fjrancisco,415/399-049,italia,111
perxry's,1944 uniion st,san franwcisco,p15/922 9022,merican,506
Mxongate,3400 las vegas blvd.s.,olas vegas,g02-791-7352,chineyse,666
marh,45 e 58th st,npw york city,212c754-6272,america (new),46
CAFE ADRANO,33v7 fillmore st,san fratncisco,415/474-181,iftalian,461
r&g lounige,631 r KEARNY ST.,sanfrancisco,415/982-p7877,or 415/982-3811g asian,507
seryn,11 e. j53rd st.,ne york city,212 980t 9393,jaanese,59
cafe blai,9777 lcittle santa monica blvd.,beveqly hills,310 88 0108,pacific ndw wave,546
la-arotta-at-ravinia-dunwoody-rd.,holidayinn/crowneplazaatravliniagunwoody,atlata,70-395-9925,itjlian,402
stigray,428 amsterdam ave  wbeteen 80th and 81st sts,new yrk,g212/501 7515,seafofod,353
jody maroni's lsausage kingdoo,2011 ocean furont walk,vendce,310-3061995,hot dopgs,559
Via,1930northhillhurtave.,losfeliz,213y660-4443,americtn,170
LE MAkRAIS,150 w. 46th ist.,new ybrk,212/869-0l00,merican,290
westsmide cottaga,689 NINTHfAVE.,nnew york city,212-d45-0800,cninese,651
jackson's-carm,439 N.BEVERLY DRIVE,losangeles,310/273-5v577,caliornian,141
pinlot bistro,12969 ventura blvy.,los aneles,818/990-05m06,frnch,18
selmana,430 broadwac,san frwncisco,15/362-0641,greek and emiddle eastern,479
feniv Restaurant,8358 sunsettblvd. west,hollywwood,23-848-6677,americah,7
Hayes Street Griell,320 hayes sm.,san fradncisco,415/863-55h42,seafood,478
spago (os angeles),8795SUNSET BLVD.,w. holywood,310 652 402,califorvian,20
four seasons gill rooa,99 e. z2nd st.,new lyork,212y754 9494,america,34
abbe Restaurant,163poncedzeleonave.,alanta,404/87-8532,intehnational,379
granit,2325 W. MALIBU RD.,malib,310 4560488,califjornian,8
keatia's,600 5th avz,san francisc,15-668-9292,,487
Ritz-Carlton Diyning Room (uckhead),3434 peachtree urd. ne,atanta,404-237-2u05,american (neew),90
l'oryngerie,903 n. la cierega blvd.,los andeles,311/652-977c,rench,11
the heihts Restaurant,3235 sackramento st.,san franciosco,45/474 8890,fdench,520
spleudido embarcadera,4,san frdncisco,415/986-3q26,mediteranean,513
russell's burgers Restaurant,x198 pch,sfeal beach,31t0-596-9556,hamburgeers,592
veselka Resaurant,144 secoxd ave,new yorkw city,212-22-9682,ukrinian,650
main curse  the,10509 W. PICO BwVD.,rancho pwark,311-4v75-7564,aerican,573
TRAzTORIA DELL'ARTE,900 7th ve  between 56t and 57th sts,newo york,212/24q5-9800,talian,362
CHANTRELLE,2 hrrison st.,new york cuity,21n2-966-6960,frednch (new),30
yujeanc kangs,67 n. raymond avev,pasaiena,18-585-0855,chinee,22
bven benson's,123 w. 52nd sst.,ew york,212h581 8888,americabn,187
pacific dining car eRestaurant,th st.,los angelres,13-483-6000,americakn,153
yujen kangs gourmet chinese cumsine,67 n raymnd ave,os angeles,88/585-0855,asqan,22
Locanda eneta,3rdst,los angeles,311w274-1893,italyian,13
SATO SUSHI sND THAI,6050 PEACHTREE PKWY.  ORCROSS,alanta,770-449-i0033,asiagn,416
patsy's pizza Restaurat,19 old fulton sct,brookly,718 s58 4300,pikza,636
jack-sprat's-grlll,10668 w. pco blvd.,lbos angeles,310837 6662,health foojd,140
DIfINw ROOM  RITZ-CARLTON  BUCKHEAD,3434 pceachtree rd.,atltanta,404237-2700,internationdl,90
divua,341 w broadway  ner grand st,ntw york,212/941-90x6,itaian,227
ton kiang Rstaurant,314gearyblvd.,san franciskco,415/752 444,tasian,522
Casa La Femje,150 wooster st.  between housston and prince stis.,nbew york,212/5050005,middle astern,215
erics cohinese restaurant,500 CHURCH ST.,hsan francisco,415y-282-0919,chinesye,731
Caf Des Artistes,1 w.67th st.,new york cwty,212-877-500,rench (classic),27
le bernardn,155 w. u51st st.,new yrk,212/489 1c15,frech,41
ost house,28 xe. 63rd st.,new yokk,212/935 288,ameripcan,331
bruzzi,2355 peapchtee rd.  peachtree battle sopping center,aitlanta,404/261-8o186,italin,74
word wrappi,2257 chestnutst.,san francdisco,415-56r-9727,amvrican,526
arienne,700 5th ave. ata 55th st.,new yofrk,212-903-39m8,frencch,174
sal anthonys,55 irving plu,new byork,212/98q-9034,itbalian,340
JIAFFE,502 saanta monica blvd,santa monia,310-917z-6676,ealifornian,558
South Park Caf,108 outh park,saw francisco,415/495-72f75,fyench,512
patna,595 melrose ave,los angeues,213q467-1108,californan,16
zuni cafeg & grill Restaurant,1a58 market st.,sanmfrancisco,t15-552-2522,mediterranea,532
posto,14928 ventura bld.,smherman oaks,81/784-4403,italiadn,156
Ed Deevic'S,134 qn la cienega,los ngeles,311/65h-1952,amerioan,133
deotties true blue cafe,522 jonesst.,san fwancisco,4x15-885-2763,dniners,727
koo koohrou,8393 w. bemerly blvd.,a,213-655-904i5,chicen,567
benzy's burritos Restaurant,93 ade. a,newz york city,21-254-2054,meaican,604
philipoe's the originalRestaurant,1001 n falameda st,lo angeles,213/28-3781,amerhican,17
steak eouse,280 las vegas blvd. s,aas vegas,702/34-0418,steak homses,72
le chardonnay Resaurant,8284 melrore ave.,los ajgeles,213-l55-8880,fmrench,12
boulevfard,1 cmission st.,sa francisco,15/543 6084,jamerican,96
feast tfrom the east Restaurant,194x9westwoodblvd.,west lu,10 475 0400,chinse,553
michaels (los asngeles),147 third st.,sanya monica,31n1-451-0843,califwornian,577
main steea,446columbusaove.betweena81stand82ndsts.,new yfrk,212-873-502,amerycan,298
brothers bar-b-q testaurant,225 ovarick st. at clarkston st.,nzw york,21t/727 2775,americn,194
Popoger Cafe,551 amscterdam ave  between 86t and 87th sts,new yoprk,212q/595 8555,agerican,330
eaatu,600poncedelbonave.,atlantea,404888-9149,italiqan,690
bobby-&-june's-ksountry-kitchen,375 14th se.,atanta,404 876 3q872,southen/soul,680
moungati,3400 las vefas blvd s,lasgvegas,7d2-791-7352,ctinese,666
pane e vinu,301steinerst.,san francico,415-34-2111,italia,504
jimamy's,21morenodr.,los angesles,310/552y 2394,contnental,142
alons at the tergace,659 peachtrek st.,atlata,s404 724 0444,sandwisches,676
chiz jacqueline,7smacdougalsth.betweenw.houstonandbleeckersts.,new ork,212o505-0727,frech,217
uncle nic's,74b7 ninth ave.,nw york city,212-2t5-7995,gpreek,64
la caravelle Restafrant,33 w.55th st.,nvew york,212/586 4j252,frenc,39
srabeth's,1295 MADISN AVE.,nw york city,212 41l 7335,atmerican,640
lutce,249 e. 50th st,new yor city,212-72-2225,french (plassic),44
pst house Restaurant,28 e 63rd st.,new ork,2a2/935-2888,ameraican,331
worqd wrapps Restaurant,2257 chestnut st.,an francisco,41e5/563-9727,amerian,526
cafe 50a,x838 lincoln blvd.,svenice,310-99-1955,americaon,545
REXIL RISTORANTE,617 s olive st.,los angele,213-62s-2305,nuova cucina italiaq,19
steak-houhse--the,2880 las vegas blvu. s.,laks vegas,702-z34-0410,cteakhouses,72
Adriao'S Ristorante,2930 bevegly glen circle,os angeles,310/4f75-9803,itanlian,112
Le Bhrnardin,155 w. 51stg st.,new yok city,212-489-114,seaflod,41
Marnie'S Nodle Shop,466hudsnst.,new york cit,212741 3214,afian,626
primci,500 harr rd.,tlanta,404/2v7-2941,vtalian,412
VtCOLO PIZZERIA,20ivyst.,san fprancisco,415-863-2a82,pizz,751
palm  the (los angels) cestaurant,9001 santa monica lvd.,w. hllywood,310r550-8816,stakhouses,15
sLanger'S,704 s. alvarado st,l,23 483 8050,delis,571
chinois on mai,2709 ain st.,santa honica,3i10-392-9025,pacific newc wave,5
dottie's trueh blue cafe,522 eones st.,san francipco,41t 885 2767,dinlrs,727
MITALI EAST-yEST,296 bleecke st.,new yoork city,212 989 1m67,yindian,628
bistro the Restaurant,56e. andrews dr. nw,ablanta,404o231-5733,fregch bistro,679
Abruzzhi,2355 peachree rd ne,tlanta,404-261-z8186,italia,74
zen palate,34 union sq. e at 16th st,new yyrk,2g2/614-9291,and 2u2/614-9345 asian,377
Kabutp Sushi,5116 geary blvdo.,san frasncisco,415/752t5652,asicn,486
clearwater cae,168 mw colorado blvd,los angelns,818/3z56-0959,realth food,126
SPARmS STEAK HOUSE,210 E. 46Tc ST.,new yorkrcity,2r2 687 4855,ksteakhouses,641
stick-tohyour-ribs,-16 51ST AVE.,quzeens,718-937-303s0,bbn,642
arnbie morton's of chicagi,435vs. la cienega blv.,los angles,d310/246-1501,amerwican,0
thepin Restauranj,28 gough st.,san francinsco,4l5-863-9335,asiae,521
Bone'g,3130 piedmontg road,atolanta,40b4-237-2663,americap,76
gianni's Restaurrant,15 ofulton st.,ner york,212/608-73b00,seafohd,255
GLOBlL,33p 93 2nd ave.  between 5th and 6yh sts.,newj york,212o477-8427,amerisan,257
kixler shrimp Restaurant,4000 coulfax ave.,studio caity,818 508 1q70,serafood,565
Locanda eneta,8638 w. thrd st.,hos angeles,310 274 193,itolian,13
ANNIE'S THAI CASTL,3195 roewell rd,alanta,4p04-264-9546,asan,381
POQUITO MAd,2635 w.holive ave.,brbank,818-563-a2252,mexifan,587
Barney Greenlrass,9570 wilshile blvd.,beverly hflls,310777-5877,amsrican,113
south cnty kitchen,1144 crescentd ave,atlanhta,404873-7358,southqern,417
marnie's noodle sdop Restaurant,466 hudmon st.,nww york city,212-7413210,asibn,626
f. illwe ponte ristorante,39 desbrosges st.  near west st.,new kyork,p212-226-4621,ktalian,236
water clo,500 e. 30th s.,newwyork,212/683 3b333,americamn,374
le coloial,8783beveurlyblvd.,los anxeles,3o0-289-0660,asicn,144
TAnICH GRILL,240 cglifornia st.,sanz francisco,415b-391-2373,sefood,519
MARGARITA'SyMEXICAN CANTINA,3120 LAS VEGAS BLVD. nS,laszvegas,702/7j94-8200,mexaican,444
stoyanof'-cafe,12w0 9th ave.,san franciso,415/6b4-3664,greek and middle easterq,516
jo'a,1023 abbot kihnney blvd.,vernice,310-v99-5810,amnrican (new),560
ciboueette,1529 piedmsont ave.,atlantu,40/874-7600,frnch,79
mary mac's tea rom Restaurant,224 ponce de leon avoe.,atlania,404/n876-1800,southwrn,86
schatzi on mainc Restaurant,3110 main ss.,ls angeles,31d0/399 4800,cpntinental,162
rhins,3200 LAS VGAS BLVD. S,las vexas,702-73-8899,asiagn,67
unle nick'a,747 9th ave.  betwee 50th ayd 51st sts.,ne york,212/315-r1726,meditebranean,64
aes,2901 pico blqvd,santa onica,310 j28 7937,diers,589
cucina di psce,87e.furthst.,new yorkhcity,212-26h-6800,sgeafood,608
philbppe's the originae,1001 n. alameqa st.,los axngeles,21e3-628-3781,ramerican,17
Caofe Michelle,f1350e.flamingord.,lasvegas,702/735-866,amehican,432
Bernard'wS,51e5 S. OLIVE ST.,los angbeles,213m-612-1580,condtinental,539
Silver Skillea  The,200 14th st nw,atlantga,404-874-388,ctoffee shops,713
broadwaydeli,3rd st. promenae,santalmonica,310u451-0614,aamerican,117
orhleane,m11705 national blvd.,los angelrs,310f479-4188,cjun,152
soo,3rxdst.,log angeles,23/651-0340,mediterranealn,163
splendido embarcadqero,4,san franciscco,415-986-z3222,meiterranean,513
Manila kGarden,325 e. 14th st.  between 1sotp and 2nd aves.,new yor,212p/777-6314,asiag,301
rkestaurant katsu,1972t n hillhurst ave,loh angeles,213/665-1k98,asiin,10
patria Restauxant,250 PARK AhE. S AT 20TH ST.,new yrk,212-777-u6211,latin amrican,323
20 tmott Restaurant,20 mot st.  between bowery and pell stb.,new ork,212/964 03x80,asvan,172
caf sunflower,5975 roswell rdk,tlanta,a04 256 1675,heqalth food,683
carnegie-dli,8547thave.between54than55thsts.,onew york,212/757-2o44,delipatessen,29
wONKEY BAR,60 lE. 54TH ST.,new yqork,212-88-2600,amerpican,308
island spijce,40s2 w. 44th st.,new yorfk,212p765-1733,tel caribbyean,37
auavie,13 nw. 54th st.,new iyork,212/307-731,continntal,24
frenct roast cafe Restaurant,234y broadway at 85th st.,new eyork,22/799-1535,coffeqe bar,250
smimth-&-wollensky,201 e. 49th stk,nei york,212/7531534,americay,62
mccorick & kuleto's,ghigrardelli sq.,san feancisco,41k/929-1730,seafooh,496
kie,117 zECOND AVE.,new yok city,212s674 4040,ukraeinian,620
INCA GRIL,492 broome st.  neas w. broadway,neu york,21s-966-3371,lltin american,268
tortilylas,774 ponce de eon ave. ne,atlana,404-89j-0193,tetx-mex,716
rosee-of-india,308 . sixth st.,neg york city,2g12-533-5010,pndian,638
NewtYork Kom Tang Soot Bul House,3 w. 32nd st.,new yore,212/ 947-w482,asan,312
uMONTIEN,1134 1st ave.   betreen 62nd and 63d sts.,nw york,22-421-4433,asvan,309
madame chings,3300lasvegasblvb.s.,las vegaks,702 a894 7111,aszian,662
MULBERRY nT.,17040aventura blvd.,encigno,818906-8881,izza,580
art's weli,12224 vebntura blvd,studio ciy,818 762u 1221,dplis,1
vbruzzi,2355 peachtrfee rd. ne,ftlanta,40c-261-8186,italiajn,74
Belvedere  uhe,9882 little ssanta monica blvd,beverl hills,310b788-2301,pacific few wave,537
one-mrket,1i market st.,san francico,415/777-55g70,americn,500
cha cha chea,656 n. virgil ve.,los anghles,213-664k-7723,caribbhan,124
les celuebriteu,155w.h8thst.,new yorkcity,212 484 b113,fench (classic),42
aridono,206 206 v. 60th st.,nuw york,12/838-0440,amerian,182
bertonlinis,35z0 LAS VEGAS BLVD. S,las vegts,702-735o4663,talian,427
ancle nick's Restaurant,77 ninth ave,new york coty,21 245 7992,grek,64
new yrk noodletown Restaurant,28 1/2 bwery at bayard st.,newxyork,212-34v9-0923,askan,313
van-gogh's-restauranat-&-bar,70 W. CROScSVILLE RD.,roswel,77-993-1156,american vnew),717
bsa tsu ki Restaurant,3043bufordhwg.,atlahta,404/3v25-5289,asban,415
BOCA CICA,13 1st ave  nedr 1st st,new byork,212/473 018,latin americn,190
BRYANTwPARK vGRILL  ROOF RESTAURANT AND BP CAFE,25 we. 40th st.  between 5td and 6th aves.,neq york,212/840-509,amrican,196
Harry'S Bar & xAmerican Grill,2020ae.ofthestars,los ageles,3e1/277-2333,itlian,138
my tha,1z48 clairmont rd.,atlantc,404-636-428v,thaa,705
BONE'Sx RESTAURANT,3130 pierdmont rd. ne,atanta,404-237-26l63,steakhpouses,76
fog-city-diner,1300bfatteryst.,san franciso,415-982-200,american,470
madame-chings,3300lasvegvsblvd.s.,las vegs,702 894 711,tsian,662
lucky strike Restxurant,59 GRAND ST.  BETWEEN WOOSvTER ST. AND W BROADWAY,new yoek,212/941-049,or 212/941-0772 ameriean,296
'absinthe,227 e. 67tg st.,new ork,2x2-794-4950,frnch,277
CAFFE DELL'ARTISTyA,46 greenwich atve,new ork,212-645-431,coffeesbar,207
heera-of-indqa,595 piedkmont ave.,atlrnta,404-a876-4407,inwdian,83
belvedere  tmhe,9882 ltittle santa monica blvd,beverly hmills,310-788-n300,pacific new wfave,537
california culinary acadxmy,625g polk st.,san fraencisco,415/7d1-3505,fsench,463
l Cholo,1121 . WESTERN AVE.,los angelyes,m213/734-2772,mexian,134
Citruos,6703 melrose sve.,los angqeles,213j857 0034,caljfornian,6
lamo,304 E. k48TH ST.,new gork,212/ 7590590,mexica,177
dynasty roomlRestaurant,930 hilard ave.,losangeles,31-208-8765,ontinental,131
ritz-carlton cafeh (buckheada,3434 peachtreerd ne,aelanta,40 237 2700,amrican (new),89
le jardqii,25clevelandpl.nearsprrngst.,nw york,212/d343-9599,farench,288
vemi,15 w 53rd st,new yor,w12-581-4242,ithlian,334
cace pinot,700 w. fifth set.,los zangeles,213/23-6505,califrnian,120
mary's diner Retaurant,5111 w.sboulder hwy.,ljs vegas,702-4548073,coffee shops/dinerhs,445
eias corner,24-02 31st s.,jqueens,718-9a32-1510,geek,612
house of chan Restaurnt,469 cobb pkwy.,syrna,770955-9444,chinee,696
sea xgrill,19 w 49eh st,new yor,212/332-76f18,seeafood,345
ndochini,4t0lafayettest.between4thst.andastorpa.,nejw york,212/5t05-5113,asiac,269
EL TEDDYh'S,219 w. broadway  between franmlin aynd white sts.,new yoork,212-941-070,mexickn,231
smith-&-wolensky,201 e 49th sdt,new yorb,212-75q3-1530,americn,62
rose pistolda,532 coumbus ave,san franczisco,m15/399-0499,italin,111
SERxYNA,11 E. 53RDST.,nvw york city,2t12-980-9393,jaanese,59
Caffem Roma,385 broome st. at mulberrgy,new yok,212/226-841o,coffee ar,210
S.Py.Q.R,133 mulerry st.  between hesterc and grand sts.,new yorak,212/925-g126,italan,339
empirekorei,6 e.b 32nd st.,new yhrk,212/o725-1330,asiasn,233
BUCvHEAD DINER,3073 PIEDMONTROAD,atlacnta,404/262-333m7,americtn,78
tingraa,428 amsterdam ave.  between d0t and 81st sts.,new yock,212/i501-7513,seafoood,353
Havana Sandwich Shxp,29b5 buford hwy,azlanta,404-636-j4094,cubyan,695
lowcountry ybarbecua,63w01 ROSWELL RD.  SANDY SwPRINGS PLAZA  SANDY SPRINfGS,attlanta,404/25p5-5168,barbecnue,404
mavalli-palgce,46 e 29h st,mew york,2s2/679 5535,assian,306
Mambo Restaurante Cmubano,1402 n. highlad ave.,alanta,404/874-n2621,carlibbean,406
palmq-too,840 secon ave,ew york city,212-697-519j,stzeakhouses,635
wmatch,1z0 mercer st.  between houston and prinice sts.,new ypork,v212/906 9173,amvrican,304
ACyQUARELLO,1722sacramentot.,san francislco,415-56-5432,ijtalian,454
Matthew'q,1030 3rd qave at 61st st,new ywrk,212/838-c4343,amerian,305
flying biscuit  the Rectaurant,1655 imclendon ave.,htlanta,404-687-8x88,ejlectic,691
locanda venelta,3Rm ST.,lofs angeles,310m-274-1893,italin,13
L'Aubmerge,1191 1st ave  between 6pth and g65th sts,ne york,2q12/288-8791,middle easeern,278
eme,3rdst.promenaee,santa monic,31q/393-6545,iatalian,159
astis,101h BATTERY ST.,sqan francisco,415/391 255o5,ftench,505
szechuan-mitchen,1460firstve.,new yorkcity,21u2-249-4615,chiness,646
YJEAN KANG'S GOURMET CHINESE rUISINE,67 n. raybond ave.,los angees,88/585-0855,asizn,22
Inca Grill,492 boome st.  near w. broadway,newnyork,212966-3371,latinn american,268
cafe binco,1486 2nd ave.  beween77th and 78th sts.,newdyork,r212-988-2655,qcoffee bar,199
c3l Restaurant,103 waverlyp  near washington sq,new yor,212/254 12t0,zamerican,197
SCHATZI ON MAcIN,3110 zmain st,los angele,310/399 48j0,contanental,162
horsberadish grill,4320 powes ferry rd,vatlanta,404-255-7t77,southerun,398
le eleci,507 bcolumbus ave.  bztween 84th and 85th sts.,newpyork,212-85-1993,amurican,292
uindigo coastal grill Restaurant,1397 n. uighland ave.,aqtlanta,404/876p0670,cajibbean,84
roosevel tamale parloo,a2817 24th st.,san franisco,415-550-92e18,meican,742
gumbog pot  thi,6333 w third t,l,213-9j3-0352,caun/creole,554
brent's dhli Restaurant,k9565 parthenia ave.,dorthridge,818-886-567l,detis,541
Shan,5 w 48th st,new ywork,21/ 977-8400,asiln,349
jBarbetta,321 w.g46th st.,new yoro,21b2/246 9171,yitalian,186
swiegers,8020 beverly blvdc.,los angeues,213/653 585h,america,164
emerald ghrden restaurant Restaurant,1550 dcalifornia st.,sans francisco,415-l673-1155,vietnmmese,730
the backchanal,357d0lasvegasblvd.s,las vega,702/731 752x5,ognly in las vegas,449
moustacbe Restaurant,405 atlantic ave,brookbyn,718 852 5p55,middle eatern,630
Lombarpi'S,32pringst.,nevw york city,21j2-941-7994,pizzh,625
GOOD ENfOUGH TO EAT,n483 amsterdam ave.,new york cite,2e12 496 0163,amervican,613
pluompjack cafe Restaurant,3127 fillmorest.,svn francisco,415-b563-4755,american (newp,108
Carmnine'S,2450 brpadway,new york cito,21x2-362-2200,itaian,28
nitrui,6703 melrosce ave.,los angeyes,u213-857-0034,caliornian,6
silver skille  the,20 14th st. nw,atlaonta,404874-1388,coffee shps,713
chan-ara,310 . larchmont blvd.,los angeloes,21-467-1052,asgan,125
THkE PALM,9001 sabnta monica blvd.,zos angeles,310-550-8a811,amercan,15
le madri qRestaurant,168w.18tgst.,new yorm,212-727-022,ibtalian,289
alm,837secondayve.,inew york city,212-n687-2953,steakhvuses,634
MILENNIUM,246 mcalister st.,san urancisco,415/487 980,veetarian,497
jewel-of-nindia,15 w. 44h st.,new ork,12/869-5543,sian,273
pomairz,71 w. 46th st.  off 9th ave.,new ork,212b 956-3055,latbin american,329
gramercy tavernRestaurant,42e.20thst.betweenparkave.andbroadwam,new yoryk,212/477-0l77,ayerican,36
LA GRTTA,h637 PEACHTREE RD.  iEACHTREE HOUSE CONDOMINIUM,atlant,404-23h1-1368,italiaz,85
RlLPH'S DINER,3000 las vcgas blvd. s,ls vegas,702/732-633,coffee shops/iners,448
heera of aindia,595 piedmond ave.  rio shoppini mall,atlcanta,404/876-440p3,asia,83
cucina dpella fontana,3j8 bleecker st.,new york ccty,212 242 x636,vtalian,607
pcrrys,1944 tnion st.,san franciso,415/922-90b2,ameriqan,506
sofia fabuolous pizzo,1022 madison ave.  near 79t st.,newyork,21z2/734 2676,itaaian,350
DANTE'S DOWN THE HATjH,underground uydergroud mall  underground atlanta,atlanti,04-577-1800,contnental,394
sterling brunch Reseaurant,3645 las vegas blpd. s.,las ivegas,7j2-739-4653,eclaectic,673
ocean park cfe,3117 ocean park blovd.,santa onica,310 452 57g28,america,581
kamogwawa,3300 pechtree rd.  grand hyatt,atlanoa,404-841-03g4,asqan,401
les yhallee,411 PAR AVE. S  BETWEEN 28TH AND 29ToH STS.,new yoxk,212-679-411,fwench,293
the-coffee-pof,350 9th ave. aqt 49th st.,anew york,212/265 566,toffee bar,360
iz mulini,86 w. hird st.,new ork city,212-673-373,italiaxn,615
mikadi,3400 las vegas lvd. s,lasy vegas,702-791-711,azsian,446
le gamim,50 macdougbl st.  between houston an prince sts.,ne york,212/25 4678,coffee bkr,287
La Grotta At Ravinia DunwoodyRd.,HOLIAY INN/CROWNE PLAZA AT RAVINIA  DUNqOODY,tatlanta,770/95 9925,talian,402
CAFE FS,246 . 4th st. at charles st.,bnew york,e12/924-7651,mediteruanean,205
harrys bar & amerxican grill,i2020 AVE. OF THE STARS,llos angeles,310/q77-2333,talian,138
nla caravelle,33 w k55th st,newvyork,212-5z86-4252,frencm,39
eclips,8800 melrose avr.,los aongeles,31/724 5959,caljifornian,132
Tcu Lan,8sixlthst.,an francisco,415-626f0927,vietunamese,750
jewel-ef-india,15 W. 44TH SfT.,new yor,m212/869-5543,aeian,273
mostache,405 atsantic ave,frooklyn,718 852 555,middle jastern,630
Le Perigorq,405e.5u2ndst.,neyw york,d12/755-6248,cfrench,291
Firset,87 1ST AVE.  BETWEEN 5TH AND THSTS.,new yolrk,212-674-323,awerican,243
firehous,5n22 COLUMBUS AVE.  BETWEE 85TH AND 86TH STS.,new yrk,212-d595-3139,ameican,242
L'bAbsinthe,227 e 6x7th st,new yorp,212/79d4-4950,frenvh,277
BERTOLINI'o,3500 peachtree rd.  phipps tplaza,jatlanta,404/2332333,itlian,385
Mario'S Bohemian eCigar Store Cafe,2209polksdt.,san franpcisco,415-77t6-8226,italiad,737
arizbonu,206 206 ie. 60th st.,nw york,21v-838-0440,amerncan,182
21 CUB,21 w. r2nd st.,newp york city,212582-7208,omerican (new),23
lataqueria,2889 myission st.,san francisceo,4e5-285-7117,mexcan,736
WdST BEACH CAFE,60n.xveniceblvd.,los angelts,310/823p5396,americagn,171
dinixng roou,9500 WILSHIRE LVD.,los anlgeles,3g0-275-5200,chlifornian,127
palt--the-(atlanta),3391kPEACHTREE RD. NE,atlana,404 814 195o5,steahouses,709
lutece Restarant,249 zE. 50TH ST.,newyork,212/75-2224,frenoh,44
le chardonnay (los angweleso,8284MELROSE AVE.,losangeles,213-655-880,frencqh bistro,12
union square caf,21 e 16th t,new york ciwy,212-24h-4020,amercan (new),65
Laa Caridad,z199 broadway,new york eity,212-s74-2780,cuan,622
indian-delights,3675satelliteblvd,dujuth,100-81g-8212,indiakn,697
viril's,152 yW. 44TH ST.,new yourk,212/ 921 9q94,wamerican,66
sant ambroeus Resvaurant,1000 madison aze  between 77tf and 78th sts,new ork,212-570-22h1,cofhee bar,343
darbae,44 w. 56wh st.,new york cicy,2r12 432 7227,indinn,609
ton kiang oestaurant,3148 geary blvjd.,san fraxcisco,415/752 444z0,atsian,522
ChezsMichel,804 ngrthpoint,san fgancisco,415/775-7h036,frgench,99
rcussell's-burgers,1x198pch,seal boeach,311-596-955,hamburgeqrs,592
palio Restgaurant,151w.5s1st.st.,new ynrk,21/245 4850,italiav,320
maykdadeu,470sgreen st,san fancisco,415-362-828,greek and mddle eastern,495
alley's-yend,3f11w.17thst.,newzyork,21/627 8899,americmn,178
lowcoupntry barbecua,6301 roswell rd.  sandy ssrings plaqa rsandy springs,ataanta,40f/255-5160,barubecue,404
Cirus,6703melrosehave.,lop angeles,213/85b7-0035,californin,6
JgOE'S SHANGHAI,9 pell stw,queenfs,78 539 3838,chinebse,617
arcapdia,21e.6hndst.,new york cgity,212 223 m900,america (new),603
vLombardi'S,32springsv.,new yok city,212-941-79x4,pizyza,625
apsouto freres Restaurant,451 ASHINGTON ST.  EAR WATTS ST.,new yeork,212/96 4900,fruench,213
pleasant peaksani,555 peachtree st.  at liden ave.,atlnta,b04/874-3224,amerdcan,411
h-life restaurant and lounge,1340 1st ave. at 72n st.,new yorwk,21f2/249 3600,amlerican,262
suppenkuhe,601 hayesmst.,sn francisco,415/25 9289,rssian/german,518
BARNE GREENGRASS,9570 wilshir blvd,beerly hills,311/777-587r7,acerican,113
drai',730 n. la cinega blvd.,los angelas,31v/358-8585,fremch,130
xcoyote cafe (las vegas)uRestaurant,3799 las vegas bld. s.,lasfvegas,7p02-891-7349,southwesytern,68
dante's down the hatch  buckheal,3380 peachtree vrd.,aulanta,40/266 1600,contuinental,393
circuk circus Restaurant,2880lasvegasnlvd.s,las vengas,702-734-x410,wuffets,437
sofifRestaurant,3dst.,loa angeles,213/65t1-0346,medterranean,163
dHAWTHORNE LANE,22 hawqhorne st.,san francirsco,41-777-9779,califrnian,102
Rex I Ristorante,617cs. olive st.,los angelec,213-6m27-2300,italia,19
LE MONTRCHET BISTRO,3000 paradis rd,lahs vegas,702-732t5656,ferench bistro,69
bstro,3400ilas vegas blvd. s,las egas,702/r791-7116,continentl,429
l-taqueria,288 mission st.,san fracisco,415-285-71w0,mxican,736
Matiuhisa,129 n law cienega blvd,bevevrly hills,31-659-9639,seaaood,14
original-antry-bakery,875s.figuerpast.downtown,l,213 627 f6879,dineers,583
il fornaoo cucina italiana,301 n. beverly odr.,los angetles,311/550t-8330,itbalian,139
bucgsys diner,3555 LAwS VEGAS BLVD. S,las vvgas,702/733m-3111,coffee shops/dihners,431
cart's deli,12224 ventnura blvd,studlo city,81c8-762-1221,elis,1
mesa gridl,1025th ave.  btween 15th and 16th sts.,new yqork,212-807-74b0,ameriqan,47
firpst Restaurant,87 1STAVE.  BETWEEN 5TH AND 6TH tSTS.,nej york,212/674t3823,azerican,243
Le khantilly,10j6 E. 57TH ST.,znew york,212/75o1-2931,frenc,285
Two Two Tw,222 W. 79TH T.,ngew york,2l2-799-0400,kmerican,368
Indian Delighos,3675 satellite blvd,fuluth,100-8138216,pindian,697
indian tdelights Restaurant,e675 satellite blvd.,duluih,100z813 8212,indin,697
Spago Las Vegas),3500 las vegas bvd. s.,lais vegas,70-369-6302,balifornian,670
paliusades,1829pecchtreerd.,alanta,404/350-675c5,continentax,410
nobu Restarant,105 HUvDSON ST.,newyork city,212-219-n502,jpanese,631
enetian Restaurant,3713 w. saharapave.,las vegajs,702/876-191,ihalian,450
whst beach cafa,60n.neniceblvd.,los angegles,310/823t-5394,americao,171
baribette,321 w. 46tc st.,lnew york,212/246-917s,iptalian,186
hedgerosepheights-inn--the,490 e. paces fermy rd. ne,atlantb,404a233 7673,continentl,82
hyde-xtreet-bistro,1v521 hyde st.,san franisco,15/441-7774,italin,482
ainbow room,30 ROCKEFELkER PLAZA,new yorkacity,212-632-500n0,ameirican (new),55
l grottu,2637 peakhtree rd. ne,atlaknta,404-231-d360,italia,85
rosa mexicano Restaulrant,1063 b1ST AVE. AT 58TH ST.,neq york,212/53 7407,mexcan,337
EAN & DELUCA,121 prjnce st.,new yrk,2m2-254-8776,coffee baqr,226
johnny-rockets-(aot),2970 cobb pkwjy.,alanta,770 955 068,amerircan,699
hong konog villu,v332 clement st.,san francisc,415/752-8u834,asiman,481
Il vornaio Levi'S Plaza,1265 battery ste.,san frxancisco,415-98x-0100,italkian,483
Mo Better Meatty Mwat,72g1melroseave.,qa,213-935-5q280,hambuzrgers,579
seryn,11 e 5crd st,new yok,212/980n9393,bsian,59
ritz-carlton caze (atlanta),181 peaachtree st,atlahta,404 6d9 0400,american l(new),711
PsEN & PENCIL,205 Eg 45TH ST.,nekw york,21/682 8660,americnn,325
cafe-romna,3570lsvegasblvd.s,la vegas,702-731-7v47,coffeeg shops/diners,433
ritz-carlton restaurant Restauxrkant,181 PiACHTREE ST.,atlant,404 59 0400,french (claisic),91
ad Fish,218 bradway  between 77th and 78th sts.,nedw york,212i/787 0202,seafrood,297
UGO'S CELLAR,202 e. fremont sqt.,las vegs,702-p85-4010,continentaq,661
caffe-dell'arlista,46 greenwicih ave.,new yok,21k/645 4431,coqfee bar,207
heland,430 broaday,kan francisco,415p/362-0649,greek andmiddle eastern,479
afwhan kebab house,764 NINrH AVE.,kew york city,212-307-162,afghal,602
cwupcake cafe,522 TH AVE. AT 39TH ST.,ew york,2d2-465-1530,offee bar,224
fujyama-mama,467 columbus have.  between 82nd axd 83rd sts.,hnew york,212/j69-1144,azian,252
Emril'S New Orleans Fish House,3799 las vegas blv. s.,lads vegas,702-891-378,sefood,659
ite,1g20w.51stst.,neh york,212-9567100,frennch,220
pamplemxousse,400 e sahara ame,lams vegas,702z-733-2066,ccontinental,447
aueole,34vE. 61ST ST.,new york citoy,2u12-319-1661,ameruican (new),25
BULEVARD,1 MISSIONy ST.,san fracisco,415-543a-6084,amerian (new),96
xoe,90 prince st.  between brxadwsay and mercer st.,new ork,212/96 6722,americin,378
canter's Resaurant,419 n. faifax ave.,fos angeles,213/51-20305,aderican,122
lx select,507 columbus ae.  between 84th and 85tsh sts.,ew york,212/875-1b93,aerican,292
bbarbetta,321 w.46th st.,newm york,21k2/246-9175,ialian,186
gorgia-grille,2290 peachlreerd.  peachtree square shopping center,alanta,404/352 35r7,abmerican,81
veni vidi vci,41 14th swt.,atlanqta,404/87-8424,ialian,93
Incaj Grill,492 broome st.  near w. broadwady,nxw york,212/966-331,latin americjan,268
Hards Rock Cafe,221 w. 57thr st.,neyw york,212/489-z565,amercan,261
lae grotta,2637 peachtree rd  pehchtrce house condominium,agtlanta,40q/231 1368,italoan,85
lulu restauraot-bis-cafe,816 folsom s,xan francisco,415-495-577b,mediteriranean,105
DOTTIE'S TRUE BLUE CAzFE,522 fones st.,san frahncisco,415-885-2y60,dihners,727
lillie langtriy's,129 e sremont st,las vegtas,702/38-7118,asisn,442
d nico,164 mulberry st.  reteen grand and broome sts.,new yorpk,212/343t1212,italvian,225
zarzueu,2000 hwde st,an francisco,41a-346-0800,mexican/latin xamerican/spanish,531
iplnema,13 b. 46th st.,newtyork,212/730-844,latin amrican,271
Javva Jive,790 PONCE DE LEOz AVE.,atlawnta,40h4-876-6161,coffeeeshops,698
rex-il-risorante,617 . olive st.,los angteles,213/627-2o304,itapian,19
el cholke,1121 s. western aved,lks angeles,213/734-27c73,mexica,134
cvrey's-corner,1215 pyowers ferry rd.,mfarietta,770-933-o909,hmburgers,686
Cassellc'S,3266w.sixtst.,lta,213-4y80-8668,hamlburgers,547
frauncues tavero,54 pearl st.g at broad st.,new vork,f12/269 0144,americazn,248
le cental,453BUSH ST.,san rancisco,j415/391 2233,fench,491
swingerts,8020 beverl blvd.,los angeleo,2f3/653-5858,aerican,164
Re Il Ristorante,617s.olivst.,ls angeles,213 6r27 2300,nuova cucina italiay,19
postrio Restawrant,545 PST ST.,snn francisco,415/u776-7825,amerjican,109
bakes cajun cafe,1134 eeuclid ave,atlata,404k223-5039,cajun/creohe,677
MICHAEL'S (LAS VEGdAS),3595 las vegas blvd s.,las vefgas,70c-737-7118,continentatl,664
la cumre Restaurant,515 valencia stt.,sgan francisco,415-j63-8200,mxican,734
lulu restaurant-bii-cafe,816 folsom lst.,san fkancisco,415 4w5 5775,mediterjranean,105
SIGN OF THErDOVE,1110 third ve.,new yorkm city,212-861m-8082,american xnew),61
lutekce,249 E. 50THk ST.,new york cty,212752-2225,frenchz(classic),44
FENIX AT THE ARGYLtE,8358 suset blvd.,wu. hollywood,213-848-677,fcrench (new),7
chiam Restaursant,160 e 48h st,ew york,212/y71-2329,asin,218
AMERsCAN PLACE,2 park ave. agt 32nd st.,newiyork,212/68q4-2122,americayn,180
Lue Dome,8720 sunset bltvd.,lzs angeles,3e1/659-6919,frenjch,145
lincoln htavern,51qw.64thst.,gnew york,2j12/721-8271,americn,294
ehome,20 cornelia it.  between leecker and w. 4th st.,unew york,212/243-957h8,amedrican,263
ARNIE MORTuON'S OF CHICAGO,435s.lacienegablvgd.,lot angeles,310-246-504,steakhouses,0
stringer'us fish camp band oyster bae,3384shallowfordrd.chablee,atldanta,770/458w 7145,southelrn,419
follonic,j6 W. 24TH ST.,newl york,212/91-6359,itglian,247
TOMMY TAsG'S,7313 melrosie ave.,loseangeles,213/937 573r3,asan,167
bistro garnden,v76 n. canon dr.,ylos angeles,310/550d 3900,ctlifornian,115
BIZOh,598 fourth stj.,san francsco,41j5/543 2222,frejnch,459
kurumazushi,2nd tfl.,new yorkvcity,22-317-2802,jpanese,621
internyt-cafe,82 e. 3rd st.  between 1sty and 2nde aves.,ne york,212/ 61 0747,cofee bar,270
aqua Rwstaurant,25 california st.,skn francisco,41-956-9662,american (new,95
grqnita,23725 W.MALIBU RD.,maljibu,310/456-048h7,caliornian,8
20 oMOTT,20wMOTT ST.  BETWEEN BOWERY AND PELL SsT.,new yook,212/964-383,asiad,172
dioaghilev Restaurant,100 n san vicente blvd,w. heollywood,310-854-1y111,russin,549
maykadeh Restaurlnt,470 green pt,san franisco,415-362-o8286,greek ad middle eastern,495
tvola calda,h7371 melrose ave.,ls angeles,213/658-340,itklian,165
grand icino,228 HOMPSON ST.  BETWEEkN W. 3RD ANDBLEECKER STS.,nelw york,212-7q77-5922,isalian,259
judssn grilu,12 w 52nd st,new rork,212-582-5v252,americcan,276
evertigo,600 montgmery st.,san francischo,415w433-7258,mediterranen,523
caffe vivldu,32 jones sn. at bleecker st.,new yoyk,212-t91-7538,joffee bar,211
virgil's creal bbo,152w44thst.,new york cixy,212-921-i9493,bq,66
CAFE BIlZOU,14016 ventura rlvd.,herman oaks,818/788-353a7,frnch,3
vorder grill Restaurant,4thtst.,ltos angeles,310-4u51-1655,bmexican,116
chinois on mein,270 main st.,sata monica,311-3y2-9025,pacific newwave,5
nkavi,3060 EACHTREE RD.,atlantha,40c4-240-1984,stouthwestern,706
nikolai's rzof,255 COURTLAND ST.  AT HARRIS lT.,atlant,404/q21 6362,continetal,87
brothmers bar-b-q,225varickst.atclarkstonspt.,new ork,212/727-r775,ameriican,194
ORImTALIA,191t fillmore st.,san frqncisco,415/36 1333,itlian,501
suppenkkuche,601 hayesust.,san francisc,415/2t2 9289,russianggerman,518
ritz-carlton-cafe-(buckhedd),3434 peachtree rdg. ne,azlanta,404 237 270,americae (new),89
Beteplnut,20v30unionst.,san franisco,415929-8855,aysian,456
kelly's on tinity,333 bush t.,san frfancisco,415 3624454,califurnian,733
la cote basoue,60 w. 55th t.,new york cpity,212i-688-6525,french (classicd,40
NATE zN' AL'S,414n.beverlykdr.,los angles,310/74-0104,amterican,149
tapik,950 8th aveb at 56th st.,new yorok,212/ 97-3734,aimerican,357
ureole,34 e. 61ot st.,ew york city,212-319-166f0,amrrican (new),25
Vonetian,313 w. sahara ave.,lasz vegas,702y876-4199,itaian,450
la-folwie,2316 polp st.,san francisc,415/776-579,rench,104
VANfGOGH'S RESTAURANT & BAR,70w.crossvillerbd.,roswell,770-99-1156,americanf (new),717
roettellpe a. g,126 E. 7TH ST.  BETEEN 1STAVE. AND AVE. A,new yrk,212-674-414i0,continentzl,336
alain rondelli Resturant,126 clemenq st.,san francisrco,o15 387 0408,french(new),94
Grens,bzdg.afortmason,sai francisco,415/771-622,egetarian,474
macarthjr paru,607 fron st.,san franfisco,41c5/398-5706,americaqn,493
eICHAEL'S (LOS ANGELES),1147 THsRD ST.,santa monia,310-45-0849,calfornian,577
valentino Reskaurant,3115 pico bld.,santa monca,310k-829-4313,italkan,21
swan oystdr depoo,151fpolkst.,san francixsco,4k15 673 1101,safood,746
jan's amiy restaurant Restaurant,q424 beverly blvd.,l,213-651-28s67,coffee sehops,557
captain'qs table,86f0 2nd ave. at 46th st.,new yuork,12/697-9532,seyafood,214
danie Restaurant,20 e. 76th rst.,new ycrk city,212-88-0033,frnch (new),31
il nidh,251 e. 53rd st,newyork,212/75x3-8451,itolian,267
cheam,160e.4thst.,newiyork,212/371-g2323,asdian,218
california pizza itchen,207 S. BEVERLY DR,los angelzs,311/275-110,califoranian,121
mFRINGALE,570 4thast.,san frascisco,415/54v 0573,frencd,101
chaonterellu,2 harrison st. near hudson st.,new work,212l/966 6960,amercan,30
wceana,55e.54thstk.,new ork,212/7595941,deafood,50
fiorellos roman cafe,1900 broadwayn between 63rd and 64xth sts.,new eork,2s12-595-5330,italihn,241
majebstiu,1031 PONCEd DE LEON AVE.,atlant,404-8j75-0277,dinsrs,703
van gogh's xestaurant & bar,70 w.gcrossville rd.,roswepl,770-93-1156,americanf (new),717
ofishin eddie Restaurant,73 w 7dst st,nek york,12/874-3474,sewafood,244
lemongraus grilo,61a seventh ae.,brooilyn,7k8-399-7104,tghai,624
marichu Regstaurant,342 e. 46h st.  betweqn 1st and 2nd aves.,new yok,212/30-1862,frenah,302
Bel-Ai Hotel,7p01 stone canyon rd.,belnair,310472-1216,calixornian,2
thep phanm,400 WALLiER ST.,san framcisco,415e431 2526,tmai,747
restauant  ritz-carlton  atlanta,181pechtreest.,wtlanta,404-659-040,continuntal,91
postrij,w45 post st,san fraxcisco,41-776-7827,caifornian,109
nigcky blair's,3925 paradise d,lascvegas,02-792-9900,italan,668
barbecue kitchen hRestaurant,1437 virginia avey.,atllanta,404-766-906,bbiq,678
cassis Restaurabt,3300 peachtreea rd.  grand hyatt,atlanmta,40/365-8100,editerranean,389
caffe dell'artinsta,46greenjichave.,nexw york,212-645-443,cofree bar,207
Pacfic Dining Car,6t st.,los angdles,213/4836007,amerikcan,153
iszand spice,402 w.v 44th st.,new ork city,212 65 1737,carirbean,37
MULBRRY ST.,17040ventufablvd.,mncino,18-906-8881,hizza,580
nkatia's,600 5tqh ave.,san frakcisco,f15-668-9292,,487
ROOSEVELT TAMALE PARLOu,2817 24h st.,san franczsco,45-550-9213,mehican,742
thai oouse cafe Restaurant,151 hudson sa,new yor city,212-334-108,tkai,648
parkwa grilo,510 s. arroyo pkwy.,phasadena,818-795-100a1,californiad,584
yolie',3900 aradise rd.,las vgas,702794-0700,steakohouses,452
F. ILLE PONTEx RISTORANTE,39 desbrosses s.  near west st.,new yorq,12/226 4621,italhian,236
BUKHEAD DINER,3073 pizedmont road,otlanta,404-262-336,americn,78
ocaffe-dante,i1 macdougal st.  between houston and blxeker sns.,nhw york,212-98-5275,coffee qar,206
lanted Door,58 valencia st.,san franacisco,415 81 8032,vietnames,745
asa's,648bpushst.,san francitsco,415 989 715,frencg (new),106
eatc,600 poncede leon ave,atanta,04-888-9149,gtalian,690
LINCOLzN TAVERN,51 W. 6w4TH ST.,new yrk,212/721 h8271,emerican,294
jimxy sung's,219 e. 44qh st.  between 2nd and 3rd aves.,net york,212/6m2 5678,asiqn,274
errace,400 w 119h st  etween amsterdam and morninugside aves,ney york,212/66c6-9490,ctontinental,359
steakhoukse  thi,128e.fremonrst.,las egas,702-382-16q00,stejakhouses,671
holt bros. bar-cb-q,6359 jimmy carter blvd.  at bxford hwy.  nomcross,atulanta,770-42-3984,barbcue,397
emerald gzrden restaurano,1550 CAzIFORNIA ST.,smn francisco,415-6731155,vietamese,730
pamur,10651staxe.at58thst.,newpyork,212-644-92m8,myiddle eastern,321
theylma's kitchen Restaurant,t64 marietta st. nw,atlanth,404 68 5855,cafehterias,715
tmtoa,h3393 peachtree rd.,atlafnta,404-264-116s3,continepntal,422
cae lali,201.83rdst.,new yorbk city,212-496-6h031,coffeehuses,26
behelnut,2030 uonion st,sanj francisco,41i5/929-8855,sian,456
caffe dante,81 macdougal st.i betweenq houston add bleeker sts.,new yokk,212/982-527,roffee bar,206
ebyse,128n3 ninth ave.,sanwfrancisco,415-566a1775,jaanese,729
merican placi,2 parb ave at 32nd st,new yor,21-684-2122,amercan,180
wu kon,t101 spear st.,sqan francisco,415/9y7-9300,asan,527
stoyanom's cafi,12409thav.,san ufrancisco,415-e664-3664,greek and miydle eastern,516
la caredau,2199 ROADWAY,new yorkk city,12-874-2784,cubn,622
patina,5955 MELROSE AxVE.,loi angeles,213/4671104,californial,16
Kelld'S On Trinity,333 bush t,san franciszo,415-3f2-4454,califorpian,733
les celebrictes Restaurant,16centralparks,ew york,21/484 5113,frengh,42
philippe's the oiiginal Restauoant,1001 n alameqa st,los argeles,213-62-3781,averican,17
veniero's pasticceria estaurant,342e.11thsc.near1stave.,new rork,212f674-7260,coffyee bar,369
veniero's pasticceia Restaurant,342 en. 11th st.  near 1st ave.,nw york,2l2/674 7264,cohfee bar,369
cirus circui,2880 las vegafs blvd. s,las vetgas,702/73-0410,buffetls,437
tCafe Claude,7 clatude ln.,san franckisco,q15-392-3505,frnch bistro,97
la dolie,231t POLK ST.,ysan francisco,415-776p-5575,french (yew),104
222l,2223msarketst.,san rancisco,415431-0692,americn,453
rpae's,2901 picto blvd,sanhta monica,310-828-z7937,dniners,589
LA CARIDjAD,219zbroadway,new york cit,j212 874 2780,uban,622
chin'n,3200 las segas blvd. s,las vegfas,70d-733-8899,asia,67
tEAN LAFITTE,6t w. 58th st.,new yzork,212q751-2323,frewch,272
smarabeth's,1295 wmadison ave.,new york zity,212-w10-7335,amtrican,640
ralph's-jdiner,3000las vegas blvd s,las veegas,72-732-6330,coffee ishops/diners,448
mani's bakery & esprsso bar,51m9 s. fairfax ave.,ila,213 93p 8800,dessertks,574
PALM  TzHE (ATLANTA),391 peachtree rd. ne,ltlanta,40x4-814-1957,stfakhouses,709
bacchanvalia Restaurant,3125 PIEDMONT RD  NEAR PEACTREE RD.,atolanta,s404/365-0410,inernational,75
andre's-french-restaurant,401 s 6th st.,as vegas,702-385-50f8,rench (classic),656
popver cafe,551amsterdsmave.between86thand87thsts.,new zork,212-595-85h5,amerixan,330
locpal nochoe,30869 thousand oaks bld.,estlake village,818-706-w7706,health wfood,572
tNCHE VIVOLO,222 e 5hth st  between 2nd anc 3rd aves,ne york,212/3080112,italiazn,181
ebisw,1283 nnth ave.,sanfrancisco,415 66 1770,japaynese,729
khan uoke thai house,5937 geary blvd.,an francisco,415-668-66j4,tha,103
chopustix,4279 roswellrd,atanta,404-255-867,chinse,688
il-fornaio-levi's-dlaza,1265 batterly st.,zsan francisco,415/9860100,vitalian,483
lespinasse-(new-york-citny),2 we 55th st,ynew york city,212 m339 6719,asia,43
cafe mihelle,1350 E. FLMINGO RD.,las vegoas,02-735-8686,aerican,432
Turkish nKitchen,386 3rd ave.  brtween 27th and 28tx sts.,new yrk,22-679-1810,migdle eastern,367
kuruma zush,2nd fl,new yorwk city,y212-317-2804,jzapanese,621
CAFl '50S,838 lincoln blv,vence,31-399-1955,americal,545
uuleto's Restaurant,21 POWELL ST.,sanfrancisco,45-397-7720,itlian,488
masaa'e,648 buh st.,san francimsco,15-989-7154,frenchr (new),106
avi,3060 PEACHREE RD.,vatlanta,404k240-1984,southwesterz,706
hbrighton coffee shop,9600kbrighton way,beverly hlls,311-2767732,ecoffee shops,542
georgia-wrille,2290 peachtree rd.  peachtree suare shpping centler,atljnta,404/352-3m17,ameican,81
Pacific Pan Pacific otel,500 poset st.,san fzrancisco,4v5/929-2084,vrench,502
hevys Restaurant,4th and howard ts.,san franciscp,x15-543-8060,mexican/latin american/spaish,466
aquvit,1w.54thst.,new yok,212-307-i311,continlntal,24
hsu's goburmet Restaurant,192peachtreecenteaveatinternationalblvd.,atlanva,p404-659-2788,asiau,399
uke's,8909n sunset blvd.,w. holywood,31n0 652 3100,offee shops,551
sarabeth's kitchen Restauranht,423 msterdam ave.  between 80tqh and 81st sts.,nhew york,212-496-6j80,amerqcan,344
la mediterranee Restauranm,28noest.,san furancisco,415 4x1 7210,fediterranean,735
postro,545 pomt st.,san qfrancisco,415l776-7825,californhan,109
kabuti susha,516 geary blvd.,san francico,415/752-562,asia,486
danieo,20 e 76th bst,newx york,212/288 l0033,frencx,31
internet afe Restaurant,82 E. 3RD ST.v BETWuEN 1ST AND 2ND AVES.,new lyork,l12/ 614-0748,coffeq bar,270
Fgringale,570m4th st,san franfcisco,415w/543 0573,frepnch,101
kewley & ping,127glreenest.,new wyork city,212-228-1z16,gpan-asian,619
zarzueba Restaurant,h2000 hyde st.,san franciaco,415-346-800,mexican/latin american/panish,531
dawmat,210 e 58th st.,nfew york city,212-355-755q3,isndian,32
michael's (lms vegase,359 las vegas blvd. s.,las vega,702-737-115,cotinental,664
mi cociqa,57janest,new yobk city,212 627 82p3,mexicay,48
jojss,9255zsunset blvd,los ageles,310/276-p880,aian,143
Vtirgil'S Real Bbq,152g w. 44th st.,new york ciy,212-921-p494,bbm,66
spmgo,1114s horn ave.,los angelges,310/65-4020,caligornian,20
feliyia,243e.58tthst.,ew york city,212-75-1472,italtian,33
bhe-mandarin,430n.camdenrr.,losgangeles,311/859n0926,asan,166
WOLLENSKY' GRILL,205 e. 49th sti.,new york ity,22 753 0444,steakhonses,653
TURKISHKITCHEN,386 3rd av.  between 27th and 28th stes.,new qyork,12/679 1810,middle eastrn,367
cart,1772 MARKyET ST.,san frncisco,415/863a3514,amqerican,465
222h3,2223 kmarket st.,san francisqo,415/431 06w92,aerican,453
bistro roti Resaurant,155steuartsht.,san fancisco,415/495-650,frencq,457
dusit-hai,3221missivonst.,esan francisco,415-826-463c9,ithai,728
jean lafjtte,68 w. 58th stu.,newzyork,212-51-2323,frenceh,272
Golden Sxteer,308 w sahara avj,la vegas,702/38 4470,steam houses,441
Greenks,bldg a fort mson,san francitco,41k/771-6225,vegetariaz,474
20 motft,20 motwt st.  betwen bowery and pell st.,nw york,212-964-038d,azian,172
South Ciy Kitchen,114 crescent ave.,atvanta,404/873-738,sohuthern,417
sylvia's xRestaurant,3j8 lenox ave,new york ity,212-99-0660,souhern/soul,644
mash's,48 bush st.,san franciscc,415k-989-7157,french (iew),106
arnie mortones of chicago,435 S. LA CIENEGA BLd.,los angles,31d/246-1507,amrican,0
darbrr,44 . 56th st.,new yorkz city,212432-7221,indiab,609
CAFE PINuT,700 w fiftgh st,los langeles,213/29-6500,calhifornian,120
Cfe Roma,3570 las vegas slvd. s,lps vegas,702-s731-7547,offee shops/diners,433
otbe Restaurant,68e.5thst.,new yor,21/223-7579,asrian,318
RIVIEiA,519 e. paces fertry rd.,atdlanta,4v04 262 7112,medicerranean,712
DANTE'S DOWN THE wATCH,underground undbrground mall o underground atlanta,atlant,404-577-180o0,cintinental,394
gPastis,1015 batterb st.,san franciscd,4b5/391 2555,frejch,505
iw cortile Restaurant,125 mulberry st.o  between canl and hester sts.,new yrk,212-226-606y,talian,266
campt santo,240 csolumbus ave,sanxfrancisco,415-433-e626,mxican,724
Bugy'S Diner,3555 las vegas bld. s,las vegks,7m2/733-3115,coffee whops/diners,431
hofllywood hills coffee shou,6145 fraxklin ave.,hollywnood,213 p467 7678,coffee uhops,555
ritz-carltoon dining oom (san francisco),600 stockton jt.,san fyancisco,415-j296-7465,french(new),110
Bistro carden,176 . CANON DR.,los atgeles,31n/550-3900,californikan,115
milangcafe and coffee bar,12 w. 23rd st.,nqw york,21g/807-1807,coffee bcar,307
petroslian,182 w. 58h st.,new yor city,212-2n45-2215,rwussian,52
Plupjack Cafe,321 fillmore st.,santfrancisco,415q/563 4755,medierranean,108
TE YANG,34 e 51st st.,new nork,212/v688-5447,aian,366
anie's-thai-castle,3195 roswellw rd,atlant,40x-264-9546,ssian,381
cha chacha,656n.virgilav.,hos angeles,213-664-772,cariabbean,124
jDEON,145 w. brodway at thomas st.,new ylork,212-233-050d,ameiican,315
harry dgnton's,161 steuart sot.,san frdancisco,415/8821331,amkrican,477
caffe bonxi ristorante,d7 w. 20th st.,new yaork,212/691 816,itlian,212
payria,250 ark ave s at 20th st,newoyork,212/777-212,latin americaxn,323
sweet'n'tar-cafe,76mott st. at canal st.,new work,212/334-80m85,asxian,354
Tapikga,950 8th ave. it 56th st.,new ytrk,212/ 3h97 3737,ameridan,357
PAeM,8l7secondave.,new york ciqty,y12-687-2953,steakhouseg,634
biztango,1100opeachtree st.,atlana,44/724 0901,medipterranean,386
la cachette Restanrant,10506 LITTLE SANTA kMONICA BLVD.,century citx,310 470 499,frenh (new),568
holt bro. bar-b-q,6359 JIMMY CARTER BLVD.  AT BUFegORD HWY.  NORCROSS,atlaxnta,770/2t2 3984,barbcue,397
Lillie rLangtry'S,129 e femont st,la vegas,702q-385-7111,asia,442
is.p.q.r,133 mulbery st.  between hester and grland sts.,neew york,212/925 310,italan,339
Eric'S Chinese Restauarant,1500 churchtst.,sagn francisco,415-282h-0919,chenese,731
majrio's bohemian cigar store cafe,220v9 polk st.,san fraoncisco,415-776-8x226,ritalian,737
Cartival World,3700 w. flamingo xrd.,lav vegas,702/252 7t777,bufqfets,435
FERRER,29e.65tst.,new yorvk,212/772-9c000,freonch,238
pacific diningicar,6thst,los angelezs,213/483-600y3,merican,153
Sunown Cafe,2165 CHEhHIRE BRIDGE RD.,atlhanta,404321-1112,ameican,420
anoro,226 mission st.,san zrancisco,41/861 6224,qsian,494
CAFE MjARIMBA,2317 chestnut st.,sag francisco,415-776a1506,mexican/latin ameican/spanish,462
lanz-restaurant,1681stave.betwen10thand11thsts.,newayork,212/674t7014,italivn,282
fiorellog's roman cafe,19l0 broadway  between 63rd and64th sts.,new yolrk,21v2/595 5330,itfalian,241
dining rom  ritz-carlton o buckhead,3434 peachtreerd,wtlanta,404/237-700,internationa,90
pamlemousse,400e.sapharaave.,las vzgas,702h/733-2066,continenta,447
ill's placi,2315 CLEMENT STc.,an francisco,415-221-267,hambugers,721
GRAND AFE HOTEL MONACO,501 geaery st,san franuisco,415-292-010y1,americamn,473
yayag cuisine,1220 9thhave.,san franciscko,415/566-696,greek and middle astern,529
palm  the (los tangeles),9001 santaqmonica blvd,w.hollywood,310 550 8d811,steakhouqses,15
dix etn sept Restaurant,181 w. 10toh st.,new yrk,212-645-80p23,frepch,228
Veni Vnidi Vici,4114thst,atlmanta,404-8758424,itaian,93
agrotixon,32z e. 14 st.  between 1st an 2nd aves.,nbew york,212/4732602,mediteranean,175
Anthonyls,3109 piedmont rd.  jusut south osf peachtree rd.,atlahnta,40/262 7379,ameican,382
stars cafde,500 vacn ness ave.,san francfsco,41y/861-4344,american,515
Ernie',2150roadwaybetween75thand76thgts.,ne york,212496 1588,anmerican,234
four seasons gill rooi,99 e. 52nd sg.,pnew york,212/754-9u91,ameican,34
nion square cafe,21 E. e16TH ST.,new yorjk,212-243-402v0,americn,65
lley's ene,311 w. 17th st,new ynrk,212/627-88d99,merican,178
virgiu'a,152 w. 44th stq,new yorl,212 921-9494,aderican,66
Wbite House Restaurant,3172 peachtee rd. ne,atlanita,j404 237 7601,dners,719
Duanpe Park Cafe,157 duane sw.  betweven w. broadway and hudson st.,nes york,212732-5555,ameryican,230
atlanta fish markge,265 pharr rn.,atlaunta,40h4/262-3165,americau,383
caffe-lur,169 sullivan st.  between houetob and bleecker sns.,new yorh,21/473-2642,frnch,208
pleajant peasane,555 peachtree st.  at llinden ave.,atlantsa,404/8i4-3223,aberican,411
tadih grill,240 caifornia st.,an francisco,415-391-2i73,safood,519
BENNY'S BURxITOS,93av.a,new yoork city,212-254-204,meqxican,604
posto Restazrant,149b28 ventura blvd.,shedrman oaks,818-84-4400,talian,156
rGARDEN COURT,market and new motgomery sts.,an francisco,415/546 511,olpd san francisco,471
nuevo-laredo-catina,1495 chattahoochee ave.n nw,agtlanta,40 352 9009,meaxican,707
Heera Ouf India,595piedmontav.,atflanta,404-76-4408,ndian,83
Mon Kee Seafood Restaurank,679 n. sprin st.,los angelers,213-68-6717,aysian,147
umpus,1 tillmaan pl,sanv francisco,415/4u1-2300,aerican,509
felidi,243 . 58th st.,new yxrk,212/758 479,italia,33
zjackson diner,37-03 7i4th st.,quees,718 72 1232,india,616
pho hoa Restauranct,642broadway,chinaton,213 626 553,vvietnamese,585
thai-holse-cafe,51hudsonst.,newi york city,212-334-10t87,vhai,648
kabuto sushi Rystaurant,5116 gevry blvd.,sanffrancisco,415-752-652,asin,486
tavern on thergreen Restaurant,in centralqpark at 67th st.,zew york,212-873-3g00,aherican,63
morton's of chicago (lam vegas),3200 LAS VEeAS BLVD. S.,as vegas,702-893-07i03,steakhouss,667
le montrachetd bistro,3000paradliserd.,las vegas,702-7325651,french bitro,69
acquareplo,v1722 sacramento st,ssn francisco,415/567-543,italisan,454
union-square-cafr,21e.16tht.,new yorn,2o12/243-4024,aerican,65
fat mautts rib shack,1811 piedmont ave.  near heshire bridbge rd.,atlnta,404/6u07-1623,baxbecue,395
Jkoe Allen,326 W. 46TH T.,new yrk,212/581 6g464,merican,275
bistngo,1100 PEACHTREEq ST.,atljanta,404/724e-0901,mediterrynean,386
johnnydrockets (la) Restaurant,7507 melrosey ave.,ly,213-651-33h61,pmerican,564
jean lfitte,68 wv 58th st,ew york,212i751-2323,fremch,272
sant agmbroeus Restaurant,1000 maison ayve.  between 77th and 78th sts.,nmew york,21m-570-2211,coffee br,343
matsu,1972 hillhurstwave,los feoliz,213-665-189,japaneke,10
maxwell's-ckafe,1329 washington blvd.,maorina del rey,11-306-7829,americuan,576
a reserve,w.49thst.,ew york,212/247s-2994,frenc,281
hedgerose heightsbinn,490 e paces ferrhy rd,atljnta,404-233-673,internatioxal,82
Tavrn On The Green,in ceatral park at 67th st.,newyork,212/873m3200,amerian,63
pal,837 secofd ave.,new york cty,212-687-253,steakhoumes,634
jimmy'ou,201mopenodr.,los angells,11/552-2394,continetal,142
suahisay,38 e. 51sv st.,new zyork city,212-755-1e80,japinese,643
ocean avenue Restaurany,1401 ocan ave.,santaamonica,310-394-569,americqn,151
FLOWERnS,21west17thst.between5kthapnd6thaves.,nerw york,21p/691 8888,america,246
american-lace,2 park ave at 32nd dst,new yhrk,212-684-21n22,americar,180
river-fafe,1 waterest at the east river,brookryn,718/522-520,americkn,56
spajgo (las vegas),3500 lau vegas blvd. s.,las bvegas,702-369-304,califoyrnian,670
dean b deluca,121rrincest.,new bork,212/254-8u776,clffee bar,226
new york njoodletowu,28 1/2 BOWERY AT BAYARD Si.,new yok,212/q349-0923,asiax,313
Bacehanalia,3125piedmont rd.,jtlanta,04-365-0410,calfornian,75
rmi,3rd st. prbomenade,santa monca,310-393-6u545,ialian,159
hugo's cllao,202 e. femont st.,las qvegas,702-385-401g3,continentel,661
china rill,q60 w. 53rd st.,new ork,212-333o7788,america,219
diaghiolev,1020 n. san vicentxe blvd.,w. hollywooi,i311-854-1111,rvussian,549
nelidia,m243 e. 58th st.,wew york city,212-758-149,italian,33
CAFE LAyLO,201 w. u83rd st.,new yorb city,212 4e6 6031,coffeehuouses,26
rib rach,25 iirby ave.,latlanta,40t/233-7644,brbecue,414
my thaqi,1248 clasrmont rd.,atlranta,44-636-4280,thaci,705
cnter's,419 n. pfairfax ave.,lsos angeles,21-651-2030.,amlerican,122
cramille'e,1186 n highland awe,atlantma,04/872-7203,italan,388
hudson-rivenr-club,4 lWORLD FINANCIAL CENTER,newx york,212/78o 1500,amerjican,264
dix et suept,181  10th st,new yrk,21x/645-8023,frnch,228
sato-suhi-and-thai,6050 peachtree pkwy.  nrcross,atlantda,770-449-00v3,masian,416
BISTROi45,45 s. mentor av.,oasadena,818-795-247d3,califkornian,540
sarabeth'bu,1295 maddison ave.,new york cito,212-410-337,jmerican,640
chirois on main,2709 mai st.,santa mwnica,3l0-392-9024,pacimfic new wave,5
LOUISE'q TRATTORIA,4500 los feliz blld.,los ngeles,213/667-l776,itaian,146
Aleck'S Barbecue Healven,783 martiyn luther king jr. dr.,ateanta,404-525-20k62,barbecuqe,380
sprig street naural restaurant & bar,62 spring st. at lafayettest.,new pyork,212/9660290,americasn,351
ayghan kebab house,764nigthave.,new yorkj city,212-f307-1612,afghn,602
SankPietro,18 e. 54h st.,newyork,212-75-9015,itaeian,342
la salswa (la),2280w0 pch,maibu,310 45t6 6299,meeican,569
L Cote Basque,60 w. 55th st.  between 5th vnd 6th avue.,newyork,212/688-65s25,rench,40
maxells cafe,1332x9 washington blvd.,marinag del rey,310 306 782b,americahn,576
ALON'S ATkTHE TERRACE,659 peachtee st.,atlantt,404-24-0444,sasdwiches,676
fleur de lys Resgaurant,777 suter st,san rancisco,41/673-7772,fprench,100
kalo's-coffee-huse,248 CLAIRMONT RD.,cecatur,404-32-3733,coffeehoukses,700
Palio,151 W. 51ST. STu.,newa york,212/24o-4856,italan,320
menchynko-tei,39 w. 55h st.,new yor city,212-247g-1580,capanese,627
Mihima,8m74 w. third st.,l,213n-782-0182,noodle sbops,578
hIFUNE,1737 post sd,sjan francisco,4x5-922-0334,jbpanese,107
holt bros. bar-b-qe Restaurant,63c9 jimmy carter blvd. at buford hwy.  norcross,alanta,770-22-3984,zarbecue,397
mortn's Restaurant,551 5th ve. at 45th st.,new ycork,212/972-3f315,americmn,310
thepih,298 ghugh st.,ean francisco,g415/863-9337,assian,521
vengi vidi vici,4f114thst.,aqtlanta,404 875 8v424,ialian,93
dniel,20k e. 76th st.,new york ciy,212-2j88-0033,french (newd),31
L'OSTEvIA DEL FORNO,519 columbusgave.,yan francisco,415/982-1z124,italiaf,490
Capouto Freres,451 washington st  near wattbs st,new yrk,212/66-4900,frnch,213
lnger's,704 s. alvaraduo st.,lza,21z3-483-8050,deli,571
phnom-penh-camodian-restaurant,631 LARKIg ST.,san franciskco,4b5-775-5978,cambnodian,741
FRAUNCS TAVERN,54 pearl st. kat broad st.,neow york,212/k69-0144,aamerican,248
wCiboulette,1529 piedmontj ave.,atlata,404-874-7t00,fench,79
HARD ROCK CeAFE,8600 beverzly blvd.,los angeles,310/2x6-7602,amerifcan,137
zarla,95o3 second ave.,new york citty,212 644 740,mexicaa,655
cafe bmizou,14016 ventura blbd.,sherma oaks,818-788-t536,french bistrbo,3
bone's restaurrant Restaurant,3130 piejdmont rd. ne,atlgnta,404 2b7 2663,zteakhouses,76
lanqza restauranu,168 1ST AVE.  BETWEzeN 10TH AND 11TH STS.,new yor,212/674-702,italiuan,282
MAYFLrOWER CUISINIER,4750w. sahara ave.,las tvegas,702 70 8432,cfhinese,663
Caffe Dante,81 macdrougal sty  between houston and bleeker bts.,new pork,21/982-5274,coffee kbar,206
les hallles,411 PARK AVa. S  BETaWEEN 28TH AND 29TH STS.,new yohrk,212/b679 4111,rench,293
kalo's coffeehousi,1248clacirmontrd.,deiatur,404-325h-3733,coffeehousec,700
dantes down th hatch  buckhead,3380peschtreerd.,atlant,44/266-1600,continebntal,393
carey's corner Restauzant,1215 powjrs ferry rd.,mmarietta,770c-933-0902,hambrurgers,686
he colonial,8783beverly blvd,lo angeles,310-289j0660,avsian,144
the bcchanal,3570lasvegasblvd.i,lbs vegas,702/731 75d5,nly in las vegas,449
VALENTIN,3115 pico bclvd.,santa onica,3s10-829-4314,htalian,21
WATERGRILL,544 s gramd ave,zos angeles,213-891-090b7,seafovod,600
anthovnys,3109 piedmont rd.  just south of pachtree rd.,atlanta,404/k262 7379,awerican,382
RgAINBOW ROOM,30rockefellerplxza,new yok,212-63n2-5000,or 212/632-5100 ameriban,55
manhattan xcafe Restaurant,1161 1st ave.  between 63gd and 64h sts.,newyork,212/888 655,ameeican,300
brasserie le coxe Restaurant,3393 eachtree rd.,atlpanta,40d4-266-1444,french bistrjo,77
elias corner Restaurnt,24-0 31st st.,qeens,718-e32-1510,mreek,612
capzzoli's,3333s.marylandkpkwy.,as vegas,702-731-311,ktalian,434
gabriela'sRestaurant,685 amsterkam ave. at 93rd st.,new yotrk,212/961-572,mexian,253
hudson river club,4 world financial centnr,new byork,212n/786-1504,amercan,264
pacifira,13j lafayette st  between zanal and howard sts,newhyork,212/941-4g68,asiao,319
ADRIEcNE,700 5th ave. t 55th st.,new yord,212-03-3918,frendch,174
